{"type":"FeatureCollection","features":[{"type":"Feature","id":"Kosova.1","geometry":{"type":"MultiPolygon","coordinates":[[[[20.7650189,42.04184354],[20.7510021,42.00897494],[20.7498004,41.98575644],[20.7661111,41.96333334],[20.7671382,41.95678514],[20.762675,41.95282764],[20.7589865,41.94437114],[20.756633,41.94445284],[20.7685446,41.92901984],[20.7729008,41.92683424],[20.770449,41.92453884],[20.7721702,41.92107194],[20.7764794,41.91873904],[20.7556713,41.90614044],[20.7501197,41.89491174],[20.740869,41.89326214],[20.7376433,41.88858044],[20.7358139,41.87706754],[20.7277048,41.86432584],[20.7059181,41.86477794],[20.6933413,41.85981804],[20.6834745,41.85773204],[20.6779663,41.86851894],[20.6706881,41.87345164],[20.6630735,41.87516704],[20.6485435,41.87452764],[20.6321583,41.86107714],[20.6188675,41.85776344],[20.6040872,41.86769344],[20.5943514,41.87720284],[20.5934892,41.88433744],[20.5879569,41.89112754],[20.5757245,41.91796444],[20.5854008,41.91845644],[20.5891448,41.92216364],[20.5905141,41.92685784],[20.5981966,41.92945024],[20.6052566,41.92882584],[20.6068189,41.93168324],[20.6171194,41.93912204],[20.6203884,41.94312374],[20.6241057,41.95721104],[20.6248903,41.97183684],[20.621883,41.97818364],[20.6173951,41.98019024],[20.611908,41.98544124],[20.6118305,41.98961304],[20.601867,42.01625274],[20.5973677,42.01973134],[20.5949811,42.04311474],[20.5910637,42.04482284],[20.5762071,42.05793954],[20.5701265,42.05889794],[20.5579235,42.07528394],[20.5594859,42.07867064],[20.5545676,42.08284494],[20.5678519,42.09832064],[20.5629444,42.10594614],[20.5610886,42.10878864],[20.5682078,42.12067174],[20.566866,42.12552244],[20.5554355,42.13964684],[20.5583718,42.14648774],[20.5479165,42.15461434],[20.5436293,42.16072184],[20.5470433,42.16422794],[20.5435021,42.16566204],[20.5421313,42.17238874],[20.5379731,42.17520494],[20.5318079,42.18538884],[20.5240482,42.21084024],[20.5145394,42.22411334],[20.5090479,42.22466344],[20.5020616,42.22847524],[20.4977802,42.23999264],[20.4952075,42.24235064],[20.4908602,42.24336274],[20.4874182,42.24794004],[20.4770351,42.25330804],[20.4759701,42.25717784],[20.4567334,42.27207254],[20.4451613,42.27488174],[20.4413834,42.27739054],[20.425676,42.27794364],[20.4233519,42.28232754],[20.4049459,42.28443114],[20.3946643,42.29866444],[20.3898926,42.29799334],[20.3864285,42.30093444],[20.3735155,42.30617714],[20.3690482,42.30532104],[20.3619525,42.30856934],[20.3535896,42.30944764],[20.3538486,42.31721464],[20.3491714,42.31997694],[20.3465375,42.32429414],[20.3386988,42.32766254],[20.3268563,42.32727554],[20.3207263,42.32177804],[20.3144881,42.32061964],[20.309232,42.31545744],[20.3060738,42.31475484],[20.2941105,42.32083704],[20.2922637,42.32347844],[20.2860936,42.32320804],[20.2709956,42.31931164],[20.2592265,42.31856574],[20.2570242,42.31893884],[20.2550223,42.32267104],[20.2485161,42.32249144],[20.2458897,42.32400394],[20.2422031,42.32767094],[20.2478622,42.33313074],[20.2430704,42.34135994],[20.2363661,42.34738614],[20.2396998,42.35101444],[20.2443555,42.35226294],[20.2463764,42.36814974],[20.2403302,42.37383104],[20.242062,42.37601154],[20.2395817,42.38077574],[20.235344,42.38116544],[20.2337724,42.38514664],[20.2276945,42.38789074],[20.2214997,42.39315974],[20.2097578,42.39838984],[20.2079514,42.40091844],[20.2113697,42.40381894],[20.2137191,42.40935894],[20.2260797,42.41440484],[20.2276922,42.41881304],[20.2266649,42.42384184],[20.2230902,42.42573434],[20.219113,42.43557884],[20.2148426,42.43789914],[20.2123031,42.43712434],[20.2079557,42.44447524],[20.1932134,42.45240454],[20.1923252,42.45664614],[20.1967815,42.46256394],[20.1896131,42.47010194],[20.1826853,42.47330954],[20.180254,42.48004084],[20.1805833,42.48647114],[20.166631,42.49684374],[20.1660378,42.49898794],[20.1683279,42.50150944],[20.1665232,42.50669414],[20.1562982,42.50960064],[20.1491934,42.51454184],[20.1226061,42.52187494],[20.1216636,42.52538444],[20.1068924,42.53117234],[20.1033412,42.53117204],[20.0982962,42.53414784],[20.0950398,42.54203564],[20.0894905,42.54520154],[20.0875794,42.55162104],[20.0788686,42.55629414],[20.0853676,42.56820364],[20.085178,42.57092644],[20.0894838,42.57469244],[20.0864204,42.58503034],[20.0868528,42.58742024],[20.0756242,42.60089734],[20.0726151,42.60710084],[20.075768,42.61437454],[20.0754193,42.62071934],[20.0779449,42.62381994],[20.0914139,42.63142064],[20.0907567,42.63337954],[20.0935087,42.63462274],[20.0950724,42.64084554],[20.10183,42.64553274],[20.1102113,42.64823914],[20.1119623,42.65538774],[20.1083332,42.65863854],[20.0884414,42.66885054],[20.0823587,42.67963944],[20.0671506,42.68015174],[20.062725,42.68470214],[20.0535765,42.68476044],[20.0436823,42.69540034],[20.0321322,42.69766734],[20.0302515,42.70628474],[20.0319155,42.71078074],[20.0264792,42.70952964],[20.0151823,42.70992854],[20.0160791,42.71299214],[20.0213862,42.71314144],[20.0301898,42.71973174],[20.0168023,42.72397894],[20.0128986,42.72847494],[20.0142086,42.73342454],[20.0120527,42.73977624],[20.0136529,42.74309194],[20.0168104,42.74318734],[20.0178559,42.74844814],[20.0224693,42.75189094],[20.0213905,42.75700404],[20.0242256,42.76482514],[20.0296425,42.76582534],[20.0322556,42.76490594],[20.032917,42.76856174],[20.0426765,42.77439564],[20.0469187,42.77349704],[20.0514913,42.77661014],[20.0604327,42.77892494],[20.0698183,42.77446154],[20.084629,42.77396694],[20.0891656,42.77564224],[20.0984665,42.77582934],[20.104649,42.77241654],[20.1034076,42.76946704],[20.1140887,42.76328494],[20.1191216,42.76193914],[20.1260162,42.76260754],[20.1457465,42.75538964],[20.1490563,42.76380174],[20.1550913,42.76884414],[20.1680404,42.76234884],[20.1739301,42.75640194],[20.1829144,42.75454824],[20.1926776,42.74712214],[20.1961237,42.75152154],[20.1990688,42.74804324],[20.2004314,42.75131514],[20.2134787,42.75053834],[20.2241303,42.75389284],[20.2336747,42.75313654],[20.2366508,42.75721804],[20.2504401,42.75896964],[20.255308,42.77032744],[20.2581584,42.77118454],[20.2661589,42.77890234],[20.263437,42.78858824],[20.2627268,42.80398544],[20.2585919,42.80455214],[20.2523091,42.81071444],[20.2547746,42.81429394],[20.261475,42.81474024],[20.2740586,42.81999884],[20.2760187,42.82208344],[20.2750701,42.82536054],[20.2807491,42.83040854],[20.2853056,42.82592664],[20.2937889,42.82531524],[20.2979152,42.83599624],[20.3154933,42.83582234],[20.3164772,42.82913384],[20.3200391,42.82605014],[20.3275643,42.83316464],[20.3349007,42.83555014],[20.3392503,42.83618144],[20.3435471,42.83282324],[20.3530267,42.83351024],[20.3645539,42.83223764],[20.3820473,42.84223904],[20.3894245,42.84217454],[20.3937739,42.84447314],[20.3985676,42.84416164],[20.4087857,42.84720744],[20.4161757,42.84588594],[20.4327132,42.83437974],[20.4419215,42.83354674],[20.463874,42.85329544],[20.4777249,42.85965974],[20.4868835,42.86786284],[20.5018841,42.87095834],[20.5149647,42.87783344],[20.5359289,42.88255844],[20.538465,42.88532434],[20.5360732,42.88576574],[20.5360088,42.88858004],[20.5342045,42.88955494],[20.5331978,42.88867434],[20.5329403,42.89007354],[20.5211467,42.89335924],[20.5203206,42.89820254],[20.5065748,42.90480104],[20.5007538,42.91731234],[20.4872569,42.92835844],[20.4857928,42.93308204],[20.4899745,42.93512614],[20.4966472,42.94427404],[20.4974666,42.95127014],[20.5008744,42.95644604],[20.5084918,42.96324564],[20.5142167,42.96483834],[20.5153063,42.96972284],[20.5287817,42.97507664],[20.5364141,42.97470094],[20.5399611,42.96546774],[20.5436733,42.96228014],[20.5480473,42.96144214],[20.5503584,42.96294864],[20.5564371,42.96863324],[20.5543535,42.97493594],[20.5583085,42.97859314],[20.5637741,42.97955764],[20.5675918,42.98371684],[20.5663559,42.98600734],[20.5704757,42.99627324],[20.5729266,42.99889584],[20.5807307,43.00106944],[20.5815411,43.00812264],[20.5793186,43.01102634],[20.5811969,43.01207544],[20.589846,43.01366364],[20.5906682,43.01612254],[20.6013695,43.01481314],[20.6066657,43.01634204],[20.6096085,43.01450294],[20.6173976,43.01647984],[20.6187924,43.01589934],[20.6175478,43.00885454],[20.6150142,43.00390574],[20.6169349,43.00215974],[20.619694,43.00151224],[20.6231797,43.00286224],[20.6299289,43.00827394],[20.6405108,43.00564844],[20.6409432,43.00929584],[20.6371044,43.01514654],[20.6401586,43.01705904],[20.6410347,43.02112414],[20.6453845,43.02261394],[20.6512658,43.02096804],[20.6507502,43.02720574],[20.6542329,43.03316444],[20.6638106,43.03289214],[20.670326,43.03516784],[20.6716491,43.04472504],[20.6699892,43.04675294],[20.6659993,43.04765754],[20.6711634,43.05383504],[20.66996,43.05816554],[20.6691289,43.06497784],[20.6666468,43.06396484],[20.662506,43.06513834],[20.658296,43.06835684],[20.6568476,43.07194254],[20.6629748,43.07651474],[20.6649199,43.07545454],[20.6709481,43.07617264],[20.6882654,43.08182014],[20.6925047,43.08791574],[20.6936807,43.09356624],[20.6886852,43.10059134],[20.69379,43.10318724],[20.693867,43.10730914],[20.6854805,43.12301394],[20.673199,43.12686284],[20.6726595,43.13180964],[20.6608725,43.13754374],[20.6644423,43.14333384],[20.6616653,43.15081244],[20.6624827,43.15317194],[20.6573576,43.15389504],[20.6533711,43.15836924],[20.650274,43.15781894],[20.6431945,43.16203544],[20.6319106,43.16343074],[20.6250438,43.16842284],[20.6186801,43.16911624],[20.6114628,43.17459204],[20.611716,43.17667824],[20.6157356,43.17925934],[20.6143402,43.19014104],[20.6046777,43.19671554],[20.6024048,43.20029944],[20.5971687,43.20260154],[20.5971094,43.20539944],[20.6032554,43.21085904],[20.6055657,43.21035284],[20.6073425,43.20683564],[20.6154366,43.20447574],[20.6343412,43.20853554],[20.6441638,43.20661564],[20.6562639,43.20991544],[20.6768873,43.20897904],[20.687627,43.21328664],[20.6886034,43.21880814],[20.6968309,43.22209694],[20.6993854,43.22527534],[20.7076653,43.22632674],[20.7098275,43.22747354],[20.7106587,43.23155664],[20.7212663,43.23485214],[20.7316995,43.24934804],[20.7401925,43.25089554],[20.7463282,43.24746534],[20.7565137,43.24629074],[20.7635372,43.24342164],[20.775886,43.24640554],[20.7950359,43.24565664],[20.7932281,43.25762414],[20.801984,43.26570304],[20.8072289,43.26746044],[20.8275125,43.26572004],[20.8300665,43.26166054],[20.8354662,43.26150394],[20.8366609,43.25667164],[20.8477143,43.25161284],[20.8517343,43.25116154],[20.8594161,43.24136144],[20.8730988,43.23133834],[20.8773229,43.22652024],[20.877592,43.22329534],[20.8802982,43.22275034],[20.881223,43.21094644],[20.8881717,43.20711204],[20.8906995,43.20387524],[20.8891725,43.20298224],[20.8845118,43.20406794],[20.8824007,43.20595384],[20.8673256,43.20570724],[20.8649356,43.20778894],[20.8513027,43.20538864],[20.844996,43.20745874],[20.8429794,43.20323104],[20.8454089,43.19847484],[20.8571591,43.18970224],[20.8492058,43.18571434],[20.8367202,43.18431564],[20.8338325,43.17988664],[20.8415486,43.17359114],[20.8584452,43.17484504],[20.8660118,43.16547154],[20.8717758,43.16497204],[20.8760448,43.16713574],[20.884189,43.16748404],[20.8836151,43.16597024],[20.8889622,43.16208444],[20.888819,43.15913974],[20.8942409,43.15568114],[20.8990227,43.15453574],[20.9028386,43.15622064],[20.9120264,43.14877024],[20.9250659,43.14793754],[20.9293349,43.14635744],[20.9319324,43.14494734],[20.9374473,43.13462284],[20.9464753,43.13380164],[20.9499783,43.13027584],[20.9608125,43.12632344],[20.9706758,43.12466174],[20.9730667,43.12654864],[20.971695,43.13091864],[20.9761525,43.13436904],[20.9959232,43.13650974],[20.998914,43.13841664],[21.0058476,43.13530404],[21.0173339,43.13423764],[21.0190505,43.13135634],[21.0286421,43.12936754],[21.0369033,43.12028404],[21.0422381,43.11840724],[21.0544855,43.10748044],[21.0669869,43.11035324],[21.0687679,43.11345484],[21.0798795,43.11481414],[21.0828871,43.11762134],[21.0821629,43.12890354],[21.0918958,43.13558074],[21.1021147,43.12587664],[21.1053801,43.11823804],[21.1072426,43.11689714],[21.1104012,43.11739224],[21.1167643,43.11121874],[21.1308613,43.11180694],[21.135235,43.11387244],[21.1390629,43.11172684],[21.1497206,43.09177374],[21.1479251,43.08839174],[21.1436606,43.08688854],[21.1394875,43.08252964],[21.1435318,43.07658404],[21.1431467,43.07407854],[21.1466546,43.07173614],[21.1464374,43.06933044],[21.1499359,43.06766224],[21.152898,43.06070294],[21.15219,43.04933534],[21.1539846,43.04568734],[21.1522309,43.04080654],[21.1558668,43.03014494],[21.1591101,43.02887274],[21.1661589,43.02903714],[21.1677096,43.02692684],[21.1663354,43.02526644],[21.1672426,43.02041554],[21.1634445,43.01530504],[21.1695922,43.00811894],[21.1696351,43.00450204],[21.1721973,43.00383474],[21.1713713,43.00114654],[21.1754324,43.00029934],[21.1929392,43.00817924],[21.1941728,43.00973284],[21.1923695,43.01557954],[21.1977017,43.02382364],[21.2009438,43.02326734],[21.206156,43.02510214],[21.2137199,43.02189414],[21.2223732,43.02015144],[21.2257036,43.02097094],[21.2257148,43.01782304],[21.2298589,43.01494034],[21.2329084,43.00984684],[21.2358588,43.01034894],[21.2387265,43.00595834],[21.238486,42.98999174],[21.244479,42.98131284],[21.2401846,42.97485514],[21.2398443,42.96613104],[21.2345573,42.95971174],[21.2352231,42.95219194],[21.2448798,42.93849104],[21.245276,42.93386704],[21.2509203,42.93156754],[21.2532067,42.92618484],[21.2654,42.91269074],[21.2697766,42.91040974],[21.2705928,42.89755494],[21.2741445,42.89505924],[21.2820941,42.89565284],[21.2865036,42.90115454],[21.2921463,42.90353444],[21.2992177,42.90155104],[21.3044314,42.90629994],[21.3146806,42.90238994],[21.3307891,42.90297464],[21.3360949,42.89927824],[21.3396554,42.90077624],[21.3433855,42.89879654],[21.3452813,42.89470244],[21.3438875,42.89165944],[21.3493987,42.88988344],[21.3512153,42.88779984],[21.3498752,42.88137524],[21.3522774,42.87932524],[21.3564724,42.87923874],[21.3606781,42.87283874],[21.3638558,42.87163164],[21.3696671,42.87397294],[21.3799367,42.87288404],[21.3854504,42.86654474],[21.3921364,42.86867214],[21.3946951,42.86794744],[21.3959431,42.86897414],[21.3944213,42.87198704],[21.4028873,42.87508534],[21.4074257,42.87379924],[21.4120692,42.87422254],[21.4138969,42.87575534],[21.4352274,42.87287044],[21.4342387,42.86755504],[21.4360184,42.86472444],[21.4369411,42.85165604],[21.4234522,42.84721584],[21.4240098,42.83261594],[21.418309,42.82859544],[21.4171043,42.82590084],[21.4178091,42.81752474],[21.4246112,42.81055174],[21.4227009,42.81055644],[21.4225191,42.80579764],[21.4137965,42.80679724],[21.4095176,42.80456864],[21.40634,42.79409974],[21.4120416,42.79241434],[21.4128686,42.79020564],[21.4081916,42.78758424],[21.4096012,42.78384214],[21.4077884,42.78177754],[21.4111038,42.77605034],[21.4072969,42.76663274],[21.4029148,42.76694914],[21.396255,42.76120024],[21.3943567,42.75185434],[21.3983665,42.74460274],[21.4037329,42.74338194],[21.4102297,42.74387144],[21.4149952,42.74620254],[21.4177769,42.74420534],[21.4203912,42.74619304],[21.4269071,42.74588354],[21.4316868,42.74818024],[21.4409644,42.74876004],[21.4424922,42.74713934],[21.449954,42.74975684],[21.4517618,42.74476634],[21.4672583,42.73615134],[21.474577,42.74622924],[21.4791407,42.74748384],[21.4852287,42.74225974],[21.4978333,42.73767644],[21.5015262,42.73323554],[21.5063733,42.73240984],[21.5114415,42.73227954],[21.5132389,42.72968484],[21.5210766,42.72846304],[21.5260858,42.72552954],[21.5400772,42.72369074],[21.5418873,42.72845654],[21.5525303,42.73109634],[21.5581333,42.73822994],[21.5600044,42.73834844],[21.561739,42.73356064],[21.5679103,42.73133394],[21.5714512,42.72783094],[21.5783109,42.72865104],[21.5813863,42.72529054],[21.5830746,42.72739664],[21.5901893,42.72671724],[21.5922978,42.72531264],[21.5945214,42.71025124],[21.5910506,42.70696614],[21.5913834,42.70351324],[21.5991721,42.70384914],[21.6045329,42.70219014],[21.6088781,42.69774254],[21.6170036,42.69608904],[21.6196324,42.69681144],[21.6232073,42.69481284],[21.624534,42.69629054],[21.6302115,42.69694714],[21.630083,42.69907814],[21.6324817,42.70016364],[21.6361698,42.69655654],[21.638099,42.69777774],[21.6396642,42.69235544],[21.6487222,42.68549324],[21.6487059,42.67949294],[21.6536453,42.67602714],[21.6584851,42.66926854],[21.6647385,42.66637514],[21.6675206,42.66897134],[21.6739333,42.67095484],[21.6748586,42.67522764],[21.6775661,42.67628184],[21.6760368,42.68247764],[21.6784751,42.68680414],[21.6908001,42.69123444],[21.6993379,42.69076924],[21.7039901,42.69251714],[21.7080497,42.68975984],[21.7171436,42.68978864],[21.7202121,42.69228054],[21.7227697,42.69174714],[21.7245936,42.69494874],[21.7292499,42.69523264],[21.7325502,42.69376314],[21.737554,42.69469634],[21.7459077,42.69981204],[21.7523495,42.70055144],[21.752817,42.69476954],[21.7559553,42.69271974],[21.761285,42.68267654],[21.7695976,42.67883144],[21.771615,42.67596114],[21.7727732,42.66685524],[21.7806748,42.66255584],[21.7894228,42.65130114],[21.7832509,42.64659954],[21.7785898,42.64673284],[21.7789982,42.64345564],[21.7704334,42.63462304],[21.7679898,42.63381094],[21.7608672,42.63799264],[21.7579776,42.63669364],[21.7539884,42.62847184],[21.7539587,42.62448074],[21.7567014,42.62227474],[21.7570234,42.61905004],[21.7514103,42.61254994],[21.7517147,42.60892684],[21.7508411,42.60745434],[21.7455716,42.60895294],[21.7447476,42.60392634],[21.7419648,42.60456564],[21.7384166,42.60116854],[21.7401273,42.59095874],[21.7475477,42.58104324],[21.7481217,42.57025504],[21.744769,42.56520594],[21.7488835,42.56167764],[21.747816,42.55890784],[21.7414296,42.55332144],[21.7283163,42.54703294],[21.7144184,42.55005844],[21.7066746,42.54972274],[21.7019695,42.54534824],[21.7030943,42.54410544],[21.7013226,42.54087644],[21.6935241,42.53935454],[21.6970997,42.53576854],[21.6967258,42.53133584],[21.6984997,42.52857784],[21.7075672,42.52212334],[21.7105732,42.51658444],[21.7069569,42.51340294],[21.6946867,42.51558704],[21.6921787,42.51507004],[21.6915455,42.51322754],[21.6915286,42.50785644],[21.6936958,42.50529384],[21.6906605,42.50238234],[21.6806202,42.49966624],[21.6672295,42.49301804],[21.6720905,42.48591424],[21.6714191,42.48459054],[21.6614742,42.48522384],[21.6582127,42.48379334],[21.6597729,42.47998244],[21.6572493,42.47572784],[21.6421108,42.46867184],[21.6313685,42.45992764],[21.6290269,42.45953664],[21.6288199,42.45731824],[21.6245823,42.44736294],[21.6321852,42.43985444],[21.6315556,42.43556404],[21.6377239,42.42939574],[21.6386644,42.42405784],[21.6369534,42.42104154],[21.6434585,42.41810784],[21.6465015,42.41330154],[21.6448724,42.40832404],[21.635664,42.40363124],[21.636933,42.40343944],[21.6356683,42.39786254],[21.6281609,42.39269854],[21.6207542,42.37812574],[21.6147693,42.37573404],[21.6057975,42.37540874],[21.6027453,42.38250544],[21.600495,42.38365024],[21.5930486,42.38012544],[21.5896817,42.38147684],[21.5795597,42.37541404],[21.5847385,42.36753414],[21.5782661,42.36531194],[21.5764564,42.36278724],[21.5731115,42.36595044],[21.5661259,42.36782264],[21.5661665,42.36673224],[21.5635222,42.36746074],[21.5583481,42.36599134],[21.5571497,42.36247734],[21.5519199,42.36516764],[21.5518818,42.36786544],[21.5495374,42.36796204],[21.5456754,42.37337354],[21.5410998,42.36952484],[21.54118,42.36753964],[21.5369529,42.36675484],[21.5402241,42.35971264],[21.5370065,42.35691674],[21.5382473,42.35356354],[21.5357898,42.35320024],[21.5347346,42.34806774],[21.5297761,42.34276094],[21.5313272,42.33315014],[21.5281928,42.32738314],[21.5355896,42.32211734],[21.5412859,42.32075014],[21.5377668,42.31998934],[21.5381921,42.31881214],[21.5422409,42.31875074],[21.5380633,42.31080724],[21.5409816,42.30914104],[21.5475412,42.31115374],[21.550016,42.31377344],[21.5517436,42.31247424],[21.5582649,42.31543354],[21.5597295,42.31465604],[21.5648145,42.30978464],[21.5644145,42.30407534],[21.5624427,42.30173074],[21.5650066,42.30079204],[21.5608345,42.29882194],[21.5833284,42.28326614],[21.5814437,42.28030704],[21.5826853,42.27573764],[21.5892399,42.26731774],[21.5848114,42.25867374],[21.5735303,42.25404834],[21.5674643,42.24987114],[21.5627126,42.25215634],[21.5617308,42.25090114],[21.5439248,42.25337464],[21.5444859,42.25170144],[21.5389404,42.25050984],[21.5317942,42.24358414],[21.5328418,42.24134134],[21.5203555,42.24112124],[21.5201573,42.25203054],[21.51751,42.25962724],[21.5196477,42.26081114],[21.518941,42.26232484],[21.5147777,42.26297994],[21.5113901,42.26551594],[21.5109725,42.27017024],[21.5065629,42.27115944],[21.503399,42.26975184],[21.4994046,42.27235504],[21.4944447,42.27367924],[21.4891398,42.27301604],[21.4715494,42.27978304],[21.4679549,42.27996734],[21.4633745,42.27715364],[21.4569327,42.27663454],[21.4473958,42.27990824],[21.4414831,42.27912714],[21.4392944,42.27712674],[21.4418436,42.26755084],[21.4405157,42.26235584],[21.4327109,42.25950144],[21.4325841,42.25709944],[21.4362975,42.24700714],[21.4430878,42.24138324],[21.4421368,42.23927724],[21.4444468,42.23494784],[21.4356272,42.23301924],[21.4335886,42.23125824],[21.4302936,42.23694064],[21.4274698,42.23654024],[21.4213415,42.24083594],[21.4193399,42.24487264],[21.4166236,42.24565834],[21.4157889,42.24383954],[21.4138062,42.24369344],[21.4103473,42.24646054],[21.3996313,42.24914494],[21.3971787,42.24731664],[21.3910094,42.24666844],[21.3896962,42.24508034],[21.3862758,42.24677204],[21.3821042,42.24521714],[21.3855825,42.24169424],[21.3805232,42.23724384],[21.3773096,42.23759964],[21.3739958,42.23336424],[21.3749056,42.23097464],[21.3698438,42.22741084],[21.367271,42.22145854],[21.3600183,42.22172234],[21.357291,42.21920364],[21.3564155,42.21529274],[21.3528858,42.21479524],[21.3456865,42.21034694],[21.3413284,42.21221274],[21.3391827,42.21005124],[21.3398264,42.20782614],[21.3358374,42.20678714],[21.3342689,42.20868484],[21.3322089,42.20777884],[21.3341079,42.20584774],[21.3291083,42.20028444],[21.3352666,42.19292424],[21.3344298,42.18844884],[21.3297735,42.18369494],[21.3284538,42.17907574],[21.3155814,42.17244584],[21.3189363,42.17166274],[21.3158153,42.16771334],[21.3207098,42.16078794],[21.3161157,42.15759754],[21.3094584,42.14835134],[21.3074865,42.14812964],[21.3077924,42.14454664],[21.305357,42.14347274],[21.3038308,42.14530874],[21.3044745,42.14213514],[21.2981997,42.13899954],[21.3044653,42.13650144],[21.3033483,42.13234134],[21.3103006,42.12777414],[21.3118455,42.12136834],[21.3159786,42.11810144],[21.3146699,42.11543674],[21.3214409,42.10801494],[21.3034969,42.10474184],[21.2993728,42.10921524],[21.2920787,42.11144354],[21.2694194,42.09756134],[21.2572874,42.09443544],[21.256891,42.09320634],[21.2455514,42.09247104],[21.2371848,42.09366854],[21.2330102,42.09534324],[21.2326438,42.09805714],[21.2277562,42.09713604],[21.2227158,42.09368574],[21.2213211,42.10012334],[21.2127418,42.11091404],[21.2149305,42.11375504],[21.2162683,42.12940334],[21.209028,42.13721564],[21.2086648,42.14063774],[21.2058903,42.14216204],[21.2051323,42.14503224],[21.2030504,42.14544074],[21.203089,42.14748104],[21.1974349,42.14844914],[21.1912583,42.15927664],[21.1844444,42.16298604],[21.1860205,42.16433734],[21.1811303,42.16649364],[21.1780029,42.17249484],[21.1715724,42.17381214],[21.1653926,42.18500654],[21.1681392,42.19683484],[21.1191426,42.20677454],[21.1035945,42.20484624],[21.0829952,42.18933114],[21.0737255,42.18691444],[21.0697773,42.18780484],[21.0591342,42.17877354],[21.0515678,42.16537964],[21.0404232,42.16490614],[21.0278919,42.15498074],[20.9815216,42.13928124],[20.9672603,42.13665444],[20.948241,42.13881694],[20.939167,42.13583304],[20.9278133,42.12799634],[20.9188869,42.12685044],[20.9130504,42.11590044],[20.9023038,42.10481864],[20.9092476,42.09750684],[20.8782968,42.09619624],[20.8629595,42.09779394],[20.8606891,42.09981934],[20.8517278,42.09820174],[20.8486133,42.09927314],[20.8422994,42.09759244],[20.8341876,42.08617314],[20.796149,42.08316654],[20.7898009,42.08125544],[20.7844082,42.07833624],[20.7834793,42.07571544],[20.7859824,42.07113974],[20.7599285,42.05271004],[20.7650189,42.04184354]]]]},"geometry_name":"geom","properties":{"shapeName":"Municipality of Partesh","shapeISO":null,"shapeID":"46174442B23291947139751","shapeGroup":"XKX","shapeType":"ADM2"}}],"totalFeatures":1,"numberMatched":1,"numberReturned":1,"timeStamp":"2026-05-28T17:12:45.503Z","crs":{"type":"name","properties":{"name":"urn:ogc:def:crs:EPSG::4326"}}}