{"type":"FeatureCollection","features":[{"type":"Feature","properties":{"Rajoni":"Rajoni i Gjilanit","emri":"Rajoni i Gjilanit"},"geometry":{"type":"MultiPolygon","coordinates":[[[[21.5063733,42.73240984],[21.5114415,42.73227954],[21.5132389,42.72968484],[21.5210766,42.72846304],[21.5260858,42.72552954],[21.5400772,42.72369074],[21.5418873,42.72845654],[21.5525303,42.73109634],[21.5581333,42.73822994],[21.5600044,42.73834844],[21.561739,42.73356064],[21.5679103,42.73133394],[21.5714512,42.72783094],[21.5783109,42.72865104],[21.5813863,42.72529054],[21.5830746,42.72739664],[21.5901893,42.72671724],[21.5922978,42.72531264],[21.5945214,42.71025124],[21.5910506,42.70696614],[21.5913834,42.70351324],[21.5991721,42.70384914],[21.6045329,42.70219014],[21.6088781,42.69774254],[21.6170036,42.69608904],[21.6196324,42.69681144],[21.6232073,42.69481284],[21.624534,42.69629054],[21.6302115,42.69694714],[21.630083,42.69907814],[21.6324817,42.70016364],[21.6361698,42.69655654],[21.638099,42.69777774],[21.6396642,42.69235544],[21.6487222,42.68549324],[21.6487059,42.67949294],[21.6536453,42.67602714],[21.6584851,42.66926854],[21.6647385,42.66637514],[21.6675206,42.66897134],[21.6739333,42.67095484],[21.6748586,42.67522764],[21.6775661,42.67628184],[21.6760368,42.68247764],[21.6784751,42.68680414],[21.6908001,42.69123444],[21.6993379,42.69076924],[21.7039901,42.69251714],[21.7080497,42.68975984],[21.7171436,42.68978864],[21.7202121,42.69228054],[21.7227697,42.69174714],[21.7245936,42.69494874],[21.7292499,42.69523264],[21.7325502,42.69376314],[21.737554,42.69469634],[21.7459077,42.69981204],[21.7523495,42.70055144],[21.752817,42.69476954],[21.7559553,42.69271974],[21.761285,42.68267654],[21.7695976,42.67883144],[21.771615,42.67596114],[21.7727732,42.66685524],[21.7806748,42.66255584],[21.7894228,42.65130114],[21.7832509,42.64659954],[21.7785898,42.64673284],[21.7789982,42.64345564],[21.7704334,42.63462304],[21.7679898,42.63381094],[21.7608672,42.63799264],[21.7579776,42.63669364],[21.7539884,42.62847184],[21.7539587,42.62448074],[21.7567014,42.62227474],[21.7570234,42.61905004],[21.7514103,42.61254994],[21.7517147,42.60892684],[21.7508411,42.60745434],[21.7455716,42.60895294],[21.7447476,42.60392634],[21.7419648,42.60456564],[21.7384166,42.60116854],[21.7401273,42.59095874],[21.7475477,42.58104324],[21.7481217,42.57025504],[21.744769,42.56520594],[21.7488835,42.56167764],[21.747816,42.55890784],[21.7414296,42.55332144],[21.7283163,42.54703294],[21.7144184,42.55005844],[21.7066746,42.54972274],[21.7019695,42.54534824],[21.7030943,42.54410544],[21.7013226,42.54087644],[21.6935241,42.53935454],[21.6970997,42.53576854],[21.6967258,42.53133584],[21.6984997,42.52857784],[21.7075672,42.52212334],[21.7105732,42.51658444],[21.7069569,42.51340294],[21.6946867,42.51558704],[21.6921787,42.51507004],[21.6915455,42.51322754],[21.6915286,42.50785644],[21.6936958,42.50529384],[21.6906605,42.50238234],[21.6806202,42.49966624],[21.6672295,42.49301804],[21.6720905,42.48591424],[21.6714191,42.48459054],[21.6614742,42.48522384],[21.6582127,42.48379334],[21.6597729,42.47998244],[21.6572493,42.47572784],[21.6421108,42.46867184],[21.6313685,42.45992764],[21.6290269,42.45953664],[21.6288199,42.45731824],[21.6245823,42.44736294],[21.6321852,42.43985444],[21.6315556,42.43556404],[21.6377239,42.42939574],[21.6386644,42.42405784],[21.6369534,42.42104154],[21.6434585,42.41810784],[21.6465015,42.41330154],[21.6448724,42.40832404],[21.635664,42.40363124],[21.636933,42.40343944],[21.6356683,42.39786254],[21.6281609,42.39269854],[21.6207542,42.37812574],[21.6147693,42.37573404],[21.6057975,42.37540874],[21.6027453,42.38250544],[21.600495,42.38365024],[21.5930486,42.38012544],[21.5896817,42.38147684],[21.5795597,42.37541404],[21.5847385,42.36753414],[21.5782661,42.36531194],[21.5764564,42.36278724],[21.5731115,42.36595044],[21.5661259,42.36782264],[21.5661665,42.36673224],[21.5635222,42.36746074],[21.5583481,42.36599134],[21.5571497,42.36247734],[21.5519199,42.36516764],[21.5518818,42.36786544],[21.5495374,42.36796204],[21.5456754,42.37337354],[21.5410998,42.36952484],[21.54118,42.36753964],[21.5369529,42.36675484],[21.5402241,42.35971264],[21.5370065,42.35691674],[21.5382473,42.35356354],[21.5357898,42.35320024],[21.5347346,42.34806774],[21.5297761,42.34276094],[21.5313272,42.33315014],[21.5281928,42.32738314],[21.5355896,42.32211734],[21.5412859,42.32075014],[21.5377668,42.31998934],[21.5381921,42.31881214],[21.5422409,42.31875074],[21.5380633,42.31080724],[21.5409816,42.30914104],[21.5475412,42.31115374],[21.550016,42.31377344],[21.5517436,42.31247424],[21.5582649,42.31543354],[21.5597295,42.31465604],[21.5648145,42.30978464],[21.5644145,42.30407534],[21.5624427,42.30173074],[21.5650066,42.30079204],[21.5608345,42.29882194],[21.5833284,42.28326614],[21.5814437,42.28030704],[21.5826853,42.27573764],[21.5892399,42.26731774],[21.5848114,42.25867374],[21.5735303,42.25404834],[21.5674643,42.24987114],[21.5627126,42.25215634],[21.5617308,42.25090114],[21.5439248,42.25337464],[21.5444859,42.25170144],[21.5389404,42.25050984],[21.5317942,42.24358414],[21.5328418,42.24134134],[21.5203555,42.24112124],[21.5201573,42.25203054],[21.51751,42.25962724],[21.5196477,42.26081114],[21.518941,42.26232484],[21.5147777,42.26297994],[21.5113901,42.26551594],[21.5109725,42.27017024],[21.5065629,42.27115944],[21.503399,42.26975184],[21.4994046,42.27235504],[21.4944447,42.27367924],[21.4891398,42.27301604],[21.4715494,42.27978304],[21.4679549,42.27996734],[21.4633745,42.27715364],[21.4569327,42.27663454],[21.4473958,42.27990824],[21.4414831,42.27912714],[21.4392944,42.27712674],[21.4418436,42.26755084],[21.4405157,42.26235584],[21.4327109,42.25950144],[21.4325841,42.25709944],[21.4362975,42.24700714],[21.4430878,42.24138324],[21.4421368,42.23927724],[21.4444468,42.23494784],[21.4356272,42.23301924],[21.4335886,42.23125824],[21.4302936,42.23694064],[21.4274698,42.23654024],[21.4213415,42.24083594],[21.4193399,42.24487264],[21.4166236,42.24565834],[21.4157889,42.24383954],[21.4138062,42.24369344],[21.4103473,42.24646054],[21.3996313,42.24914494],[21.3971787,42.24731664],[21.3910094,42.24666844],[21.3896962,42.24508034],[21.3862758,42.24677204],[21.3821042,42.24521714],[21.3855825,42.24169424],[21.3805232,42.23724384],[21.3773096,42.23759964],[21.3697615,42.24156574],[21.3628079,42.24284074],[21.3541324,42.24952774],[21.3533564,42.25198764],[21.3461219,42.25426074],[21.3433028,42.25857974],[21.339641,42.25484474],[21.339417,42.24909784],[21.3336715,42.24803674],[21.3289771,42.25043434],[21.3256406,42.25438894],[21.3113577,42.25704874],[21.3015334,42.25396774],[21.2988679,42.25802954],[21.2930535,42.25977114],[21.2904625,42.25859024],[21.2884844,42.25932804],[21.2841412,42.26567594],[21.2842578,42.26832694],[21.2816456,42.26979714],[21.2768631,42.27808054],[21.2736402,42.27795064],[21.2723013,42.27956564],[21.2724323,42.28362224],[21.2698564,42.28286054],[21.2660845,42.28492384],[21.2618881,42.28434254],[21.2638309,42.29002724],[21.2572932,42.29706884],[21.2699563,42.31033494],[21.2692074,42.31230734],[21.2733082,42.31613744],[21.2771669,42.31710474],[21.2774855,42.31911554],[21.2818289,42.32144444],[21.2863721,42.32027394],[21.2876701,42.32123974],[21.2858386,42.32458404],[21.283001,42.32563464],[21.2831941,42.32936924],[21.2876972,42.33307494],[21.2845771,42.33547274],[21.2696348,42.32498974],[21.2525683,42.32882184],[21.2543197,42.33126804],[21.2532858,42.33302014],[21.2573102,42.33549094],[21.251153,42.33994664],[21.2477688,42.33949074],[21.2445949,42.34371524],[21.250012,42.35324224],[21.2516276,42.36027054],[21.2489747,42.36313184],[21.251068,42.36606154],[21.2562211,42.36632734],[21.2570807,42.36432714],[21.2603787,42.36494144],[21.2625686,42.36540264],[21.2623167,42.36796804],[21.2662698,42.36707194],[21.2870234,42.37311084],[21.2925936,42.37290184],[21.2944102,42.36976354],[21.2959603,42.37087114],[21.2960071,42.36948604],[21.30769,42.36895004],[21.3106607,42.37311054],[21.3103248,42.38073164],[21.2981345,42.39223714],[21.3050911,42.40732564],[21.3055869,42.41434334],[21.3092733,42.41792914],[21.3081546,42.41923004],[21.292765,42.43070174],[21.2885578,42.43069534],[21.2863344,42.43283144],[21.284694,42.43654684],[21.2862636,42.43902124],[21.2744569,42.45225634],[21.2776452,42.45818304],[21.2773014,42.46997454],[21.2820997,42.47491104],[21.2744044,42.47590404],[21.2767815,42.47650124],[21.2733751,42.47894114],[21.2741487,42.48293714],[21.2860534,42.48162124],[21.2946016,42.48341484],[21.3053415,42.48252504],[21.3094469,42.48661174],[21.3104352,42.49020024],[21.3151178,42.49313314],[21.3131936,42.49827764],[21.3055996,42.50254014],[21.3002756,42.51161724],[21.302015,42.52156964],[21.3067118,42.52674384],[21.3055694,42.52766454],[21.297563,42.52660504],[21.2938435,42.52762314],[21.2936225,42.53067174],[21.2907574,42.52959434],[21.2882422,42.53040524],[21.2839317,42.53466854],[21.2834936,42.54069654],[21.2888679,42.54877024],[21.2991417,42.55697294],[21.2981712,42.55958134],[21.3067249,42.55647264],[21.3101106,42.55934454],[21.3075697,42.56482664],[21.3223549,42.56292014],[21.3289616,42.56058244],[21.3295517,42.55789484],[21.3326078,42.56028114],[21.3415957,42.55863454],[21.3462189,42.55979074],[21.3513332,42.55893334],[21.3538092,42.56129554],[21.3602482,42.56253684],[21.362601,42.56652504],[21.3655212,42.56575324],[21.3734601,42.56783694],[21.3779957,42.56547504],[21.380195,42.55902074],[21.3921775,42.55366194],[21.3916089,42.55080444],[21.3953111,42.54866554],[21.3960647,42.54470334],[21.4011287,42.53966894],[21.3982748,42.53657414],[21.4144266,42.53622754],[21.4217245,42.54066694],[21.4310801,42.54269884],[21.4340103,42.54666824],[21.42672,42.55958184],[21.4291585,42.56563304],[21.4265289,42.57334344],[21.431826,42.57735074],[21.4452398,42.57695174],[21.4528192,42.57468964],[21.455147,42.57640394],[21.4595453,42.57269324],[21.4599394,42.56933514],[21.4661973,42.56615134],[21.4728227,42.57115184],[21.4726593,42.57263174],[21.4786165,42.57558994],[21.482157,42.57508304],[21.4856748,42.57174194],[21.4917959,42.56943154],[21.4947296,42.56580344],[21.4964265,42.57246004],[21.4999988,42.57497404],[21.5067838,42.57616394],[21.5055677,42.58361474],[21.5033293,42.58541694],[21.5061734,42.59078934],[21.5017837,42.59230764],[21.5013724,42.59438164],[21.4972464,42.59419934],[21.4936875,42.59602054],[21.4908051,42.59368204],[21.4891087,42.59431204],[21.4881896,42.59607564],[21.4897806,42.59797434],[21.4839407,42.60734964],[21.487004,42.60909544],[21.4866066,42.61588714],[21.4836762,42.61515094],[21.4828949,42.61646184],[21.471598,42.61860064],[21.4676297,42.62411004],[21.4616749,42.62451694],[21.459804,42.62870954],[21.461812,42.63076394],[21.46084,42.63476464],[21.4628758,42.63783564],[21.4597423,42.63837124],[21.4599651,42.63950894],[21.4616668,42.64192864],[21.4710048,42.64364354],[21.4673228,42.65695764],[21.4747128,42.65649434],[21.4738392,42.65828814],[21.4691431,42.66384354],[21.4609232,42.66579794],[21.4508507,42.67417414],[21.4331336,42.67753374],[21.4308187,42.68631544],[21.4333236,42.68979194],[21.4295283,42.69212604],[21.4192647,42.69383134],[21.4156043,42.70050824],[21.4169975,42.70270794],[21.4234259,42.70466374],[21.4320944,42.70321244],[21.4336284,42.70738184],[21.4366917,42.70838564],[21.4386419,42.70555424],[21.4431834,42.70459894],[21.4479238,42.69816394],[21.4528156,42.69889744],[21.4717306,42.69511544],[21.4782132,42.69511474],[21.4809234,42.69637534],[21.4804405,42.70215074],[21.484586,42.70394274],[21.484591,42.70819454],[21.4886916,42.70856734],[21.4846731,42.71341744],[21.4873709,42.71622524],[21.4899554,42.71543994],[21.4947209,42.71792844],[21.4951837,42.72095474],[21.4998213,42.72287544],[21.4983806,42.72538594],[21.5063733,42.73240984]]],[[[21.3552053,42.37072174],[21.359293,42.37356724],[21.3589067,42.37611934],[21.360795,42.37622244],[21.358896,42.37920244],[21.3613529,42.38081924],[21.3629622,42.38037534],[21.3641856,42.38205844],[21.3695697,42.37846294],[21.3723673,42.38044754],[21.3716772,42.38222734],[21.3756702,42.38358824],[21.3836008,42.37773914],[21.3886362,42.36718734],[21.3913968,42.36569404],[21.3916803,42.36820714],[21.4001439,42.37148404],[21.3997052,42.36644454],[21.3937876,42.36252204],[21.3964066,42.35733344],[21.3948919,42.35329524],[21.3999317,42.35473904],[21.4009085,42.35358824],[21.4043344,42.35609904],[21.4084257,42.35297094],[21.4105351,42.34690274],[21.409261,42.34323014],[21.4070809,42.34248714],[21.4152493,42.34008044],[21.4171746,42.33722374],[21.4262916,42.33530864],[21.4293138,42.32933144],[21.4374999,42.32628554],[21.4354592,42.32108564],[21.4407466,42.31994194],[21.4454167,42.31098554],[21.4410349,42.30980964],[21.4364905,42.31073084],[21.4355586,42.31233334],[21.428897,42.31097944],[21.4219018,42.31219334],[21.4117409,42.32003744],[21.4120585,42.32141174],[21.4079115,42.32097664],[21.4081637,42.32268924],[21.4041101,42.32348344],[21.4038673,42.32199874],[21.4013874,42.32419734],[21.4004035,42.32163634],[21.3963624,42.32392684],[21.3912156,42.32224954],[21.3888413,42.32376454],[21.388451,42.32646964],[21.3800458,42.32782504],[21.3721591,42.33528584],[21.3721107,42.34821644],[21.3599167,42.35018934],[21.3634005,42.35324024],[21.3614111,42.35629794],[21.3639049,42.35717444],[21.3649568,42.35976504],[21.3631902,42.35953834],[21.3612997,42.36226884],[21.3585301,42.36975154],[21.3552053,42.37072174]]]]}},{"type":"Feature","properties":{"Rajoni":"Rajoni i Prizrenit","emri":"Rajoni i Prizrenit"},"geometry":{"type":"Polygon","coordinates":[[[20.7898009,42.08125544],[20.7844082,42.07833624],[20.7834793,42.07571544],[20.7859824,42.07113974],[20.7599285,42.05271004],[20.7650189,42.04184354],[20.7510021,42.00897494],[20.7498004,41.98575644],[20.7661111,41.96333334],[20.7671382,41.95678514],[20.762675,41.95282764],[20.7589865,41.94437114],[20.756633,41.94445284],[20.7685446,41.92901984],[20.7729008,41.92683424],[20.770449,41.92453884],[20.7721702,41.92107194],[20.7764794,41.91873904],[20.7556713,41.90614044],[20.7501197,41.89491174],[20.740869,41.89326214],[20.7376433,41.88858044],[20.7358139,41.87706754],[20.7277048,41.86432584],[20.7059181,41.86477794],[20.6933413,41.85981804],[20.6834745,41.85773204],[20.6779663,41.86851894],[20.6706881,41.87345164],[20.6630735,41.87516704],[20.6485435,41.87452764],[20.6321583,41.86107714],[20.6188675,41.85776344],[20.6040872,41.86769344],[20.5943514,41.87720284],[20.5934892,41.88433744],[20.5879569,41.89112754],[20.5757245,41.91796444],[20.5854008,41.91845644],[20.5891448,41.92216364],[20.5905141,41.92685784],[20.5981966,41.92945024],[20.6052566,41.92882584],[20.6068189,41.93168324],[20.6171194,41.93912204],[20.6203884,41.94312374],[20.6241057,41.95721104],[20.6248903,41.97183684],[20.621883,41.97818364],[20.6173951,41.98019024],[20.611908,41.98544124],[20.6118305,41.98961304],[20.601867,42.01625274],[20.5973677,42.01973134],[20.5949811,42.04311474],[20.5910637,42.04482284],[20.5762071,42.05793954],[20.5701265,42.05889794],[20.5579235,42.07528394],[20.5594859,42.07867064],[20.5545676,42.08284494],[20.5678519,42.09832064],[20.5629444,42.10594614],[20.5610886,42.10878864],[20.5682078,42.12067174],[20.566866,42.12552244],[20.5554355,42.13964684],[20.5583718,42.14648774],[20.5479165,42.15461434],[20.5436293,42.16072184],[20.5470433,42.16422794],[20.5435021,42.16566204],[20.5421313,42.17238874],[20.5379731,42.17520494],[20.5318079,42.18538884],[20.5240482,42.21084024],[20.5145394,42.22411334],[20.5090479,42.22466344],[20.5020616,42.22847524],[20.4977802,42.23999264],[20.4952075,42.24235064],[20.4908602,42.24336274],[20.4874182,42.24794004],[20.4770351,42.25330804],[20.4759701,42.25717784],[20.4860526,42.26028324],[20.4907639,42.26674294],[20.4955305,42.26989654],[20.508329,42.27040174],[20.5123962,42.27685454],[20.5352731,42.28527184],[20.5382719,42.28999894],[20.5444639,42.29484234],[20.5502257,42.29242934],[20.5588874,42.29560734],[20.5591203,42.30011614],[20.5537028,42.30489774],[20.5550344,42.30802004],[20.5583215,42.30999864],[20.555264,42.31457604],[20.5511978,42.31640344],[20.5560433,42.31629574],[20.5593788,42.31045874],[20.5641704,42.30746084],[20.5650851,42.30378554],[20.5685937,42.30752544],[20.5812857,42.31006514],[20.5837326,42.31576714],[20.5924471,42.31826854],[20.5924609,42.31945384],[20.5974724,42.31945374],[20.6030193,42.31416384],[20.6023265,42.31013944],[20.6046762,42.30705824],[20.6090124,42.30615614],[20.6129773,42.30256544],[20.6215391,42.30212454],[20.6253362,42.29973414],[20.6244739,42.30554004],[20.6284839,42.31306124],[20.6325456,42.31588744],[20.6375052,42.31321284],[20.6404368,42.31855114],[20.643791,42.32132114],[20.6458914,42.32077454],[20.6472781,42.32456924],[20.6521489,42.32620344],[20.6557838,42.33079044],[20.6596977,42.33188274],[20.6569457,42.33612824],[20.6714108,42.34427404],[20.6724688,42.34113614],[20.6792694,42.34146074],[20.686759,42.33536194],[20.6868756,42.33137844],[20.6838819,42.32901524],[20.6865628,42.32727954],[20.6821515,42.32289144],[20.6948258,42.31643734],[20.6955024,42.31335334],[20.6997384,42.31943884],[20.7024756,42.31855194],[20.7095437,42.32932514],[20.7025602,42.33320444],[20.7051848,42.33447034],[20.7054266,42.33854624],[20.703252,42.34227394],[20.7104709,42.34944624],[20.7172688,42.35044234],[20.7223063,42.35657624],[20.7203275,42.36175664],[20.7241548,42.36737794],[20.7261014,42.37582594],[20.7257181,42.39214014],[20.7234372,42.39810924],[20.7299692,42.40396644],[20.7252644,42.40731754],[20.7179244,42.40371134],[20.7124682,42.40341174],[20.7104796,42.40801904],[20.7119696,42.41274604],[20.7090293,42.41751434],[20.6963432,42.41376714],[20.6867009,42.41574604],[20.6878641,42.42242734],[20.6914996,42.42469734],[20.6909927,42.43001794],[20.6954102,42.43149364],[20.6924207,42.43430574],[20.68209,42.43626804],[20.6724519,42.44225544],[20.6696885,42.44423814],[20.6692923,42.44789774],[20.6646052,42.45140404],[20.6641526,42.45819764],[20.6710647,42.46573074],[20.670087,42.47195924],[20.6642284,42.47508744],[20.6655533,42.48008134],[20.6623636,42.48790014],[20.6644925,42.48957864],[20.6584471,42.49003064],[20.6509768,42.49327334],[20.6459002,42.48757974],[20.6344488,42.48275134],[20.6164097,42.48829194],[20.6134169,42.48720934],[20.6096766,42.48800164],[20.604279,42.48139634],[20.5970945,42.48565564],[20.597147,42.48733314],[20.5883136,42.48944954],[20.5835237,42.49476924],[20.5733455,42.50167764],[20.5665555,42.50228384],[20.563717,42.50425364],[20.5613023,42.51064414],[20.5574782,42.51110314],[20.5587033,42.51256824],[20.5549662,42.51799654],[20.5580013,42.52234514],[20.5566203,42.52403394],[20.5613343,42.52253834],[20.5615988,42.52372984],[20.5672659,42.52609084],[20.5667127,42.52889454],[20.5776466,42.52659164],[20.5907772,42.52583674],[20.5924668,42.52720074],[20.5963347,42.52685624],[20.598302,42.52458344],[20.5995738,42.52615374],[20.5976969,42.52947994],[20.6020072,42.52993414],[20.604744,42.52840494],[20.6037261,42.52491774],[20.605024,42.52386764],[20.6119535,42.52592754],[20.61532,42.52509284],[20.6183829,42.52669834],[20.6228254,42.52567664],[20.6309681,42.52644484],[20.6353869,42.52972124],[20.637982,42.52745774],[20.6398862,42.52920664],[20.6443359,42.52979404],[20.6468058,42.53255584],[20.6429241,42.53433554],[20.6421573,42.53640824],[20.64433,42.53647624],[20.6477241,42.54155284],[20.642322,42.54346834],[20.6476824,42.54564604],[20.644952,42.54830244],[20.648475,42.55029944],[20.6477562,42.55180814],[20.6509041,42.55101244],[20.6529325,42.55496524],[20.6572197,42.55598164],[20.6579097,42.55987614],[20.6560773,42.56064464],[20.6576216,42.56282364],[20.6598822,42.56231344],[20.6671121,42.56668734],[20.6797153,42.56973014],[20.6955577,42.57858164],[20.6986066,42.58205274],[20.7028887,42.58094234],[20.7065094,42.58470844],[20.7163488,42.58807144],[20.7200461,42.58604264],[20.7205835,42.57941664],[20.7275951,42.57469314],[20.7313215,42.57860314],[20.7390242,42.58145974],[20.7389599,42.58382664],[20.7449912,42.59168284],[20.7521655,42.59338434],[20.7518518,42.59462694],[20.7643844,42.60211014],[20.764702,42.60739754],[20.7703236,42.60948064],[20.7720103,42.60758334],[20.7802079,42.60900274],[20.7855249,42.60834374],[20.7934508,42.60480834],[20.7997932,42.59860224],[20.7961977,42.58825714],[20.7897609,42.58704214],[20.7870956,42.57930624],[20.7895999,42.57761594],[20.7907496,42.57360294],[20.7989722,42.57229924],[20.805704,42.56659764],[20.8026678,42.56172924],[20.8030376,42.55119344],[20.8004684,42.54312864],[20.8042227,42.52979394],[20.8117132,42.53406974],[20.8227474,42.53251474],[20.8372475,42.53471384],[20.8484961,42.53178734],[20.8478831,42.54531384],[20.8523582,42.54682924],[20.8559763,42.53951484],[20.8621098,42.53732774],[20.8731136,42.52024464],[20.8757626,42.51873544],[20.8772783,42.51989424],[20.8835725,42.51822314],[20.8840842,42.51717424],[20.8800508,42.51447084],[20.8751032,42.51513894],[20.8644855,42.51349884],[20.8654616,42.51480564],[20.8594163,42.51541034],[20.8577113,42.49816634],[20.8550635,42.49470814],[20.8498904,42.49432014],[20.855173,42.48468664],[20.8677715,42.48944864],[20.8682356,42.48709704],[20.8707958,42.48802104],[20.8822521,42.49097484],[20.8883147,42.48862114],[20.8958058,42.48883924],[20.8990466,42.47984244],[20.9014241,42.48085254],[20.9059059,42.47885754],[20.906606,42.47615714],[20.910573,42.47828194],[20.9223903,42.47676504],[20.9104274,42.47367964],[20.9036295,42.46818864],[20.9029928,42.46353904],[20.9010069,42.46208634],[20.9119742,42.46019414],[20.9125397,42.45897344],[20.9177615,42.45962844],[20.9260411,42.45660704],[20.9299776,42.45351234],[20.9482098,42.44927994],[20.9535293,42.44323364],[20.9615616,42.44028424],[20.9583411,42.43568354],[20.9557485,42.43495154],[20.955719,42.43310014],[20.9671061,42.42628094],[20.9734881,42.42554324],[20.9685041,42.42052794],[20.9500281,42.41323364],[20.9474141,42.40977064],[20.9423987,42.40813284],[20.9451194,42.40303744],[20.9571192,42.39639274],[20.9657228,42.39757874],[20.965907,42.39585544],[20.9609026,42.39268824],[20.9585444,42.38894884],[20.9400133,42.39084184],[20.9366755,42.39267514],[20.9352955,42.39001494],[20.9326192,42.39151404],[20.9305306,42.38778944],[20.9354251,42.38541264],[20.9385832,42.38104454],[20.9430948,42.37939684],[20.9448927,42.38047534],[20.9489579,42.37802394],[20.9601003,42.37568434],[20.9709381,42.36421854],[20.9705099,42.35865014],[20.9727617,42.35639104],[20.9719722,42.34897444],[20.9768404,42.33934834],[20.9746963,42.33369234],[20.9795692,42.32862134],[20.9774138,42.32539974],[20.9782499,42.31842924],[20.9801427,42.31278274],[20.9838275,42.30898644],[20.9762473,42.29591844],[20.9791518,42.29158394],[20.9811194,42.27954874],[20.9671676,42.27658784],[20.9596395,42.27327144],[20.9457377,42.27216154],[20.942159,42.26568054],[20.9208353,42.25406984],[20.9187432,42.24977054],[20.9112777,42.24631614],[20.9066046,42.24224774],[20.9003243,42.24045904],[20.889012,42.24017274],[20.8788151,42.24505924],[20.8695261,42.23379794],[20.8719237,42.22010924],[20.8609664,42.21724054],[20.8603961,42.21428464],[20.864543,42.20797494],[20.8642005,42.20421364],[20.8756961,42.20007784],[20.896127,42.19728054],[20.9050398,42.19794044],[20.9118989,42.19563074],[20.9159679,42.19595204],[20.9325183,42.19258254],[20.9344649,42.19357904],[20.9390874,42.19284884],[20.9593048,42.18728984],[20.9607242,42.18494504],[20.9684671,42.18229594],[20.9825546,42.16046154],[20.9802351,42.14201234],[20.9815216,42.13928124],[20.9672603,42.13665444],[20.948241,42.13881694],[20.939167,42.13583304],[20.9278133,42.12799634],[20.9188869,42.12685044],[20.9130504,42.11590044],[20.9023038,42.10481864],[20.9092476,42.09750684],[20.8782968,42.09619624],[20.8629595,42.09779394],[20.8606891,42.09981934],[20.8517278,42.09820174],[20.8486133,42.09927314],[20.8422994,42.09759244],[20.8341876,42.08617314],[20.796149,42.08316654],[20.7898009,42.08125544]]]}},{"type":"Feature","properties":{"Rajoni":"Rajoni i Gjakovës","emri":"Rajoni i Gjakovës"},"geometry":{"type":"Polygon","coordinates":[[[20.5388797,42.51973314],[20.5513349,42.52043104],[20.5554427,42.52294224],[20.5552754,42.52708274],[20.5577143,42.52696764],[20.5615988,42.52372984],[20.5613343,42.52253834],[20.5566203,42.52403394],[20.5580013,42.52234514],[20.5549662,42.51799654],[20.5587033,42.51256824],[20.5574782,42.51110314],[20.5613023,42.51064414],[20.563717,42.50425364],[20.5665555,42.50228384],[20.5733455,42.50167764],[20.5835237,42.49476924],[20.5883136,42.48944954],[20.597147,42.48733314],[20.5970945,42.48565564],[20.604279,42.48139634],[20.6096766,42.48800164],[20.6134169,42.48720934],[20.6164097,42.48829194],[20.6344488,42.48275134],[20.6459002,42.48757974],[20.6509768,42.49327334],[20.6584471,42.49003064],[20.6644925,42.48957864],[20.6623636,42.48790014],[20.6655533,42.48008134],[20.6642284,42.47508744],[20.670087,42.47195924],[20.6710647,42.46573074],[20.6641526,42.45819764],[20.6646052,42.45140404],[20.6692923,42.44789774],[20.6696885,42.44423814],[20.6724519,42.44225544],[20.68209,42.43626804],[20.6924207,42.43430574],[20.6954102,42.43149364],[20.6909927,42.43001794],[20.6914996,42.42469734],[20.6878641,42.42242734],[20.6867009,42.41574604],[20.6963432,42.41376714],[20.7090293,42.41751434],[20.7119696,42.41274604],[20.7104796,42.40801904],[20.7124682,42.40341174],[20.7179244,42.40371134],[20.7252644,42.40731754],[20.7299692,42.40396644],[20.7234372,42.39810924],[20.7257181,42.39214014],[20.7261014,42.37582594],[20.7241548,42.36737794],[20.7203275,42.36175664],[20.7223063,42.35657624],[20.7172688,42.35044234],[20.7104709,42.34944624],[20.703252,42.34227394],[20.7054266,42.33854624],[20.7051848,42.33447034],[20.7025602,42.33320444],[20.7095437,42.32932514],[20.7024756,42.31855194],[20.6997384,42.31943884],[20.6955024,42.31335334],[20.6948258,42.31643734],[20.6821515,42.32289144],[20.6865628,42.32727954],[20.6838819,42.32901524],[20.6868756,42.33137844],[20.686759,42.33536194],[20.6792694,42.34146074],[20.6724688,42.34113614],[20.6714108,42.34427404],[20.6569457,42.33612824],[20.6596977,42.33188274],[20.6557838,42.33079044],[20.6521489,42.32620344],[20.6472781,42.32456924],[20.6458914,42.32077454],[20.643791,42.32132114],[20.6404368,42.31855114],[20.6375052,42.31321284],[20.6325456,42.31588744],[20.6284839,42.31306124],[20.6244739,42.30554004],[20.6253362,42.29973414],[20.6215391,42.30212454],[20.6129773,42.30256544],[20.6090124,42.30615614],[20.6046762,42.30705824],[20.6023265,42.31013944],[20.6030193,42.31416384],[20.5974724,42.31945374],[20.5924609,42.31945384],[20.5924471,42.31826854],[20.5837326,42.31576714],[20.5812857,42.31006514],[20.5685937,42.30752544],[20.5650851,42.30378554],[20.5641704,42.30746084],[20.5593788,42.31045874],[20.5560433,42.31629574],[20.5511978,42.31640344],[20.555264,42.31457604],[20.5583215,42.30999864],[20.5550344,42.30802004],[20.5537028,42.30489774],[20.5591203,42.30011614],[20.5588874,42.29560734],[20.5502257,42.29242934],[20.5444639,42.29484234],[20.5382719,42.28999894],[20.5352731,42.28527184],[20.5123962,42.27685454],[20.508329,42.27040174],[20.4955305,42.26989654],[20.4907639,42.26674294],[20.4860526,42.26028324],[20.4759701,42.25717784],[20.4567334,42.27207254],[20.4451613,42.27488174],[20.4413834,42.27739054],[20.425676,42.27794364],[20.4233519,42.28232754],[20.4049459,42.28443114],[20.3946643,42.29866444],[20.3898926,42.29799334],[20.3864285,42.30093444],[20.3735155,42.30617714],[20.3690482,42.30532104],[20.3619525,42.30856934],[20.3535896,42.30944764],[20.3538486,42.31721464],[20.3491714,42.31997694],[20.3465375,42.32429414],[20.3386988,42.32766254],[20.3268563,42.32727554],[20.3207263,42.32177804],[20.3144881,42.32061964],[20.309232,42.31545744],[20.3060738,42.31475484],[20.2941105,42.32083704],[20.2922637,42.32347844],[20.2860936,42.32320804],[20.2709956,42.31931164],[20.2592265,42.31856574],[20.2570242,42.31893884],[20.2550223,42.32267104],[20.2485161,42.32249144],[20.2458897,42.32400394],[20.2422031,42.32767094],[20.2478622,42.33313074],[20.2430704,42.34135994],[20.2363661,42.34738614],[20.2396998,42.35101444],[20.2443555,42.35226294],[20.2463764,42.36814974],[20.2403302,42.37383104],[20.242062,42.37601154],[20.2395817,42.38077574],[20.235344,42.38116544],[20.2337724,42.38514664],[20.2276945,42.38789074],[20.2214997,42.39315974],[20.2097578,42.39838984],[20.2079514,42.40091844],[20.2113697,42.40381894],[20.2137191,42.40935894],[20.2260797,42.41440484],[20.2276922,42.41881304],[20.2266649,42.42384184],[20.2230902,42.42573434],[20.219113,42.43557884],[20.2148426,42.43789914],[20.2123031,42.43712434],[20.2079557,42.44447524],[20.1932134,42.45240454],[20.1923252,42.45664614],[20.1967815,42.46256394],[20.1896131,42.47010194],[20.1826853,42.47330954],[20.180254,42.48004084],[20.1805833,42.48647114],[20.166631,42.49684374],[20.1660378,42.49898794],[20.1683279,42.50150944],[20.1665232,42.50669414],[20.1562982,42.50960064],[20.1491934,42.51454184],[20.1226061,42.52187494],[20.1216636,42.52538444],[20.1068924,42.53117234],[20.1033412,42.53117204],[20.0982962,42.53414784],[20.0950398,42.54203564],[20.0894905,42.54520154],[20.0875794,42.55162104],[20.0788686,42.55629414],[20.0853676,42.56820364],[20.085178,42.57092644],[20.0894838,42.57469244],[20.0864204,42.58503034],[20.0868528,42.58742024],[20.0756242,42.60089734],[20.0726151,42.60710084],[20.075768,42.61437454],[20.0754193,42.62071934],[20.0779449,42.62381994],[20.0914139,42.63142064],[20.0907567,42.63337954],[20.0935087,42.63462274],[20.0950724,42.64084554],[20.10183,42.64553274],[20.1102113,42.64823914],[20.1119623,42.65538774],[20.1189471,42.66308514],[20.1347452,42.65483894],[20.1546803,42.65167934],[20.1588523,42.65351634],[20.1624442,42.65241314],[20.1644311,42.65322784],[20.173678,42.64830234],[20.1861761,42.65193134],[20.1921237,42.65066224],[20.1985402,42.65202424],[20.1904315,42.64281834],[20.1898021,42.63235244],[20.1872089,42.62843044],[20.1927474,42.62609834],[20.1991263,42.62614564],[20.2034777,42.62373814],[20.2073544,42.61620094],[20.2046728,42.61402134],[20.208805,42.60870164],[20.225513,42.60573954],[20.2537364,42.60494484],[20.2538912,42.60319564],[20.2575497,42.60137114],[20.2608849,42.60268304],[20.2635752,42.60178814],[20.284044,42.59210004],[20.2879817,42.59361204],[20.2863797,42.59446634],[20.2872648,42.59548304],[20.2912163,42.59617694],[20.2928024,42.59976074],[20.2969973,42.59865914],[20.2981815,42.60095174],[20.3008091,42.60119574],[20.3008352,42.60292244],[20.3050932,42.60263654],[20.3076069,42.60408054],[20.3080677,42.60684044],[20.3051862,42.60487094],[20.3064142,42.61021374],[20.3085952,42.61248644],[20.3121992,42.61216384],[20.3213244,42.60109924],[20.3242898,42.60337814],[20.3278662,42.60283224],[20.3383054,42.59357054],[20.344393,42.59082204],[20.3376813,42.58799764],[20.3364257,42.58164934],[20.3395511,42.58210044],[20.3409243,42.58083784],[20.3381964,42.57852234],[20.3418722,42.57084404],[20.3562898,42.57242204],[20.3608627,42.56746144],[20.3502442,42.56301694],[20.3521122,42.55594164],[20.3551971,42.55614314],[20.3594078,42.55334554],[20.3714636,42.55126714],[20.3988161,42.56186704],[20.408264,42.56199184],[20.4111812,42.56362494],[20.4215438,42.56015344],[20.4298375,42.56176744],[20.4450333,42.55789304],[20.4513803,42.56026174],[20.4683217,42.56299534],[20.4757794,42.56048254],[20.478957,42.56159074],[20.4850094,42.55997764],[20.4872883,42.56094914],[20.4896412,42.55871244],[20.488021,42.55666954],[20.4923277,42.55649844],[20.4929731,42.55330964],[20.4957034,42.55130114],[20.5004911,42.55146384],[20.5015956,42.55296924],[20.505741,42.55215534],[20.5077537,42.55106814],[20.5057058,42.54901184],[20.506957,42.54744854],[20.5101355,42.54769504],[20.5130652,42.54461804],[20.5162514,42.54580374],[20.5202735,42.54410794],[20.5207492,42.54012504],[20.5274485,42.54003814],[20.525057,42.53434264],[20.5287018,42.53386764],[20.5276252,42.53102514],[20.5332246,42.53013614],[20.5315722,42.52642524],[20.5379709,42.52591254],[20.5338497,42.52383034],[20.5388797,42.51973314]]]}},{"type":"Feature","properties":{"Rajoni":"Rajoni i Ferizajit","emri":"Rajoni i Ferizajit"},"geometry":{"type":"Polygon","coordinates":[[[20.8788151,42.24505924],[20.889012,42.24017274],[20.9003243,42.24045904],[20.9066046,42.24224774],[20.9112777,42.24631614],[20.9187432,42.24977054],[20.9208353,42.25406984],[20.942159,42.26568054],[20.9457377,42.27216154],[20.9596395,42.27327144],[20.9671676,42.27658784],[20.9811194,42.27954874],[20.9791518,42.29158394],[20.9762473,42.29591844],[20.9838275,42.30898644],[20.9801427,42.31278274],[20.9782499,42.31842924],[20.9774138,42.32539974],[20.9795692,42.32862134],[20.9746963,42.33369234],[20.9768404,42.33934834],[20.9719722,42.34897444],[20.9727617,42.35639104],[20.9705099,42.35865014],[20.9709381,42.36421854],[20.9601003,42.37568434],[20.9489579,42.37802394],[20.9448927,42.38047534],[20.9430948,42.37939684],[20.9385832,42.38104454],[20.9354251,42.38541264],[20.9305306,42.38778944],[20.9326192,42.39151404],[20.9352955,42.39001494],[20.9366755,42.39267514],[20.9400133,42.39084184],[20.9585444,42.38894884],[20.9609026,42.39268824],[20.965907,42.39585544],[20.9657228,42.39757874],[20.9571192,42.39639274],[20.9451194,42.40303744],[20.9423987,42.40813284],[20.9474141,42.40977064],[20.9500281,42.41323364],[20.9685041,42.42052794],[20.9734881,42.42554324],[20.9671061,42.42628094],[20.955719,42.43310014],[20.9557485,42.43495154],[20.9583411,42.43568354],[20.9615616,42.44028424],[20.9535293,42.44323364],[20.9482098,42.44927994],[20.9299776,42.45351234],[20.9260411,42.45660704],[20.9177615,42.45962844],[20.9125397,42.45897344],[20.9119742,42.46019414],[20.9010069,42.46208634],[20.9029928,42.46353904],[20.9036295,42.46818864],[20.9104274,42.47367964],[20.9223903,42.47676504],[20.9288055,42.47546054],[20.9342583,42.47723334],[20.937359,42.47922954],[20.9382097,42.48319024],[20.9404109,42.48268934],[20.9434774,42.48712004],[20.9507395,42.48857324],[20.964203,42.49623234],[20.9815981,42.47876054],[20.9828944,42.47970684],[20.9847905,42.47845104],[20.987537,42.47957704],[20.9912704,42.47896264],[20.9928471,42.48089594],[20.9942226,42.47971524],[20.9970676,42.48366104],[21.0019818,42.48600674],[21.0152605,42.47524924],[21.0198012,42.47865024],[21.0303032,42.47686744],[21.0426019,42.47760654],[21.0474387,42.47618844],[21.0520504,42.47110174],[21.0661819,42.46964834],[21.0766033,42.47117004],[21.0759373,42.47233434],[21.0687935,42.47168614],[21.0692208,42.47321724],[21.0845412,42.47640564],[21.0896046,42.48409914],[21.090947,42.48277734],[21.0891673,42.48145694],[21.092738,42.47845164],[21.0899251,42.47460684],[21.0944806,42.47812444],[21.0989155,42.47798294],[21.0956692,42.47551404],[21.0972368,42.47340114],[21.0943567,42.47433514],[21.0974332,42.47262424],[21.096417,42.47157724],[21.0984706,42.46929154],[21.0995967,42.47086004],[21.0999129,42.46961084],[21.107167,42.46796814],[21.1314186,42.47255254],[21.1332577,42.47046224],[21.1318905,42.47003264],[21.1349993,42.47008514],[21.1381613,42.46089424],[21.1390929,42.45647004],[21.1454466,42.45256294],[21.1489852,42.45611924],[21.1538699,42.45573144],[21.1544585,42.45432904],[21.1574151,42.45590664],[21.1614084,42.45531704],[21.1603955,42.46023854],[21.1617352,42.46135364],[21.1651707,42.46007204],[21.1676582,42.46141254],[21.1764632,42.46044894],[21.1791719,42.45882074],[21.1800236,42.45586934],[21.1924413,42.46337944],[21.213681,42.46578114],[21.2250581,42.46460034],[21.2374478,42.45884224],[21.2428821,42.45998354],[21.2471527,42.45826314],[21.2493883,42.45220184],[21.2544086,42.44962014],[21.2592234,42.44439384],[21.2744569,42.45225634],[21.2862636,42.43902124],[21.284694,42.43654684],[21.2863344,42.43283144],[21.2885578,42.43069534],[21.292765,42.43070174],[21.3081546,42.41923004],[21.3092733,42.41792914],[21.3055869,42.41434334],[21.3050911,42.40732564],[21.2981345,42.39223714],[21.3103248,42.38073164],[21.3106607,42.37311054],[21.30769,42.36895004],[21.2960071,42.36948604],[21.2959603,42.37087114],[21.2944102,42.36976354],[21.2925936,42.37290184],[21.2870234,42.37311084],[21.2662698,42.36707194],[21.2623167,42.36796804],[21.2625686,42.36540264],[21.2603787,42.36494144],[21.2570807,42.36432714],[21.2562211,42.36632734],[21.251068,42.36606154],[21.2489747,42.36313184],[21.2516276,42.36027054],[21.250012,42.35324224],[21.2445949,42.34371524],[21.2477688,42.33949074],[21.251153,42.33994664],[21.2573102,42.33549094],[21.2532858,42.33302014],[21.2543197,42.33126804],[21.2525683,42.32882184],[21.2696348,42.32498974],[21.2845771,42.33547274],[21.2876972,42.33307494],[21.2831941,42.32936924],[21.283001,42.32563464],[21.2858386,42.32458404],[21.2876701,42.32123974],[21.2863721,42.32027394],[21.2818289,42.32144444],[21.2774855,42.31911554],[21.2771669,42.31710474],[21.2733082,42.31613744],[21.2692074,42.31230734],[21.2699563,42.31033494],[21.2572932,42.29706884],[21.2638309,42.29002724],[21.2618881,42.28434254],[21.2660845,42.28492384],[21.2698564,42.28286054],[21.2724323,42.28362224],[21.2723013,42.27956564],[21.2736402,42.27795064],[21.2768631,42.27808054],[21.2816456,42.26979714],[21.2842578,42.26832694],[21.2841412,42.26567594],[21.2884844,42.25932804],[21.2904625,42.25859024],[21.2930535,42.25977114],[21.2988679,42.25802954],[21.3015334,42.25396774],[21.3113577,42.25704874],[21.3256406,42.25438894],[21.3289771,42.25043434],[21.3336715,42.24803674],[21.339417,42.24909784],[21.339641,42.25484474],[21.3433028,42.25857974],[21.3461219,42.25426074],[21.3533564,42.25198764],[21.3541324,42.24952774],[21.3628079,42.24284074],[21.3697615,42.24156574],[21.3773096,42.23759964],[21.3739958,42.23336424],[21.3749056,42.23097464],[21.3698438,42.22741084],[21.367271,42.22145854],[21.3600183,42.22172234],[21.357291,42.21920364],[21.3564155,42.21529274],[21.3528858,42.21479524],[21.3456865,42.21034694],[21.3413284,42.21221274],[21.3391827,42.21005124],[21.3398264,42.20782614],[21.3358374,42.20678714],[21.3342689,42.20868484],[21.3322089,42.20777884],[21.3341079,42.20584774],[21.3291083,42.20028444],[21.3352666,42.19292424],[21.3344298,42.18844884],[21.3297735,42.18369494],[21.3284538,42.17907574],[21.3155814,42.17244584],[21.3189363,42.17166274],[21.3158153,42.16771334],[21.3207098,42.16078794],[21.3161157,42.15759754],[21.3094584,42.14835134],[21.3074865,42.14812964],[21.3077924,42.14454664],[21.305357,42.14347274],[21.3038308,42.14530874],[21.3044745,42.14213514],[21.2981997,42.13899954],[21.3044653,42.13650144],[21.3033483,42.13234134],[21.3103006,42.12777414],[21.3118455,42.12136834],[21.3159786,42.11810144],[21.3146699,42.11543674],[21.3214409,42.10801494],[21.3034969,42.10474184],[21.2993728,42.10921524],[21.2920787,42.11144354],[21.2694194,42.09756134],[21.2572874,42.09443544],[21.256891,42.09320634],[21.2455514,42.09247104],[21.2371848,42.09366854],[21.2330102,42.09534324],[21.2326438,42.09805714],[21.2277562,42.09713604],[21.2227158,42.09368574],[21.2213211,42.10012334],[21.2127418,42.11091404],[21.2149305,42.11375504],[21.2162683,42.12940334],[21.209028,42.13721564],[21.2086648,42.14063774],[21.2058903,42.14216204],[21.2051323,42.14503224],[21.2030504,42.14544074],[21.203089,42.14748104],[21.1974349,42.14844914],[21.1912583,42.15927664],[21.1844444,42.16298604],[21.1860205,42.16433734],[21.1811303,42.16649364],[21.1780029,42.17249484],[21.1715724,42.17381214],[21.1653926,42.18500654],[21.1681392,42.19683484],[21.1191426,42.20677454],[21.1035945,42.20484624],[21.0829952,42.18933114],[21.0737255,42.18691444],[21.0697773,42.18780484],[21.0591342,42.17877354],[21.0515678,42.16537964],[21.0404232,42.16490614],[21.0278919,42.15498074],[20.9815216,42.13928124],[20.9802351,42.14201234],[20.9825546,42.16046154],[20.9684671,42.18229594],[20.9607242,42.18494504],[20.9593048,42.18728984],[20.9390874,42.19284884],[20.9344649,42.19357904],[20.9325183,42.19258254],[20.9159679,42.19595204],[20.9118989,42.19563074],[20.9050398,42.19794044],[20.896127,42.19728054],[20.8756961,42.20007784],[20.8642005,42.20421364],[20.864543,42.20797494],[20.8603961,42.21428464],[20.8609664,42.21724054],[20.8719237,42.22010924],[20.8695261,42.23379794],[20.8788151,42.24505924]]]}},{"type":"Feature","properties":{"Rajoni":"Rajoni i Prishtinës","emri":"Rajoni i Prishtinës"},"geometry":{"type":"Polygon","coordinates":[[[21.4616749,42.62451694],[21.4676297,42.62411004],[21.471598,42.61860064],[21.4828949,42.61646184],[21.4836762,42.61515094],[21.4866066,42.61588714],[21.487004,42.60909544],[21.4839407,42.60734964],[21.4897806,42.59797434],[21.4881896,42.59607564],[21.4891087,42.59431204],[21.4908051,42.59368204],[21.4936875,42.59602054],[21.4972464,42.59419934],[21.5013724,42.59438164],[21.5017837,42.59230764],[21.5061734,42.59078934],[21.5033293,42.58541694],[21.5055677,42.58361474],[21.5067838,42.57616394],[21.4999988,42.57497404],[21.4964265,42.57246004],[21.4947296,42.56580344],[21.4917959,42.56943154],[21.4856748,42.57174194],[21.482157,42.57508304],[21.4786165,42.57558994],[21.4726593,42.57263174],[21.4728227,42.57115184],[21.4661973,42.56615134],[21.4599394,42.56933514],[21.4595453,42.57269324],[21.455147,42.57640394],[21.4528192,42.57468964],[21.4452398,42.57695174],[21.431826,42.57735074],[21.4265289,42.57334344],[21.4291585,42.56563304],[21.42672,42.55958184],[21.4340103,42.54666824],[21.4310801,42.54269884],[21.4217245,42.54066694],[21.4144266,42.53622754],[21.3982748,42.53657414],[21.4011287,42.53966894],[21.3960647,42.54470334],[21.3953111,42.54866554],[21.3916089,42.55080444],[21.3921775,42.55366194],[21.380195,42.55902074],[21.3779957,42.56547504],[21.3734601,42.56783694],[21.3655212,42.56575324],[21.362601,42.56652504],[21.3602482,42.56253684],[21.3538092,42.56129554],[21.3513332,42.55893334],[21.3462189,42.55979074],[21.3415957,42.55863454],[21.3326078,42.56028114],[21.3295517,42.55789484],[21.3289616,42.56058244],[21.3223549,42.56292014],[21.3075697,42.56482664],[21.3101106,42.55934454],[21.3067249,42.55647264],[21.2981712,42.55958134],[21.2991417,42.55697294],[21.2888679,42.54877024],[21.2834936,42.54069654],[21.2839317,42.53466854],[21.2882422,42.53040524],[21.2907574,42.52959434],[21.2936225,42.53067174],[21.2938435,42.52762314],[21.297563,42.52660504],[21.3055694,42.52766454],[21.3067118,42.52674384],[21.302015,42.52156964],[21.3002756,42.51161724],[21.3055996,42.50254014],[21.3131936,42.49827764],[21.3151178,42.49313314],[21.3104352,42.49020024],[21.3094469,42.48661174],[21.3053415,42.48252504],[21.2946016,42.48341484],[21.2860534,42.48162124],[21.2741487,42.48293714],[21.2733751,42.47894114],[21.2767815,42.47650124],[21.2744044,42.47590404],[21.2820997,42.47491104],[21.2773014,42.46997454],[21.2776452,42.45818304],[21.2744569,42.45225634],[21.2592234,42.44439384],[21.2544086,42.44962014],[21.2493883,42.45220184],[21.2471527,42.45826314],[21.2428821,42.45998354],[21.2374478,42.45884224],[21.2250581,42.46460034],[21.213681,42.46578114],[21.1924413,42.46337944],[21.1800236,42.45586934],[21.1791719,42.45882074],[21.1764632,42.46044894],[21.1676582,42.46141254],[21.1651707,42.46007204],[21.1617352,42.46135364],[21.1603955,42.46023854],[21.1614084,42.45531704],[21.1574151,42.45590664],[21.1544585,42.45432904],[21.1538699,42.45573144],[21.1489852,42.45611924],[21.1454466,42.45256294],[21.1390929,42.45647004],[21.1381613,42.46089424],[21.1349993,42.47008514],[21.1318905,42.47003264],[21.1332577,42.47046224],[21.1314186,42.47255254],[21.107167,42.46796814],[21.0999129,42.46961084],[21.0995967,42.47086004],[21.0984706,42.46929154],[21.096417,42.47157724],[21.0974332,42.47262424],[21.0943567,42.47433514],[21.0972368,42.47340114],[21.0956692,42.47551404],[21.0989155,42.47798294],[21.0944806,42.47812444],[21.0899251,42.47460684],[21.092738,42.47845164],[21.0891673,42.48145694],[21.090947,42.48277734],[21.0896046,42.48409914],[21.0845412,42.47640564],[21.0692208,42.47321724],[21.0687935,42.47168614],[21.0759373,42.47233434],[21.0766033,42.47117004],[21.0661819,42.46964834],[21.0520504,42.47110174],[21.0474387,42.47618844],[21.0426019,42.47760654],[21.0303032,42.47686744],[21.0198012,42.47865024],[21.0152605,42.47524924],[21.0019818,42.48600674],[20.9970676,42.48366104],[20.9942226,42.47971524],[20.9928471,42.48089594],[20.9912704,42.47896264],[20.987537,42.47957704],[20.9847905,42.47845104],[20.9828944,42.47970684],[20.9815981,42.47876054],[20.964203,42.49623234],[20.9507395,42.48857324],[20.9434774,42.48712004],[20.9404109,42.48268934],[20.9382097,42.48319024],[20.937359,42.47922954],[20.9342583,42.47723334],[20.9288055,42.47546054],[20.9223903,42.47676504],[20.910573,42.47828194],[20.906606,42.47615714],[20.9059059,42.47885754],[20.9014241,42.48085254],[20.8990466,42.47984244],[20.8958058,42.48883924],[20.8883147,42.48862114],[20.8822521,42.49097484],[20.8707958,42.48802104],[20.8682356,42.48709704],[20.8677715,42.48944864],[20.855173,42.48468664],[20.8498904,42.49432014],[20.8550635,42.49470814],[20.8577113,42.49816634],[20.8594163,42.51541034],[20.8654616,42.51480564],[20.8644855,42.51349884],[20.8751032,42.51513894],[20.8800508,42.51447084],[20.8840842,42.51717424],[20.8835725,42.51822314],[20.8772783,42.51989424],[20.8757626,42.51873544],[20.8731136,42.52024464],[20.8621098,42.53732774],[20.8559763,42.53951484],[20.8523582,42.54682924],[20.8478831,42.54531384],[20.8484961,42.53178734],[20.8372475,42.53471384],[20.8227474,42.53251474],[20.8117132,42.53406974],[20.8042227,42.52979394],[20.8004684,42.54312864],[20.8030376,42.55119344],[20.8026678,42.56172924],[20.805704,42.56659764],[20.7989722,42.57229924],[20.7907496,42.57360294],[20.7895999,42.57761594],[20.7870956,42.57930624],[20.7897609,42.58704214],[20.7961977,42.58825714],[20.7997932,42.59860224],[20.7934508,42.60480834],[20.7855249,42.60834374],[20.7802079,42.60900274],[20.7720103,42.60758334],[20.7703236,42.60948064],[20.764702,42.60739754],[20.7585347,42.60663334],[20.7650663,42.60972924],[20.7673981,42.61339234],[20.7669798,42.62108744],[20.7634629,42.62782014],[20.7639992,42.63249384],[20.7688258,42.64052164],[20.7670135,42.64183364],[20.7708747,42.64395564],[20.7740101,42.64873404],[20.7735504,42.65112584],[20.7702166,42.65352224],[20.7694527,42.65976054],[20.7858335,42.65948474],[20.7997488,42.66513014],[20.7990937,42.66188804],[20.8009125,42.66027664],[20.8041008,42.66451224],[20.8085754,42.66303634],[20.8120716,42.66540714],[20.8135178,42.66417494],[20.8161901,42.66632234],[20.8193736,42.66657654],[20.8233614,42.66947514],[20.8188752,42.67291594],[20.8143747,42.68408474],[20.8154458,42.68690444],[20.8125609,42.68864104],[20.8153513,42.69238044],[20.8217605,42.69235144],[20.8254331,42.69510084],[20.8357864,42.69551014],[20.8356098,42.70130134],[20.8373671,42.70078744],[20.8466627,42.70661274],[20.8567861,42.70045344],[20.8602938,42.70303404],[20.8658454,42.70206014],[20.8687429,42.69857394],[20.8682843,42.69662234],[20.8700558,42.69676704],[20.8708696,42.69163544],[20.8752066,42.69116504],[20.8795161,42.68481524],[20.8854121,42.68948674],[20.8917499,42.70100704],[20.8939239,42.70290514],[20.895973,42.70249914],[20.8969882,42.70485854],[20.9030874,42.70829984],[20.9102894,42.71677974],[20.914391,42.71400964],[20.923701,42.71228554],[20.9380985,42.71893244],[20.9431052,42.72365954],[20.9452639,42.72281304],[20.9487496,42.71140204],[20.9637903,42.70278414],[20.9676636,42.69863094],[20.968452,42.69491534],[20.9713197,42.69382864],[20.9744608,42.68565074],[20.9785328,42.68923484],[20.9830565,42.69046374],[20.9880507,42.69002384],[20.9899137,42.68841704],[20.9951029,42.68932594],[20.9978285,42.69278834],[21.0118912,42.69901194],[21.0116565,42.70332324],[21.0176483,42.70349784],[21.0210994,42.70766484],[21.0244505,42.70769934],[21.0254597,42.70634334],[21.028812,42.70765204],[21.0272929,42.71280324],[21.0298321,42.71216294],[21.036731,42.71638134],[21.0382788,42.71514254],[21.0476393,42.71837344],[21.049238,42.71705184],[21.0507057,42.71780384],[21.0521336,42.72211434],[21.0500831,42.72758154],[21.0517035,42.72914054],[21.0674296,42.72754604],[21.0664441,42.73039034],[21.0629223,42.73077304],[21.0646213,42.73122924],[21.0643622,42.73387474],[21.0591612,42.73673984],[21.0737025,42.74609844],[21.0706268,42.75011554],[21.0783928,42.75543154],[21.0766755,42.75656084],[21.0794301,42.75963384],[21.077927,42.75894394],[21.0733385,42.76551194],[21.0726404,42.77045584],[21.0713507,42.77144984],[21.0662062,42.77011584],[21.0686212,42.78030674],[21.070786,42.78343074],[21.0807519,42.78803164],[21.0859343,42.79544454],[21.099348,42.79584614],[21.1044948,42.79870174],[21.1080882,42.80345764],[21.1143876,42.80483584],[21.1190334,42.80416844],[21.1203347,42.80569094],[21.1176081,42.81041844],[21.1194141,42.81339544],[21.1142235,42.82015024],[21.1127639,42.82513954],[21.1073618,42.82786094],[21.1023741,42.83301724],[21.0996867,42.83353904],[21.0981518,42.83646284],[21.0937743,42.83653614],[21.0879365,42.83981404],[21.0818552,42.83756504],[21.0821872,42.84407524],[21.0849666,42.84930994],[21.0789158,42.85528634],[21.0783693,42.85902034],[21.0821221,42.86356174],[21.0777288,42.86635424],[21.0778515,42.87411414],[21.0729701,42.88335014],[21.0748021,42.88547794],[21.0742496,42.88945884],[21.0700011,42.89216614],[21.0688233,42.89630724],[21.0592292,42.90271554],[21.0622382,42.90883214],[21.0583599,42.91140844],[21.0580886,42.91374784],[21.0604102,42.91583074],[21.0676416,42.91426144],[21.0699656,42.91539224],[21.0687003,42.92286414],[21.0728952,42.92482794],[21.0741509,42.92964254],[21.0776263,42.93173764],[21.0775011,42.93645264],[21.0812309,42.93977064],[21.0808037,42.94555004],[21.0850752,42.95781964],[21.0822569,42.96191534],[21.0832264,42.96458514],[21.086681,42.96639224],[21.0863773,42.97083374],[21.0794411,42.97513024],[21.0804472,42.97821034],[21.0736162,42.98751314],[21.0725637,42.99315644],[21.0585519,43.01705164],[21.0518557,43.02294944],[21.0479632,43.02444584],[21.0452517,43.02393174],[21.0417127,43.02856924],[21.0358087,43.02946584],[21.0337658,43.03141064],[21.0291218,43.03096844],[21.0328449,43.03698804],[21.0308292,43.04009794],[21.0309907,43.04587794],[21.0205052,43.05734774],[21.0148701,43.05804374],[21.0122055,43.06217684],[21.0127904,43.06787374],[21.0027179,43.07106874],[21.0063234,43.07608084],[21.0056282,43.09389444],[21.0008053,43.10195084],[20.998914,43.13841664],[21.0058476,43.13530404],[21.0173339,43.13423764],[21.0190505,43.13135634],[21.0286421,43.12936754],[21.0369033,43.12028404],[21.0422381,43.11840724],[21.0544855,43.10748044],[21.0669869,43.11035324],[21.0687679,43.11345484],[21.0798795,43.11481414],[21.0828871,43.11762134],[21.0821629,43.12890354],[21.0918958,43.13558074],[21.1021147,43.12587664],[21.1053801,43.11823804],[21.1072426,43.11689714],[21.1104012,43.11739224],[21.1167643,43.11121874],[21.1308613,43.11180694],[21.135235,43.11387244],[21.1390629,43.11172684],[21.1497206,43.09177374],[21.1479251,43.08839174],[21.1436606,43.08688854],[21.1394875,43.08252964],[21.1435318,43.07658404],[21.1431467,43.07407854],[21.1466546,43.07173614],[21.1464374,43.06933044],[21.1499359,43.06766224],[21.152898,43.06070294],[21.15219,43.04933534],[21.1539846,43.04568734],[21.1522309,43.04080654],[21.1558668,43.03014494],[21.1591101,43.02887274],[21.1661589,43.02903714],[21.1677096,43.02692684],[21.1663354,43.02526644],[21.1672426,43.02041554],[21.1634445,43.01530504],[21.1695922,43.00811894],[21.1696351,43.00450204],[21.1721973,43.00383474],[21.1713713,43.00114654],[21.1754324,43.00029934],[21.1929392,43.00817924],[21.1941728,43.00973284],[21.1923695,43.01557954],[21.1977017,43.02382364],[21.2009438,43.02326734],[21.206156,43.02510214],[21.2137199,43.02189414],[21.2223732,43.02015144],[21.2257036,43.02097094],[21.2257148,43.01782304],[21.2298589,43.01494034],[21.2329084,43.00984684],[21.2358588,43.01034894],[21.2387265,43.00595834],[21.238486,42.98999174],[21.244479,42.98131284],[21.2401846,42.97485514],[21.2398443,42.96613104],[21.2345573,42.95971174],[21.2352231,42.95219194],[21.2448798,42.93849104],[21.245276,42.93386704],[21.2509203,42.93156754],[21.2532067,42.92618484],[21.2654,42.91269074],[21.2697766,42.91040974],[21.2705928,42.89755494],[21.2741445,42.89505924],[21.2820941,42.89565284],[21.2865036,42.90115454],[21.2921463,42.90353444],[21.2992177,42.90155104],[21.3044314,42.90629994],[21.3146806,42.90238994],[21.3307891,42.90297464],[21.3360949,42.89927824],[21.3396554,42.90077624],[21.3433855,42.89879654],[21.3452813,42.89470244],[21.3438875,42.89165944],[21.3493987,42.88988344],[21.3512153,42.88779984],[21.3498752,42.88137524],[21.3522774,42.87932524],[21.3564724,42.87923874],[21.3606781,42.87283874],[21.3638558,42.87163164],[21.3696671,42.87397294],[21.3799367,42.87288404],[21.3854504,42.86654474],[21.3921364,42.86867214],[21.3946951,42.86794744],[21.3959431,42.86897414],[21.3944213,42.87198704],[21.4028873,42.87508534],[21.4074257,42.87379924],[21.4120692,42.87422254],[21.4138969,42.87575534],[21.4352274,42.87287044],[21.4342387,42.86755504],[21.4360184,42.86472444],[21.4369411,42.85165604],[21.4234522,42.84721584],[21.4240098,42.83261594],[21.418309,42.82859544],[21.4171043,42.82590084],[21.4178091,42.81752474],[21.4246112,42.81055174],[21.4227009,42.81055644],[21.4225191,42.80579764],[21.4137965,42.80679724],[21.4095176,42.80456864],[21.40634,42.79409974],[21.4120416,42.79241434],[21.4128686,42.79020564],[21.4081916,42.78758424],[21.4096012,42.78384214],[21.4077884,42.78177754],[21.4111038,42.77605034],[21.4072969,42.76663274],[21.4029148,42.76694914],[21.396255,42.76120024],[21.3943567,42.75185434],[21.3983665,42.74460274],[21.4037329,42.74338194],[21.4102297,42.74387144],[21.4149952,42.74620254],[21.4177769,42.74420534],[21.4203912,42.74619304],[21.4269071,42.74588354],[21.4316868,42.74818024],[21.4409644,42.74876004],[21.4424922,42.74713934],[21.449954,42.74975684],[21.4517618,42.74476634],[21.4672583,42.73615134],[21.474577,42.74622924],[21.4791407,42.74748384],[21.4852287,42.74225974],[21.4978333,42.73767644],[21.5015262,42.73323554],[21.5063733,42.73240984],[21.4983806,42.72538594],[21.4998213,42.72287544],[21.4951837,42.72095474],[21.4947209,42.71792844],[21.4899554,42.71543994],[21.4873709,42.71622524],[21.4846731,42.71341744],[21.4886916,42.70856734],[21.484591,42.70819454],[21.484586,42.70394274],[21.4804405,42.70215074],[21.4809234,42.69637534],[21.4782132,42.69511474],[21.4717306,42.69511544],[21.4528156,42.69889744],[21.4479238,42.69816394],[21.4431834,42.70459894],[21.4386419,42.70555424],[21.4366917,42.70838564],[21.4336284,42.70738184],[21.4320944,42.70321244],[21.4234259,42.70466374],[21.4169975,42.70270794],[21.4156043,42.70050824],[21.4192647,42.69383134],[21.4295283,42.69212604],[21.4333236,42.68979194],[21.4308187,42.68631544],[21.4331336,42.67753374],[21.4508507,42.67417414],[21.4609232,42.66579794],[21.4691431,42.66384354],[21.4738392,42.65828814],[21.4747128,42.65649434],[21.4673228,42.65695764],[21.4710048,42.64364354],[21.4616668,42.64192864],[21.4599651,42.63950894],[21.4597423,42.63837124],[21.4628758,42.63783564],[21.46084,42.63476464],[21.461812,42.63076394],[21.459804,42.62870954],[21.4616749,42.62451694]]]}},{"type":"Feature","properties":{"Rajoni":"Rajoni i Pejës","emri":"Rajoni i Pejës"},"geometry":{"type":"Polygon","coordinates":[[[20.3200391,42.82605014],[20.3275643,42.83316464],[20.3349007,42.83555014],[20.3392503,42.83618144],[20.3435471,42.83282324],[20.3530267,42.83351024],[20.3645539,42.83223764],[20.3820473,42.84223904],[20.3894245,42.84217454],[20.3937739,42.84447314],[20.3985676,42.84416164],[20.4087857,42.84720744],[20.4161757,42.84588594],[20.4327132,42.83437974],[20.4419215,42.83354674],[20.463874,42.85329544],[20.4777249,42.85965974],[20.4868835,42.86786284],[20.5018841,42.87095834],[20.5149647,42.87783344],[20.5359289,42.88255844],[20.538465,42.88532434],[20.5502786,42.88553284],[20.5519564,42.88724094],[20.562385,42.88965084],[20.5668527,42.89214894],[20.5728523,42.89101614],[20.5937362,42.88218184],[20.6023552,42.88077104],[20.6089267,42.87652214],[20.6159162,42.87554464],[20.6176761,42.87266374],[20.6207535,42.87169014],[20.6205771,42.86840084],[20.6162894,42.86723814],[20.6251972,42.86286224],[20.62462,42.85853634],[20.6278066,42.85210884],[20.628057,42.84618714],[20.6311105,42.84170424],[20.6381731,42.84041914],[20.6508671,42.84259674],[20.6489574,42.82357184],[20.6424414,42.81455184],[20.6448394,42.79429874],[20.6395826,42.78198484],[20.6288214,42.77808584],[20.6308441,42.77450984],[20.6363617,42.77380104],[20.6342654,42.77182724],[20.6349486,42.77005924],[20.640841,42.76390304],[20.6423003,42.75882234],[20.6514037,42.75168884],[20.6513997,42.74819954],[20.6439471,42.73866854],[20.6370424,42.73628144],[20.6375849,42.73306644],[20.6408131,42.73148274],[20.6379543,42.72631814],[20.6328325,42.72393424],[20.6236124,42.72810334],[20.6184112,42.72757554],[20.6198261,42.72562514],[20.6194553,42.71653014],[20.622793,42.70734784],[20.6292034,42.70463494],[20.6342367,42.70537794],[20.6329935,42.69728534],[20.6361343,42.69478114],[20.6356707,42.69286204],[20.6466596,42.67786864],[20.653503,42.67471194],[20.6611637,42.67304124],[20.6761503,42.67502864],[20.681953,42.67937044],[20.6846923,42.68641004],[20.6878675,42.68662844],[20.6890022,42.68847014],[20.6936835,42.68687784],[20.6927417,42.68488204],[20.7019429,42.67748264],[20.7008982,42.67084544],[20.7047894,42.66459214],[20.7043125,42.65958204],[20.698745,42.65577014],[20.6959006,42.64813414],[20.6952842,42.63981404],[20.6973761,42.63482714],[20.7027464,42.63071424],[20.7133547,42.63028524],[20.7185261,42.63199124],[20.7262205,42.63009234],[20.7384117,42.61692074],[20.7373294,42.61479944],[20.7397264,42.61333204],[20.7393303,42.60747344],[20.7459436,42.60458384],[20.7585347,42.60663334],[20.764702,42.60739754],[20.7643844,42.60211014],[20.7518518,42.59462694],[20.7521655,42.59338434],[20.7449912,42.59168284],[20.7389599,42.58382664],[20.7390242,42.58145974],[20.7313215,42.57860314],[20.7275951,42.57469314],[20.7205835,42.57941664],[20.7200461,42.58604264],[20.7163488,42.58807144],[20.7065094,42.58470844],[20.7028887,42.58094234],[20.6986066,42.58205274],[20.6955577,42.57858164],[20.6797153,42.56973014],[20.6671121,42.56668734],[20.6598822,42.56231344],[20.6576216,42.56282364],[20.6560773,42.56064464],[20.6579097,42.55987614],[20.6572197,42.55598164],[20.6529325,42.55496524],[20.6509041,42.55101244],[20.6477562,42.55180814],[20.648475,42.55029944],[20.644952,42.54830244],[20.6476824,42.54564604],[20.642322,42.54346834],[20.6477241,42.54155284],[20.64433,42.53647624],[20.6421573,42.53640824],[20.6429241,42.53433554],[20.6468058,42.53255584],[20.6443359,42.52979404],[20.6398862,42.52920664],[20.637982,42.52745774],[20.6353869,42.52972124],[20.6309681,42.52644484],[20.6228254,42.52567664],[20.6183829,42.52669834],[20.61532,42.52509284],[20.6119535,42.52592754],[20.605024,42.52386764],[20.6037261,42.52491774],[20.604744,42.52840494],[20.6020072,42.52993414],[20.5976969,42.52947994],[20.5995738,42.52615374],[20.598302,42.52458344],[20.5963347,42.52685624],[20.5924668,42.52720074],[20.5907772,42.52583674],[20.5776466,42.52659164],[20.5667127,42.52889454],[20.5672659,42.52609084],[20.5615988,42.52372984],[20.5577143,42.52696764],[20.5552754,42.52708274],[20.5554427,42.52294224],[20.5513349,42.52043104],[20.5388797,42.51973314],[20.5338497,42.52383034],[20.5379709,42.52591254],[20.5315722,42.52642524],[20.5332246,42.53013614],[20.5276252,42.53102514],[20.5287018,42.53386764],[20.525057,42.53434264],[20.5274485,42.54003814],[20.5207492,42.54012504],[20.5202735,42.54410794],[20.5162514,42.54580374],[20.5130652,42.54461804],[20.5101355,42.54769504],[20.506957,42.54744854],[20.5057058,42.54901184],[20.5077537,42.55106814],[20.505741,42.55215534],[20.5015956,42.55296924],[20.5004911,42.55146384],[20.4957034,42.55130114],[20.4929731,42.55330964],[20.4923277,42.55649844],[20.488021,42.55666954],[20.4896412,42.55871244],[20.4872883,42.56094914],[20.4850094,42.55997764],[20.478957,42.56159074],[20.4757794,42.56048254],[20.4683217,42.56299534],[20.4513803,42.56026174],[20.4450333,42.55789304],[20.4298375,42.56176744],[20.4215438,42.56015344],[20.4111812,42.56362494],[20.408264,42.56199184],[20.3988161,42.56186704],[20.3714636,42.55126714],[20.3594078,42.55334554],[20.3551971,42.55614314],[20.3521122,42.55594164],[20.3502442,42.56301694],[20.3608627,42.56746144],[20.3562898,42.57242204],[20.3418722,42.57084404],[20.3381964,42.57852234],[20.3409243,42.58083784],[20.3395511,42.58210044],[20.3364257,42.58164934],[20.3376813,42.58799764],[20.344393,42.59082204],[20.3383054,42.59357054],[20.3278662,42.60283224],[20.3242898,42.60337814],[20.3213244,42.60109924],[20.3121992,42.61216384],[20.3085952,42.61248644],[20.3064142,42.61021374],[20.3051862,42.60487094],[20.3080677,42.60684044],[20.3076069,42.60408054],[20.3050932,42.60263654],[20.3008352,42.60292244],[20.3008091,42.60119574],[20.2981815,42.60095174],[20.2969973,42.59865914],[20.2928024,42.59976074],[20.2912163,42.59617694],[20.2872648,42.59548304],[20.2863797,42.59446634],[20.2879817,42.59361204],[20.284044,42.59210004],[20.2635752,42.60178814],[20.2608849,42.60268304],[20.2575497,42.60137114],[20.2538912,42.60319564],[20.2537364,42.60494484],[20.225513,42.60573954],[20.208805,42.60870164],[20.2046728,42.61402134],[20.2073544,42.61620094],[20.2034777,42.62373814],[20.1991263,42.62614564],[20.1927474,42.62609834],[20.1872089,42.62843044],[20.1898021,42.63235244],[20.1904315,42.64281834],[20.1985402,42.65202424],[20.1921237,42.65066224],[20.1861761,42.65193134],[20.173678,42.64830234],[20.1644311,42.65322784],[20.1624442,42.65241314],[20.1588523,42.65351634],[20.1546803,42.65167934],[20.1347452,42.65483894],[20.1189471,42.66308514],[20.1119623,42.65538774],[20.1083332,42.65863854],[20.0884414,42.66885054],[20.0823587,42.67963944],[20.0671506,42.68015174],[20.062725,42.68470214],[20.0535765,42.68476044],[20.0436823,42.69540034],[20.0321322,42.69766734],[20.0302515,42.70628474],[20.0319155,42.71078074],[20.0264792,42.70952964],[20.0151823,42.70992854],[20.0160791,42.71299214],[20.0213862,42.71314144],[20.0301898,42.71973174],[20.0168023,42.72397894],[20.0128986,42.72847494],[20.0142086,42.73342454],[20.0120527,42.73977624],[20.0136529,42.74309194],[20.0168104,42.74318734],[20.0178559,42.74844814],[20.0224693,42.75189094],[20.0213905,42.75700404],[20.0242256,42.76482514],[20.0296425,42.76582534],[20.0322556,42.76490594],[20.032917,42.76856174],[20.0426765,42.77439564],[20.0469187,42.77349704],[20.0514913,42.77661014],[20.0604327,42.77892494],[20.0698183,42.77446154],[20.084629,42.77396694],[20.0891656,42.77564224],[20.0984665,42.77582934],[20.104649,42.77241654],[20.1034076,42.76946704],[20.1140887,42.76328494],[20.1191216,42.76193914],[20.1260162,42.76260754],[20.1457465,42.75538964],[20.1490563,42.76380174],[20.1550913,42.76884414],[20.1680404,42.76234884],[20.1739301,42.75640194],[20.1829144,42.75454824],[20.1926776,42.74712214],[20.1961237,42.75152154],[20.1990688,42.74804324],[20.2004314,42.75131514],[20.2134787,42.75053834],[20.2241303,42.75389284],[20.2336747,42.75313654],[20.2366508,42.75721804],[20.2504401,42.75896964],[20.255308,42.77032744],[20.2581584,42.77118454],[20.2661589,42.77890234],[20.263437,42.78858824],[20.2627268,42.80398544],[20.2585919,42.80455214],[20.2523091,42.81071444],[20.2547746,42.81429394],[20.261475,42.81474024],[20.2740586,42.81999884],[20.2760187,42.82208344],[20.2750701,42.82536054],[20.2807491,42.83040854],[20.2853056,42.82592664],[20.2937889,42.82531524],[20.2979152,42.83599624],[20.3154933,42.83582234],[20.3164772,42.82913384],[20.3200391,42.82605014]]]}},{"type":"Feature","properties":{"Rajoni":"Rajoni i Mitrovicës","emri":"Rajoni i Mitrovicës"},"geometry":{"type":"Polygon","coordinates":[[[21.0027179,43.07106874],[21.0127904,43.06787374],[21.0122055,43.06217684],[21.0148701,43.05804374],[21.0205052,43.05734774],[21.0309907,43.04587794],[21.0308292,43.04009794],[21.0328449,43.03698804],[21.0291218,43.03096844],[21.0337658,43.03141064],[21.0358087,43.02946584],[21.0417127,43.02856924],[21.0452517,43.02393174],[21.0479632,43.02444584],[21.0518557,43.02294944],[21.0585519,43.01705164],[21.0725637,42.99315644],[21.0736162,42.98751314],[21.0804472,42.97821034],[21.0794411,42.97513024],[21.0863773,42.97083374],[21.086681,42.96639224],[21.0832264,42.96458514],[21.0822569,42.96191534],[21.0850752,42.95781964],[21.0808037,42.94555004],[21.0812309,42.93977064],[21.0775011,42.93645264],[21.0776263,42.93173764],[21.0741509,42.92964254],[21.0728952,42.92482794],[21.0687003,42.92286414],[21.0699656,42.91539224],[21.0676416,42.91426144],[21.0604102,42.91583074],[21.0580886,42.91374784],[21.0583599,42.91140844],[21.0622382,42.90883214],[21.0592292,42.90271554],[21.0688233,42.89630724],[21.0700011,42.89216614],[21.0742496,42.88945884],[21.0748021,42.88547794],[21.0729701,42.88335014],[21.0778515,42.87411414],[21.0777288,42.86635424],[21.0821221,42.86356174],[21.0783693,42.85902034],[21.0789158,42.85528634],[21.0849666,42.84930994],[21.0821872,42.84407524],[21.0818552,42.83756504],[21.0879365,42.83981404],[21.0937743,42.83653614],[21.0981518,42.83646284],[21.0996867,42.83353904],[21.1023741,42.83301724],[21.1073618,42.82786094],[21.1127639,42.82513954],[21.1142235,42.82015024],[21.1194141,42.81339544],[21.1176081,42.81041844],[21.1203347,42.80569094],[21.1190334,42.80416844],[21.1143876,42.80483584],[21.1080882,42.80345764],[21.1044948,42.79870174],[21.099348,42.79584614],[21.0859343,42.79544454],[21.0807519,42.78803164],[21.070786,42.78343074],[21.0686212,42.78030674],[21.0662062,42.77011584],[21.0713507,42.77144984],[21.0726404,42.77045584],[21.0733385,42.76551194],[21.077927,42.75894394],[21.0794301,42.75963384],[21.0766755,42.75656084],[21.0783928,42.75543154],[21.0706268,42.75011554],[21.0737025,42.74609844],[21.0591612,42.73673984],[21.0643622,42.73387474],[21.0646213,42.73122924],[21.0629223,42.73077304],[21.0664441,42.73039034],[21.0674296,42.72754604],[21.0517035,42.72914054],[21.0500831,42.72758154],[21.0521336,42.72211434],[21.0507057,42.71780384],[21.049238,42.71705184],[21.0476393,42.71837344],[21.0382788,42.71514254],[21.036731,42.71638134],[21.0298321,42.71216294],[21.0272929,42.71280324],[21.028812,42.70765204],[21.0254597,42.70634334],[21.0244505,42.70769934],[21.0210994,42.70766484],[21.0176483,42.70349784],[21.0116565,42.70332324],[21.0118912,42.69901194],[20.9978285,42.69278834],[20.9951029,42.68932594],[20.9899137,42.68841704],[20.9880507,42.69002384],[20.9830565,42.69046374],[20.9785328,42.68923484],[20.9744608,42.68565074],[20.9713197,42.69382864],[20.968452,42.69491534],[20.9676636,42.69863094],[20.9637903,42.70278414],[20.9487496,42.71140204],[20.9452639,42.72281304],[20.9431052,42.72365954],[20.9380985,42.71893244],[20.923701,42.71228554],[20.914391,42.71400964],[20.9102894,42.71677974],[20.9030874,42.70829984],[20.8969882,42.70485854],[20.895973,42.70249914],[20.8939239,42.70290514],[20.8917499,42.70100704],[20.8854121,42.68948674],[20.8795161,42.68481524],[20.8752066,42.69116504],[20.8708696,42.69163544],[20.8700558,42.69676704],[20.8682843,42.69662234],[20.8687429,42.69857394],[20.8658454,42.70206014],[20.8602938,42.70303404],[20.8567861,42.70045344],[20.8466627,42.70661274],[20.8373671,42.70078744],[20.8356098,42.70130134],[20.8357864,42.69551014],[20.8254331,42.69510084],[20.8217605,42.69235144],[20.8153513,42.69238044],[20.8125609,42.68864104],[20.8154458,42.68690444],[20.8143747,42.68408474],[20.8188752,42.67291594],[20.8233614,42.66947514],[20.8193736,42.66657654],[20.8161901,42.66632234],[20.8135178,42.66417494],[20.8120716,42.66540714],[20.8085754,42.66303634],[20.8041008,42.66451224],[20.8009125,42.66027664],[20.7990937,42.66188804],[20.7997488,42.66513014],[20.7858335,42.65948474],[20.7694527,42.65976054],[20.7702166,42.65352224],[20.7735504,42.65112584],[20.7740101,42.64873404],[20.7708747,42.64395564],[20.7670135,42.64183364],[20.7688258,42.64052164],[20.7639992,42.63249384],[20.7634629,42.62782014],[20.7669798,42.62108744],[20.7673981,42.61339234],[20.7650663,42.60972924],[20.7585347,42.60663334],[20.7459436,42.60458384],[20.7393303,42.60747344],[20.7397264,42.61333204],[20.7373294,42.61479944],[20.7384117,42.61692074],[20.7262205,42.63009234],[20.7185261,42.63199124],[20.7133547,42.63028524],[20.7027464,42.63071424],[20.6973761,42.63482714],[20.6952842,42.63981404],[20.6959006,42.64813414],[20.698745,42.65577014],[20.7043125,42.65958204],[20.7047894,42.66459214],[20.7008982,42.67084544],[20.7019429,42.67748264],[20.6927417,42.68488204],[20.6936835,42.68687784],[20.6890022,42.68847014],[20.6878675,42.68662844],[20.6846923,42.68641004],[20.681953,42.67937044],[20.6761503,42.67502864],[20.6611637,42.67304124],[20.653503,42.67471194],[20.6466596,42.67786864],[20.6356707,42.69286204],[20.6361343,42.69478114],[20.6329935,42.69728534],[20.6342367,42.70537794],[20.6292034,42.70463494],[20.622793,42.70734784],[20.6194553,42.71653014],[20.6198261,42.72562514],[20.6184112,42.72757554],[20.6236124,42.72810334],[20.6328325,42.72393424],[20.6379543,42.72631814],[20.6408131,42.73148274],[20.6375849,42.73306644],[20.6370424,42.73628144],[20.6439471,42.73866854],[20.6513997,42.74819954],[20.6514037,42.75168884],[20.6423003,42.75882234],[20.640841,42.76390304],[20.6349486,42.77005924],[20.6342654,42.77182724],[20.6363617,42.77380104],[20.6308441,42.77450984],[20.6288214,42.77808584],[20.6395826,42.78198484],[20.6448394,42.79429874],[20.6424414,42.81455184],[20.6489574,42.82357184],[20.6508671,42.84259674],[20.6381731,42.84041914],[20.6311105,42.84170424],[20.628057,42.84618714],[20.6278066,42.85210884],[20.62462,42.85853634],[20.6251972,42.86286224],[20.6162894,42.86723814],[20.6205771,42.86840084],[20.6207535,42.87169014],[20.6176761,42.87266374],[20.6159162,42.87554464],[20.6089267,42.87652214],[20.6023552,42.88077104],[20.5937362,42.88218184],[20.5728523,42.89101614],[20.5668527,42.89214894],[20.562385,42.88965084],[20.5519564,42.88724094],[20.5502786,42.88553284],[20.538465,42.88532434],[20.5360732,42.88576574],[20.5360088,42.88858004],[20.5342045,42.88955494],[20.5331978,42.88867434],[20.5329403,42.89007354],[20.5211467,42.89335924],[20.5203206,42.89820254],[20.5065748,42.90480104],[20.5007538,42.91731234],[20.4872569,42.92835844],[20.4857928,42.93308204],[20.4899745,42.93512614],[20.4966472,42.94427404],[20.4974666,42.95127014],[20.5008744,42.95644604],[20.5084918,42.96324564],[20.5142167,42.96483834],[20.5153063,42.96972284],[20.5287817,42.97507664],[20.5364141,42.97470094],[20.5399611,42.96546774],[20.5436733,42.96228014],[20.5480473,42.96144214],[20.5503584,42.96294864],[20.5564371,42.96863324],[20.5543535,42.97493594],[20.5583085,42.97859314],[20.5637741,42.97955764],[20.5675918,42.98371684],[20.5663559,42.98600734],[20.5704757,42.99627324],[20.5729266,42.99889584],[20.5807307,43.00106944],[20.5815411,43.00812264],[20.5793186,43.01102634],[20.5811969,43.01207544],[20.589846,43.01366364],[20.5906682,43.01612254],[20.6013695,43.01481314],[20.6066657,43.01634204],[20.6096085,43.01450294],[20.6173976,43.01647984],[20.6187924,43.01589934],[20.6175478,43.00885454],[20.6150142,43.00390574],[20.6169349,43.00215974],[20.619694,43.00151224],[20.6231797,43.00286224],[20.6299289,43.00827394],[20.6405108,43.00564844],[20.6409432,43.00929584],[20.6371044,43.01514654],[20.6401586,43.01705904],[20.6410347,43.02112414],[20.6453845,43.02261394],[20.6512658,43.02096804],[20.6507502,43.02720574],[20.6542329,43.03316444],[20.6638106,43.03289214],[20.670326,43.03516784],[20.6716491,43.04472504],[20.6699892,43.04675294],[20.6659993,43.04765754],[20.6711634,43.05383504],[20.66996,43.05816554],[20.6691289,43.06497784],[20.6666468,43.06396484],[20.662506,43.06513834],[20.658296,43.06835684],[20.6568476,43.07194254],[20.6629748,43.07651474],[20.6649199,43.07545454],[20.6709481,43.07617264],[20.6882654,43.08182014],[20.6925047,43.08791574],[20.6936807,43.09356624],[20.6886852,43.10059134],[20.69379,43.10318724],[20.693867,43.10730914],[20.6854805,43.12301394],[20.673199,43.12686284],[20.6726595,43.13180964],[20.6608725,43.13754374],[20.6644423,43.14333384],[20.6616653,43.15081244],[20.6624827,43.15317194],[20.6573576,43.15389504],[20.6533711,43.15836924],[20.650274,43.15781894],[20.6431945,43.16203544],[20.6319106,43.16343074],[20.6250438,43.16842284],[20.6186801,43.16911624],[20.6114628,43.17459204],[20.611716,43.17667824],[20.6157356,43.17925934],[20.6143402,43.19014104],[20.6046777,43.19671554],[20.6024048,43.20029944],[20.5971687,43.20260154],[20.5971094,43.20539944],[20.6032554,43.21085904],[20.6055657,43.21035284],[20.6073425,43.20683564],[20.6154366,43.20447574],[20.6343412,43.20853554],[20.6441638,43.20661564],[20.6562639,43.20991544],[20.6768873,43.20897904],[20.687627,43.21328664],[20.6886034,43.21880814],[20.6968309,43.22209694],[20.6993854,43.22527534],[20.7076653,43.22632674],[20.7098275,43.22747354],[20.7106587,43.23155664],[20.7212663,43.23485214],[20.7316995,43.24934804],[20.7401925,43.25089554],[20.7463282,43.24746534],[20.7565137,43.24629074],[20.7635372,43.24342164],[20.775886,43.24640554],[20.7950359,43.24565664],[20.7932281,43.25762414],[20.801984,43.26570304],[20.8072289,43.26746044],[20.8275125,43.26572004],[20.8300665,43.26166054],[20.8354662,43.26150394],[20.8366609,43.25667164],[20.8477143,43.25161284],[20.8517343,43.25116154],[20.8594161,43.24136144],[20.8730988,43.23133834],[20.8773229,43.22652024],[20.877592,43.22329534],[20.8802982,43.22275034],[20.881223,43.21094644],[20.8881717,43.20711204],[20.8906995,43.20387524],[20.8891725,43.20298224],[20.8845118,43.20406794],[20.8824007,43.20595384],[20.8673256,43.20570724],[20.8649356,43.20778894],[20.8513027,43.20538864],[20.844996,43.20745874],[20.8429794,43.20323104],[20.8454089,43.19847484],[20.8571591,43.18970224],[20.8492058,43.18571434],[20.8367202,43.18431564],[20.8338325,43.17988664],[20.8415486,43.17359114],[20.8584452,43.17484504],[20.8660118,43.16547154],[20.8717758,43.16497204],[20.8760448,43.16713574],[20.884189,43.16748404],[20.8836151,43.16597024],[20.8889622,43.16208444],[20.888819,43.15913974],[20.8942409,43.15568114],[20.8990227,43.15453574],[20.9028386,43.15622064],[20.9120264,43.14877024],[20.9250659,43.14793754],[20.9293349,43.14635744],[20.9319324,43.14494734],[20.9374473,43.13462284],[20.9464753,43.13380164],[20.9499783,43.13027584],[20.9608125,43.12632344],[20.9706758,43.12466174],[20.9730667,43.12654864],[20.971695,43.13091864],[20.9761525,43.13436904],[20.9959232,43.13650974],[20.998914,43.13841664],[21.0008053,43.10195084],[21.0056282,43.09389444],[21.0063234,43.07608084],[21.0027179,43.07106874]]]}}]}