{"type":"FeatureCollection","features":[{"type":"Feature","id":"sites_arkeologjike.1","geometry":{"type":"Point","coordinates":[21.175275,42.35017204]},"geometry_name":"geom","properties":{"id":"ARK-001","emri":"Kisha paleokristiane në Nikadin","lloji_trashegimise":"arkeologjike","kategoria":"vendbanim","periudha":"antikitet_i_vone","periudha_detaj":"Antikiteti i Vonë","komuna":"Ferizaj","rajon":"Kosovë","lat":42.350172,"lon":21.175275,"easting_kosovaref01":7514440.337,"northing_kosovaref01":4690078.651,"sistemi_projeksion":"EPSG:9141 (KOSOVAREF01 / Balkans zone 7)","koordinata_burimi":"DTK","saktesia_koordinates":"e mirë","gjendja":"e mirë","status_mbrojtjes":"e pa përcaktuar","pershkrim_i_shkurter":"Fshati Nikadin, tashmë pothuajse paralagje e qytetit të Ferizajt, gjendet vetëm 2 kilometra në jug të saj, i pozicionuar në një tokë shumë të plleshme bujqësore. Gjatë viteve gjashtëdhjetë të shekullit XX, janë evidentua...","burimi":"DTK","url_dtk":"https://dtk.rks-gov.net/Objekti?heritageId=9462","verifikuar":"po","shenime":"klasa=Lokalitet Arkeologjik; heritageId=9462"}},{"type":"Feature","id":"sites_arkeologjike.2","geometry":{"type":"Point","coordinates":[21.15167701,42.33803274]},"geometry_name":"geom","properties":{"id":"ARK-002","emri":"Lokalitet Arkeologjik në Greme të Ferizajit","lloji_trashegimise":"arkeologjike","kategoria":"vendbanim","periudha":"antikitet_i_vone","periudha_detaj":"Antikiteti i Vonë","komuna":"Ferizaj","rajon":"Kosovë","lat":42.3380327,"lon":21.151677,"easting_kosovaref01":7512498.579,"northing_kosovaref01":4688726.615,"sistemi_projeksion":"EPSG:9141 (KOSOVAREF01 / Balkans zone 7)","koordinata_burimi":"OSM Nominatim (fshati Greme); DTK pa koordinatë  vendosje e përafërt","saktesia_koordinates":"e përafërt","gjendja":"e mirë","status_mbrojtjes":"e pa përcaktuar","pershkrim_i_shkurter":"Duke u mbështetur në gjurmët e rrënojave dhe themeleve që u vërejtën në këtë lokalitet mund të thuhet se kemi të bëjmë me një objekt kulti të periudhës paleokristiane të shekujve V-VII. Muret, gjegjësisht themelet, janë ...","burimi":"DTK","url_dtk":"https://dtk.rks-gov.net/Objekti?heritageId=9305","verifikuar":"po","shenime":"klasa=Lokalitet Arkeologjik; heritageId=9305"}},{"type":"Feature","id":"sites_arkeologjike.3","geometry":{"type":"Point","coordinates":[21.092381,42.36778604]},"geometry_name":"geom","properties":{"id":"ARK-003","emri":"Lokalitet arkeologjik në Nerodimen e Ulët","lloji_trashegimise":"arkeologjike","kategoria":"vendbanim","periudha":"romak","periudha_detaj":"Romake","komuna":"Ferizaj","rajon":"Kosovë","lat":42.367786,"lon":21.092381,"easting_kosovaref01":7507608.844,"northing_kosovaref01":4692024.277,"sistemi_projeksion":"EPSG:9141 (KOSOVAREF01 / Balkans zone 7)","koordinata_burimi":"DTK","saktesia_koordinates":"e mirë","gjendja":"e mirë","status_mbrojtjes":"e pa përcaktuar","pershkrim_i_shkurter":"Në vitin 1988, në fshatin Nerodime e Ultë, e pozicionuar në perëndim të qytetit të Ferizajt, disa sondazhe arkeologjike të zhvilluara këtu në arealin fare pranë varreve ortodokse, rezultuan me zbulimin e një kompleksi pr...","burimi":"DTK","url_dtk":"https://dtk.rks-gov.net/Objekti?heritageId=9307","verifikuar":"po","shenime":"klasa=Lokalitet Arkeologjik; heritageId=9307"}},{"type":"Feature","id":"sites_arkeologjike.4","geometry":{"type":"Point","coordinates":[21.1387342,42.34656584]},"geometry_name":"geom","properties":{"id":"ARK-004","emri":"Lokaliteti arkeologjik 'Tuma-Gur'-Nekropol romak","lloji_trashegimise":"arkeologjike","kategoria":"nekropoli","periudha":"romak","periudha_detaj":"Romake","komuna":"Ferizaj","rajon":"Kosovë","lat":42.3465658,"lon":21.1387342,"easting_kosovaref01":7511430.512,"northing_kosovaref01":4689672.556,"sistemi_projeksion":"EPSG:9141 (KOSOVAREF01 / Balkans zone 7)","koordinata_burimi":"OSM Nominatim (fshati Zaskok); DTK pa koordinatë  vendosje e përafërt","saktesia_koordinates":"e përafërt","gjendja":"e mirë","status_mbrojtjes":"e pa përcaktuar","pershkrim_i_shkurter":"Fshati Zaskok gjendet rreth 3 km në jug-perëndim të qytetit të Ferizajt. Lokaliteti arkeologjik i identifikuar si TUMA-GUR gjendet pranë shkollës së vjetër si dhe pranë Zyrës së Vendit të fshatit Zaskok. Në vitin 1981 ja...","burimi":"DTK","url_dtk":"https://dtk.rks-gov.net/Objekti?heritageId=8890","verifikuar":"po","shenime":"klasa=Lokalitet Arkeologjik; heritageId=8890"}},{"type":"Feature","id":"sites_arkeologjike.5","geometry":{"type":"Point","coordinates":[20.789611,42.46825004]},"geometry_name":"geom","properties":{"id":"ARK-005","emri":"Lokaliteti Arkeologjik Neolitik në Varosh","lloji_trashegimise":"arkeologjike","kategoria":"vendbanim","periudha":"neolit","periudha_detaj":"Neolit","komuna":"Ferizaj","rajon":"Kosovë","lat":42.46825,"lon":20.789611,"easting_kosovaref01":7482699.212,"northing_kosovaref01":4703200.156,"sistemi_projeksion":"EPSG:9141 (KOSOVAREF01 / Balkans zone 7)","koordinata_burimi":"DTK","saktesia_koordinates":"e mirë","gjendja":"e mirë","status_mbrojtjes":"e pa përcaktuar","pershkrim_i_shkurter":"Lokaliteti neolitik i identifikuar i Varoshit ndodhet në komunën e Ferizajt, gjegjësisht vetëm 2 km në jug, juglindje të këtij qyteti, në fshatin me po të njëjtin emër. Bazuar në materialin e lëvizshëm arkeologjik, kryes...","burimi":"DTK","url_dtk":"https://dtk.rks-gov.net/Objekti?heritageId=9299","verifikuar":"po","shenime":"klasa=Lokalitet Arkeologjik; heritageId=9299"}},{"type":"Feature","id":"sites_arkeologjike.6","geometry":{"type":"Point","coordinates":[21.010958,42.63386404]},"geometry_name":"geom","properties":{"id":"ARK-006","emri":"Fortesa parahistorike e Bellaçecit (Bardh i Madh)","lloji_trashegimise":"arkeologjike","kategoria":"fortifikate_kalaje","periudha":"bronz","periudha_detaj":"Epoka e Bronzit","komuna":"Fushë Kosovë","rajon":"Kosovë","lat":42.633864,"lon":21.010958,"easting_kosovaref01":7500898.723,"northing_kosovaref01":4721573.993,"sistemi_projeksion":"EPSG:9141 (KOSOVAREF01 / Balkans zone 7)","koordinata_burimi":"DTK","saktesia_koordinates":"e mirë","gjendja":"e mirë","status_mbrojtjes":"e pa përcaktuar","pershkrim_i_shkurter":"Fortesa e Bellaçecit (Bardh i Madh) gjendet mbi një kodër të mbrojtur nga konfiguracioni i terrenit natyror nga anët veriore, jugore dhe lindore, ndërsa nga perëndimi mbrohet nga ledhet gjegjësisht hendeqet mbrojtës. Far...","burimi":"DTK","url_dtk":"https://dtk.rks-gov.net/Objekti?heritageId=2399","verifikuar":"po","shenime":"klasa=Lokalitet Arkeologjik; heritageId=2399"}},{"type":"Feature","id":"sites_arkeologjike.7","geometry":{"type":"Point","coordinates":[20.997022,42.57844204]},"geometry_name":"geom","properties":{"id":"ARK-007","emri":"Kalaja e Harilaqit","lloji_trashegimise":"arkeologjike","kategoria":"fortifikate_kalaje","periudha":"antikitet_i_vone","periudha_detaj":"Antikiteti i Vonë","komuna":"Fushë Kosovë","rajon":"Kosovë","lat":42.578442,"lon":20.997022,"easting_kosovaref01":7499755.542,"northing_kosovaref01":4715417.998,"sistemi_projeksion":"EPSG:9141 (KOSOVAREF01 / Balkans zone 7)","koordinata_burimi":"DTK","saktesia_koordinates":"e mirë","gjendja":"e mirë","status_mbrojtjes":"e pa përcaktuar","pershkrim_i_shkurter":"Kalaja-fortesa e Harilaqit (shek. IV-VI) gjendet mbi një kodër të njohur si Gradina e Harilaqit, e ngritur në një pozitë mjaft dominante, në perëndim të fshatit Harilaq, në lartësinë mbidetare prej maksimum 766 metra mbi...","burimi":"DTK","url_dtk":"https://dtk.rks-gov.net/Objekti?heritageId=2384","verifikuar":"po","shenime":"klasa=Monument; heritageId=2384"}},{"type":"Feature","id":"sites_arkeologjike.8","geometry":{"type":"Point","coordinates":[21.004394,42.65060604]},"geometry_name":"geom","properties":{"id":"ARK-008","emri":"Nekropolë Mesjetare në Graboc të Ulët","lloji_trashegimise":"arkeologjike","kategoria":"vendbanim","periudha":"mesjetar","periudha_detaj":"Mesjetë e Hershme","komuna":"Fushë Kosovë","rajon":"Kosovë","lat":42.650606,"lon":21.004394,"easting_kosovaref01":7500360.278,"northing_kosovaref01":4723433.556,"sistemi_projeksion":"EPSG:9141 (KOSOVAREF01 / Balkans zone 7)","koordinata_burimi":"DTK","saktesia_koordinates":"e mirë","gjendja":"e mirë","status_mbrojtjes":"e pa përcaktuar","pershkrim_i_shkurter":"Lokaliteti arkeologjik i Grabocit të Ulët ndodhet prane vendbanimit eponim, buzë lumit Drenicë, afër 10 km në perëndim të Fushë-Kosovës. Në lagjen e Berishëve, në vendin e njohur me emrin Bahçe, fillimisht në vitin 2004 ...","burimi":"DTK","url_dtk":"https://dtk.rks-gov.net/Objekti?heritageId=2375","verifikuar":"po","shenime":"klasa=Lokalitet Arkeologjik; heritageId=2375"}},{"type":"Feature","id":"sites_arkeologjike.9","geometry":{"type":"Point","coordinates":[20.57445,42.33218304]},"geometry_name":"geom","properties":{"id":"ARK-009","emri":"Nekropoli i tumulave të Rogovës","lloji_trashegimise":"arkeologjike","kategoria":"nekropoli","periudha":"bronz","periudha_detaj":"Epoka e Bronzit","komuna":"Gjakovë","rajon":"Kosovë","lat":42.332183,"lon":20.57445,"easting_kosovaref01":7464930.299,"northing_kosovaref01":4688153.46,"sistemi_projeksion":"EPSG:9141 (KOSOVAREF01 / Balkans zone 7)","koordinata_burimi":"DTK","saktesia_koordinates":"e mirë","gjendja":"e mirë","status_mbrojtjes":"e pa përcaktuar","pershkrim_i_shkurter":"Nekropoli i tumulave të Rogovës gjendet në lokacionin e njohur me emrin Fusha, rreth 4 km në juglindje të nekropolit tumular të Fshejt, në krahun e djathtë të rrugës Gjakovë-Prizren. Ky kompleks nekropolesh përbëhej prej...","burimi":"DTK","url_dtk":"https://dtk.rks-gov.net/Objekti?heritageId=9454","verifikuar":"po","shenime":"klasa=Lokalitet Arkeologjik; heritageId=9454"}},{"type":"Feature","id":"sites_arkeologjike.10","geometry":{"type":"Point","coordinates":[20.279761,42.40459404]},"geometry_name":"geom","properties":{"id":"ARK-010","emri":"Nekropoli tumular i Ponoshecit","lloji_trashegimise":"arkeologjike","kategoria":"nekropoli","periudha":"hekur","periudha_detaj":"Epoka e Hekurit","komuna":"Gjakovë","rajon":"Kosovë","lat":42.404594,"lon":20.279761,"easting_kosovaref01":7440712.93,"northing_kosovaref01":4696359.694,"sistemi_projeksion":"EPSG:9141 (KOSOVAREF01 / Balkans zone 7)","koordinata_burimi":"DTK","saktesia_koordinates":"e mirë","gjendja":"e mirë","status_mbrojtjes":"e pa përcaktuar","pershkrim_i_shkurter":"Nekropoli tumular i Ponoshecit ndodhet në parcelat e tokave të njohur me toponimin lokal si Arëza, fare pranë përroit Labenicë. Kjo varrezë me tumula, është e grupuar në pesë tuma të evidentuara deri tani dhe shtrihet në...","burimi":"DTK","url_dtk":"https://dtk.rks-gov.net/Objekti?heritageId=9455","verifikuar":"po","shenime":"klasa=Lokalitet Arkeologjik; heritageId=9455"}},{"type":"Feature","id":"sites_arkeologjike.11","geometry":{"type":"Point","coordinates":[21.537747,42.34741904]},"geometry_name":"geom","properties":{"id":"ARK-011","emri":"Tuma ilire te ura e Fshejt - Ujzë","lloji_trashegimise":"arkeologjike","kategoria":"nekropoli","periudha":"bronz","periudha_detaj":"Epoka e Bronzit","komuna":"Gjakovë","rajon":"Kosovë","lat":42.347419,"lon":21.537747,"easting_kosovaref01":7544305.215,"northing_kosovaref01":4689898.055,"sistemi_projeksion":"EPSG:9141 (KOSOVAREF01 / Balkans zone 7)","koordinata_burimi":"DTK","saktesia_koordinates":"e mirë","gjendja":"e mirë","status_mbrojtjes":"e pa përcaktuar","pershkrim_i_shkurter":"Nekropoli tumular i Fshejit i takon periudhës së vonë të hekurit (VII-VI p.e.s.) dhe gjatë hulumtimeve arkeologjike të zhvilluara këtu në vitin 2011 u gërmuan pesë tuma, këto me inventar mjaft të pasur të lëndës arkeolog...","burimi":"DTK","url_dtk":"https://dtk.rks-gov.net/Objekti?heritageId=8749","verifikuar":"po","shenime":"klasa=Lokalitet Arkeologjik; heritageId=8749"}},{"type":"Feature","id":"sites_arkeologjike.12","geometry":{"type":"Point","coordinates":[21.553786,42.42721904]},"geometry_name":"geom","properties":{"id":"ARK-012","emri":"Kalaja e Pogragjës","lloji_trashegimise":"arkeologjike","kategoria":"fortifikate_kalaje","periudha":"antikitet_i_vone","periudha_detaj":"Antikiteti i Vonë","komuna":"Gjilan","rajon":"Kosovë","lat":42.427219,"lon":21.553786,"easting_kosovaref01":7545568.925,"northing_kosovaref01":4698769.936,"sistemi_projeksion":"EPSG:9141 (KOSOVAREF01 / Balkans zone 7)","koordinata_burimi":"DTK","saktesia_koordinates":"e mirë","gjendja":"e mirë","status_mbrojtjes":"e pa përcaktuar","pershkrim_i_shkurter":"Kalaja e Pogragjës gjendet 10 kilometra në juglindje të Gjilanit, përkatësisht rreth 1 km larg prej fshatit Pogragjë. Është e pozicionuar në grykën e Llapushnicës, në lartësi mbidetare prej 567 m dhe poshtë te këmbët e k...","burimi":"DTK","url_dtk":"https://dtk.rks-gov.net/Objekti?heritageId=22","verifikuar":"po","shenime":"klasa=Monument; heritageId=22"}},{"type":"Feature","id":"sites_arkeologjike.13","geometry":{"type":"Point","coordinates":[21.48518301,42.39432504]},"geometry_name":"geom","properties":{"id":"ARK-013","emri":"Nekropoli tumular Ilir i Llashticës","lloji_trashegimise":"arkeologjike","kategoria":"nekropoli","periudha":"hekur","periudha_detaj":"Epoka e Hekurit","komuna":"Gjilan","rajon":"Kosovë","lat":42.394325,"lon":21.485183,"easting_kosovaref01":7539944.701,"northing_kosovaref01":4695081.85,"sistemi_projeksion":"EPSG:9141 (KOSOVAREF01 / Balkans zone 7)","koordinata_burimi":"DTK","saktesia_koordinates":"e mirë","gjendja":"e mirë","status_mbrojtjes":"e pa përcaktuar","pershkrim_i_shkurter":"Nekropoli i tumulave në Llashticë gjendet rreth 10 km në verilindje të qytetit të Gjilanit, në krahun e djathtë të Moravës së Binçës, e shtrirë në një sipërfaqe të gjerë të tokave punuese të fshatit Llashticë buzë maleve...","burimi":"DTK","url_dtk":"https://dtk.rks-gov.net/Objekti?heritageId=445","verifikuar":"po","shenime":"klasa=Lokalitet Arkeologjik; heritageId=445"}},{"type":"Feature","id":"sites_arkeologjike.14","geometry":{"type":"Point","coordinates":[20.821122,42.58781704]},"geometry_name":"geom","properties":{"id":"ARK-014","emri":"Gjyteti i Madh dhe Gjyteti i Vogël në Vuçak","lloji_trashegimise":"arkeologjike","kategoria":"vendbanim","periudha":"antikitet_i_vone","periudha_detaj":"Antikiteti i Vonë","komuna":"Gllogoc","rajon":"Kosovë","lat":42.587817,"lon":20.821122,"easting_kosovaref01":7485318.464,"northing_kosovaref01":4716474.817,"sistemi_projeksion":"EPSG:9141 (KOSOVAREF01 / Balkans zone 7)","koordinata_burimi":"DTK","saktesia_koordinates":"e mirë","gjendja":"e mirë","status_mbrojtjes":"e pa përcaktuar","pershkrim_i_shkurter":"Në fshatin Vuçak rrëzë malit Kasmaç, rreth 12 km në jugperëndim të Drenasit, e vendosur në një pozitë shumë dominuese, vërehen gjurmët e rrënojave të mureve që përcjellin konfiguracionin e kodrës dhe formojnë Gradinën e ...","burimi":"DTK","url_dtk":"https://dtk.rks-gov.net/Objekti?heritageId=2423","verifikuar":"po","shenime":"klasa=Lokalitet Arkeologjik; heritageId=2423"}},{"type":"Feature","id":"sites_arkeologjike.15","geometry":{"type":"Point","coordinates":[20.844158,42.56555804]},"geometry_name":"geom","properties":{"id":"ARK-015","emri":"Kalaja e Llapushnikut","lloji_trashegimise":"arkeologjike","kategoria":"fortifikate_kalaje","periudha":"bronz","periudha_detaj":"Epoka e Bronzit","komuna":"Gllogoc","rajon":"Kosovë","lat":42.565558,"lon":20.844158,"easting_kosovaref01":7487204.61,"northing_kosovaref01":4713998.696,"sistemi_projeksion":"EPSG:9141 (KOSOVAREF01 / Balkans zone 7)","koordinata_burimi":"DTK","saktesia_koordinates":"e mirë","gjendja":"e mirë","status_mbrojtjes":"e pa përcaktuar","pershkrim_i_shkurter":"Shtrihet rrëzë majave të maleve të Drenicës, në jug të Grykës së Llapushnikut, rreth 10 km në jugperëndim të qendrës komunale të Drenasit. Kalaja e Llapushnikut kishte një mur kështjellar me dimensione rreth 200 me 300 m...","burimi":"DTK","url_dtk":"https://dtk.rks-gov.net/Objekti?heritageId=9464","verifikuar":"po","shenime":"klasa=Lokalitet Arkeologjik; heritageId=9464"}},{"type":"Feature","id":"sites_arkeologjike.16","geometry":{"type":"Point","coordinates":[21.175225,42.59664404]},"geometry_name":"geom","properties":{"id":"ARK-016","emri":"Municipium Ulpiana-Justiniana Secunda","lloji_trashegimise":"arkeologjike","kategoria":"vendbanim","periudha":"romak","periudha_detaj":"Romake","komuna":"Graçanicë","rajon":"Kosovë","lat":42.596644,"lon":21.175225,"easting_kosovaref01":7514379.684,"northing_kosovaref01":4717454.638,"sistemi_projeksion":"EPSG:9141 (KOSOVAREF01 / Balkans zone 7)","koordinata_burimi":"DTK","saktesia_koordinates":"e mirë","gjendja":"e mirë","status_mbrojtjes":"e pa përcaktuar","pershkrim_i_shkurter":"Lokaliteti arkeologjik Ulpiana gjendet rreth 12 km në jug-lindje të Prishtinës, (Komuna e Graçanicës, Rajoni i Prishtinës), e pozicionuar ne tokat qe sot i takojnë fshatrave të Graçanicës, Llaplla Sellës dhe Hajvalisë. L...","burimi":"DTK","url_dtk":"https://dtk.rks-gov.net/Objekti?heritageId=6688","verifikuar":"po","shenime":"klasa=Lokalitet Arkeologjik; heritageId=6688"}},{"type":"Feature","id":"sites_arkeologjike.17","geometry":{"type":"Point","coordinates":[20.403836,42.77029404]},"geometry_name":"geom","properties":{"id":"ARK-017","emri":"Kisha paleokristiane në Vrellë","lloji_trashegimise":"arkeologjike","kategoria":"vendbanim","periudha":"antikitet_i_vone","periudha_detaj":"Antikiteti i Vonë","komuna":"Istog","rajon":"Kosovë","lat":42.770294,"lon":20.403836,"easting_kosovaref01":7451212.327,"northing_kosovaref01":4736900.371,"sistemi_projeksion":"EPSG:9141 (KOSOVAREF01 / Balkans zone 7)","koordinata_burimi":"DTK","saktesia_koordinates":"e mirë","gjendja":"e mirë","status_mbrojtjes":"e pa përcaktuar","pershkrim_i_shkurter":"Fshati Vrellë shtrihet rreth 7 km në perëndim të Istogut. Gërmimet arkeologjike të zhvilluara në vitin 2010 nxorën në pah një kishë paleokristiane, e shekujve IV-VI të kohës sonë me dimensione jo të mëdha. Fare pranë kës...","burimi":"DTK","url_dtk":"https://dtk.rks-gov.net/Objekti?heritageId=9086","verifikuar":"po","shenime":"klasa=Lokalitet Arkeologjik; heritageId=9086"}},{"type":"Feature","id":"sites_arkeologjike.18","geometry":{"type":"Point","coordinates":[20.45747199,42.77909704]},"geometry_name":"geom","properties":{"id":"ARK-018","emri":"Lokalitet Romak \" Arat e njoma- Kisha e vjeter\"","lloji_trashegimise":"arkeologjike","kategoria":"vendbanim","periudha":"romak","periudha_detaj":"Romake","komuna":"Istog","rajon":"Kosovë","lat":42.779097,"lon":20.457472,"easting_kosovaref01":7455607.981,"northing_kosovaref01":4737848.568,"sistemi_projeksion":"EPSG:9141 (KOSOVAREF01 / Balkans zone 7)","koordinata_burimi":"DTK","saktesia_koordinates":"e mirë","gjendja":"e mirë","status_mbrojtjes":"e pa përcaktuar","pershkrim_i_shkurter":"Në fshatin Cërcë, rrëzë maleve të Moknës, jo më larg se 2 km në perëndim të qytezës së Istogut, gjatë lëvrimit të tokave punuese, në lokalitetin Arat e Njoma, rastësisht u zbulua një artefakt i veçantë, një pllakëtullë (...","burimi":"DTK","url_dtk":"https://dtk.rks-gov.net/Objekti?heritageId=9093","verifikuar":"po","shenime":"klasa=Lokalitet Arkeologjik; heritageId=9093"}},{"type":"Feature","id":"sites_arkeologjike.19","geometry":{"type":"Point","coordinates":[20.388961,42.72221704]},"geometry_name":"geom","properties":{"id":"ARK-019","emri":"Lokaliteti antik arkeologjik i Banjës së Pejës","lloji_trashegimise":"arkeologjike","kategoria":"vendbanim","periudha":"hekur","periudha_detaj":"Epoka e Hekurit","komuna":"Istog","rajon":"Kosovë","lat":42.722217,"lon":20.388961,"easting_kosovaref01":7449956.355,"northing_kosovaref01":4731568.821,"sistemi_projeksion":"EPSG:9141 (KOSOVAREF01 / Balkans zone 7)","koordinata_burimi":"DTK","saktesia_koordinates":"e mirë","gjendja":"e mirë","status_mbrojtjes":"e pa përcaktuar","pershkrim_i_shkurter":"Lokaliteti antik arkeologjik i Banjës së Pejës pozicionohet në kryqëzimin e rrugës që lidh Pejën me Istogun, rreth 12 km në veriperëndim të Pejës. Gjatë ndërtimit të një hoteli për kurim shëndetësor (Onix) në vitin 1974,...","burimi":"DTK","url_dtk":"https://dtk.rks-gov.net/Objekti?heritageId=9457","verifikuar":"po","shenime":"klasa=Lokalitet Arkeologjik; heritageId=9457"}},{"type":"Feature","id":"sites_arkeologjike.20","geometry":{"type":"Point","coordinates":[20.433628,42.77650004]},"geometry_name":"geom","properties":{"id":"ARK-020","emri":"Tumat Ilire në Nëngurë","lloji_trashegimise":"arkeologjike","kategoria":"nekropoli","periudha":"bronz","periudha_detaj":"Epoka e Bronzit","komuna":"Istog","rajon":"Kosovë","lat":42.7765,"lon":20.433628,"easting_kosovaref01":7453655.019,"northing_kosovaref01":4737572.922,"sistemi_projeksion":"EPSG:9141 (KOSOVAREF01 / Balkans zone 7)","koordinata_burimi":"DTK","saktesia_koordinates":"e mirë","gjendja":"e mirë","status_mbrojtjes":"e pa përcaktuar","pershkrim_i_shkurter":"Tumat e Lubozhdës, gjenden në po të njëjtin fshat, eponim i cili shtrihej buzë malit Mokna rreth 4 km në perëndim të qytezës së Istogut. Nekropoli është i përbërë prej disa tumave nga të cilat u identifikuan 3 sosh i sht...","burimi":"DTK","url_dtk":"https://dtk.rks-gov.net/Objekti?heritageId=9083","verifikuar":"po","shenime":"klasa=Lokalitet Arkeologjik; heritageId=9083"}},{"type":"Feature","id":"sites_arkeologjike.21","geometry":{"type":"Point","coordinates":[21.2553444,42.22818374]},"geometry_name":"geom","properties":{"id":"ARK-021","emri":"Kalaja e Kaçanikut","lloji_trashegimise":"arkeologjike","kategoria":"fortifikate_kalaje","periudha":"mesjetar","periudha_detaj":"Mesjetë e Vonë","komuna":"Kaçanik","rajon":"Kosovë","lat":42.2281837,"lon":21.2553444,"easting_kosovaref01":7521077.628,"northing_kosovaref01":4676546.366,"sistemi_projeksion":"EPSG:9141 (KOSOVAREF01 / Balkans zone 7)","koordinata_burimi":"Inventari kulturor / Google Maps (Kalaja e Kaçanikut)","saktesia_koordinates":"e mirë","gjendja":"e mirë","status_mbrojtjes":"e pa përcaktuar","pershkrim_i_shkurter":"Në qendrën e qytetit të Kaçanikut, në bregun perëndimor të lumit Lepenc, gjendet kalaja e cila daton nga shek. XVI. Sipas dokumenteve të shkruara, Kalaja e Kaçanikut është ndërtuar me urdhrin e bërë më 1582 nga Sulltan M...","burimi":"DTK","url_dtk":"https://dtk.rks-gov.net/Objekti?heritageId=655","verifikuar":"po","shenime":"klasa=Monument; heritageId=655"}},{"type":"Feature","id":"sites_arkeologjike.22","geometry":{"type":"Point","coordinates":[21.258956,42.21484204]},"geometry_name":"geom","properties":{"id":"ARK-022","emri":"Kalaja e Llanishtës","lloji_trashegimise":"arkeologjike","kategoria":"fortifikate_kalaje","periudha":"antikitet_i_vone","periudha_detaj":"Antikiteti i Vonë","komuna":"Kaçanik","rajon":"Kosovë","lat":42.214842,"lon":21.258956,"easting_kosovaref01":7521380.252,"northing_kosovaref01":4675065.448,"sistemi_projeksion":"EPSG:9141 (KOSOVAREF01 / Balkans zone 7)","koordinata_burimi":"DTK","saktesia_koordinates":"e mirë","gjendja":"e mirë","status_mbrojtjes":"e pa përcaktuar","pershkrim_i_shkurter":"Rreth 1 km në jug të Kaçanikut, në pjesën e ngritur në lartësinë prej 684 metrash mbi nivelin e detit, në lokalitetin Vranjak janë identifikuar rrënoja të një fortese ku dallohet qartë muri i trashë rreth 1.7 m, me lartë...","burimi":"DTK","url_dtk":"https://dtk.rks-gov.net/Objekti?heritageId=2198","verifikuar":"po","shenime":"klasa=Monument; heritageId=2198"}},{"type":"Feature","id":"sites_arkeologjike.23","geometry":{"type":"Point","coordinates":[21.289261,42.15968904]},"geometry_name":"geom","properties":{"id":"ARK-023","emri":"Lokalitet arkeologjik në Paldenicë","lloji_trashegimise":"arkeologjike","kategoria":"vendbanim","periudha":"romak","periudha_detaj":"Romake","komuna":"Kaçanik","rajon":"Kosovë","lat":42.159689,"lon":21.289261,"easting_kosovaref01":7523903.102,"northing_kosovaref01":4668947.87,"sistemi_projeksion":"EPSG:9141 (KOSOVAREF01 / Balkans zone 7)","koordinata_burimi":"DTK","saktesia_koordinates":"e mirë","gjendja":"e mirë","status_mbrojtjes":"e pa përcaktuar","pershkrim_i_shkurter":"Rreth 150 m në anën e majtë të magjistrales Prishtinë-Shkup, në hyrje të fshatit Paldenicë, mbi një kodër që shtrihet nga perëndim, e me konfiguracion terreni në formë të shalës së kalit, e që ka pamje të gjerë të grykës...","burimi":"DTK","url_dtk":"https://dtk.rks-gov.net/Objekti?heritageId=9461","verifikuar":"po","shenime":"klasa=Lokalitet Arkeologjik; heritageId=9461"}},{"type":"Feature","id":"sites_arkeologjike.24","geometry":{"type":"Point","coordinates":[21.6345,42.53280004]},"geometry_name":"geom","properties":{"id":"ARK-024","emri":"Kalaja e antikitetit të vonë në Topanicë","lloji_trashegimise":"arkeologjike","kategoria":"fortifikate_kalaje","periudha":"hekur","periudha_detaj":"Epoka e Hekurit","komuna":"Kamenicë","rajon":"Kosovë","lat":42.5328,"lon":21.6345,"easting_kosovaref01":7552122.886,"northing_kosovaref01":4710543.507,"sistemi_projeksion":"EPSG:9141 (KOSOVAREF01 / Balkans zone 7)","koordinata_burimi":"OSM Topanicë + zhvendosje lindje (kodra Gradec, 480 m) sipas përshkrimit DTK","saktesia_koordinates":"e përafërt","gjendja":"e mirë","status_mbrojtjes":"e pa përcaktuar","pershkrim_i_shkurter":"Lokaliteti arkeologjik shtrihet në lindje të fshatit Topanicë në kufi me fshatin Domorovc. Njihet në mesin e banorëve vendas me toponimin Gradec me lartësi mbidetare prej 480 m. Vendbanimi është i vendosur mbi një kodë...","burimi":"DTK","url_dtk":"https://dtk.rks-gov.net/Objekti?heritageId=3904","verifikuar":"po","shenime":"klasa=Lokalitet Arkeologjik; heritageId=3904"}},{"type":"Feature","id":"sites_arkeologjike.25","geometry":{"type":"Point","coordinates":[20.678519,42.59792804]},"geometry_name":"geom","properties":{"id":"ARK-025","emri":"Lokaliteti Parahistorik Rigjeva në Gllarevë","lloji_trashegimise":"arkeologjike","kategoria":"vendbanim","periudha":"bronz","periudha_detaj":"Epoka e Bronzit","komuna":"Klinë","rajon":"Kosovë","lat":42.597928,"lon":20.678519,"easting_kosovaref01":7473618.48,"northing_kosovaref01":4717632.469,"sistemi_projeksion":"EPSG:9141 (KOSOVAREF01 / Balkans zone 7)","koordinata_burimi":"DTK","saktesia_koordinates":"e mirë","gjendja":"e mirë","status_mbrojtjes":"e pa përcaktuar","pershkrim_i_shkurter":"Lokaliteti arkeologjik i Gllarevës Rigjeva gjendet në qendër të fshatit Gllarevë (komuna e Klinës), në krahun e djathë të rrugës Prishtinë- Pejë, e shtrirë në tokat punuese të Rigjevës. Ky lokalitet është identifikuar ...","burimi":"DTK","url_dtk":"https://dtk.rks-gov.net/Objekti?heritageId=9452","verifikuar":"po","shenime":"klasa=Lokalitet Arkeologjik; heritageId=9452"}},{"type":"Feature","id":"sites_arkeologjike.26","geometry":{"type":"Point","coordinates":[20.62633099,42.56561104]},"geometry_name":"geom","properties":{"id":"ARK-026","emri":"Tumat Ilire në lokalitetin Boka në Përçevë","lloji_trashegimise":"arkeologjike","kategoria":"nekropoli","periudha":"bronz","periudha_detaj":"Epoka e Bronzit","komuna":"Klinë","rajon":"Kosovë","lat":42.565611,"lon":20.626331,"easting_kosovaref01":7469319.959,"northing_kosovaref01":4714060.486,"sistemi_projeksion":"EPSG:9141 (KOSOVAREF01 / Balkans zone 7)","koordinata_burimi":"DTK","saktesia_koordinates":"e mirë","gjendja":"e mirë","status_mbrojtjes":"e pa përcaktuar","pershkrim_i_shkurter":"Nekropoli i tumave të Bokës së Përçevës gjendet pak kilometra në veriperëndim të lokalitetit të Gllarevës. Nekropoli i takon kohës së bronzit të zhvilluar (të vonë) dhe hekurit të hershëm, si dhe është karakteristik për ...","burimi":"DTK","url_dtk":"https://dtk.rks-gov.net/Objekti?heritageId=9453","verifikuar":"po","shenime":"klasa=Lokalitet Arkeologjik; heritageId=9453"}},{"type":"Feature","id":"sites_arkeologjike.27","geometry":{"type":"Point","coordinates":[20.809508,43.05189205]},"geometry_name":"geom","properties":{"id":"ARK-027","emri":"Municipium DD","lloji_trashegimise":"arkeologjike","kategoria":"vendbanim","periudha":"i panjohur","periudha_detaj":null,"komuna":"Leposaviq","rajon":"Kosovë","lat":43.051892,"lon":20.809508,"easting_kosovaref01":7484481.726,"northing_kosovaref01":4768025.497,"sistemi_projeksion":"EPSG:9141 (KOSOVAREF01 / Balkans zone 7)","koordinata_burimi":"DTK","saktesia_koordinates":"e mirë","gjendja":"e mirë","status_mbrojtjes":"e pa përcaktuar","pershkrim_i_shkurter":"Lokaliteti arkeologjik Municipium DD (Dardanorum), ndodhet në pjesën veriore të Kosovës, rreth 27 kilometra në veri të Mitrovicës, në komunën e Leposaviqit, e lokalizuar në fshatin Soçanicë dhe me një pozitë të shkëlqyes...","burimi":"DTK","url_dtk":"https://dtk.rks-gov.net/Objekti?heritageId=8621","verifikuar":"po","shenime":"klasa=Lokalitet Arkeologjik; heritageId=8621"}},{"type":"Feature","id":"sites_arkeologjike.28","geometry":{"type":"Point","coordinates":[21.181417,42.46743604]},"geometry_name":"geom","properties":{"id":"ARK-028","emri":"Qyteza Parahistorike (Gradishtë) në Gadime të Epërme","lloji_trashegimise":"arkeologjike","kategoria":"fortifikate_kalaje","periudha":"neolit","periudha_detaj":"Eneolit","komuna":"Lipjan","rajon":"Kosovë","lat":42.467436,"lon":21.181417,"easting_kosovaref01":7514918.544,"northing_kosovaref01":4703104.244,"sistemi_projeksion":"EPSG:9141 (KOSOVAREF01 / Balkans zone 7)","koordinata_burimi":"DTK","saktesia_koordinates":"e mirë","gjendja":"e mirë","status_mbrojtjes":"e pa përcaktuar","pershkrim_i_shkurter":"Lokaliteti Gradishtë gjendet mbi një sukë në pjesën perëndimore të maleve të pasura me xehe të Zhegovcit. Ka një pozicion të përshtatshëm gjeostrategjik dhe i përket tipit të vendbanimeve kodrinore të eneolitit dhe hekur...","burimi":"DTK","url_dtk":"https://dtk.rks-gov.net/Objekti?heritageId=2336","verifikuar":"po","shenime":"klasa=Lokalitet Arkeologjik; heritageId=2336"}},{"type":"Feature","id":"sites_arkeologjike.29","geometry":{"type":"Point","coordinates":[20.7803247,42.46507034]},"geometry_name":"geom","properties":{"id":"ARK-029","emri":"Lokalitet arkeologjik në Banjë të Malishevës","lloji_trashegimise":"arkeologjike","kategoria":"vendbanim","periudha":"mesjetar","periudha_detaj":"Mesjetë e Hershme","komuna":"Malishevë","rajon":"Kosovë","lat":42.4650703,"lon":20.7803247,"easting_kosovaref01":7481934.663,"northing_kosovaref01":4702848.918,"sistemi_projeksion":"EPSG:9141 (KOSOVAREF01 / Balkans zone 7)","koordinata_burimi":"OSM Nominatim (fshati Banjë, Malishevë); DTK pa koordinatë","saktesia_koordinates":"e përafërt","gjendja":"e mirë","status_mbrojtjes":"e pa përcaktuar","pershkrim_i_shkurter":"Në fshatin Banjë e Malishevës, pozicionuar në juglindje të qytezës së Malishevës, në krahun e majtë të lumit Mirushë, ndodhet lokaliteti arkeologjik i njohur me toponimin Trojet e Vjetra. Lokaliteti arkeologjik ka karakt...","burimi":"DTK","url_dtk":"https://dtk.rks-gov.net/Objekti?heritageId=9286","verifikuar":"po","shenime":"klasa=Lokalitet Arkeologjik; heritageId=9286"}},{"type":"Feature","id":"sites_arkeologjike.30","geometry":{"type":"Point","coordinates":[20.883606,42.88212204]},"geometry_name":"geom","properties":{"id":"ARK-030","emri":"Lokaliteti arkeologjik neolitik-Fafos","lloji_trashegimise":"arkeologjike","kategoria":"vendbanim","periudha":"neolit","periudha_detaj":"Neolit","komuna":"Mitrovicë","rajon":"Kosovë","lat":42.882122,"lon":20.883606,"easting_kosovaref01":7490491.948,"northing_kosovaref01":4749156.239,"sistemi_projeksion":"EPSG:9141 (KOSOVAREF01 / Balkans zone 7)","koordinata_burimi":"DTK","saktesia_koordinates":"e mirë","gjendja":"e mirë","status_mbrojtjes":"e pa përcaktuar","pershkrim_i_shkurter":"Lokaliteti arkeologjik i njohur me emrin Fafos gjendet në periferi të Mitrovicës, në arealin e fabrikës së dikurshme të fosfateve (FAFOS). Është hulumtuar në periudhën kohore në vitin 1955 dhe në vitin 1961. Gjithsej ësh...","burimi":"DTK","url_dtk":"https://dtk.rks-gov.net/Objekti?heritageId=9451","verifikuar":"po","shenime":"klasa=Lokalitet Arkeologjik; heritageId=9451"}},{"type":"Feature","id":"sites_arkeologjike.31","geometry":{"type":"Point","coordinates":[21.41704219,42.61503204]},"geometry_name":"geom","properties":{"id":"ARK-031","emri":"Kalaja e Artanës","lloji_trashegimise":"arkeologjike","kategoria":"fortifikate_kalaje","periudha":"i panjohur","periudha_detaj":null,"komuna":"Novo Bërdë","rajon":"Kosovë","lat":42.615032,"lon":21.4170422,"easting_kosovaref01":7534214.155,"northing_kosovaref01":4719566.491,"sistemi_projeksion":"EPSG:9141 (KOSOVAREF01 / Balkans zone 7)","koordinata_burimi":"OpenStreetMap way/728863982 (Kalaja e Artanës / Novobërdë)","saktesia_koordinates":"e mirë","gjendja":"e mirë","status_mbrojtjes":"e pa përcaktuar","pershkrim_i_shkurter":"Në një mal të vogël ndërmjet Përlepnicës dhe Krivarekës, rreth 30-35 km në perëndim prej Gjilanit dhe rreth 39 kilometra në jug-lindje të Prishtinës, ruhen rrënojat e qytetit dhe fortesës mesjetare të Novobërdës. Sipas d...","burimi":"DTK","url_dtk":"https://dtk.rks-gov.net/Objekti?heritageId=8712","verifikuar":"po","shenime":"klasa=Monument; heritageId=8712"}},{"type":"Feature","id":"sites_arkeologjike.32","geometry":{"type":"Point","coordinates":[21.190997,42.86321404]},"geometry_name":"geom","properties":{"id":"ARK-032","emri":"Lokaliteti arkeologjik Vindenis Polanicë","lloji_trashegimise":"arkeologjike","kategoria":"vendbanim","periudha":"romak","periudha_detaj":"Romake","komuna":"Podujevë","rajon":"Kosovë","lat":42.863214,"lon":21.190997,"easting_kosovaref01":7515607.024,"northing_kosovaref01":4747067.078,"sistemi_projeksion":"EPSG:9141 (KOSOVAREF01 / Balkans zone 7)","koordinata_burimi":"DTK","saktesia_koordinates":"e mirë","gjendja":"e mirë","status_mbrojtjes":"e pa përcaktuar","pershkrim_i_shkurter":"Lokaliteti arkeologjik Vindenis gjendet në arealin e fshatit Gllamnik fare pranë lumit Llap, në komunën e Podujevës. Rëndësia e këtij lokaliteti që i takon periudhës romake (shekujt I-IV) dhe asaj të antikitetit të vonë ...","burimi":"DTK","url_dtk":"https://dtk.rks-gov.net/Objekti?heritageId=6691","verifikuar":"po","shenime":"klasa=Lokalitet Arkeologjik; heritageId=6691"}},{"type":"Feature","id":"sites_arkeologjike.33","geometry":{"type":"Point","coordinates":[21.128266,42.53023504]},"geometry_name":"geom","properties":{"id":"ARK-033","emri":"Lokaliteti neolitik Gumnishtë në Surkish","lloji_trashegimise":"arkeologjike","kategoria":"vendbanim","periudha":"neolit","periudha_detaj":"Neolit","komuna":"Podujevë","rajon":"Kosovë","lat":42.530235,"lon":21.128266,"easting_kosovaref01":7510537.204,"northing_kosovaref01":4710071.473,"sistemi_projeksion":"EPSG:9141 (KOSOVAREF01 / Balkans zone 7)","koordinata_burimi":"DTK","saktesia_koordinates":"e mirë","gjendja":"e mirë","status_mbrojtjes":"e pa përcaktuar","pershkrim_i_shkurter":"Lokaliteti i identifikuar neolitik i Surkishit gjendet e pozicionuar vetëm pak kilometra në jug-jugperëndim të qytezës së Podujevës (Besianës), në fshatin me po të njëjtin emër, në parcelën e njohur me toponimin Gumurish...","burimi":"DTK","url_dtk":"https://dtk.rks-gov.net/Objekti?heritageId=8978","verifikuar":"po","shenime":"klasa=Lokalitet Arkeologjik; heritageId=8978"}},{"type":"Feature","id":"sites_arkeologjike.34","geometry":{"type":"Point","coordinates":[21.237106,42.70933104]},"geometry_name":"geom","properties":{"id":"ARK-034","emri":"Kalaja e Veletinit","lloji_trashegimise":"arkeologjike","kategoria":"fortifikate_kalaje","periudha":"neolit","periudha_detaj":"Eneolit","komuna":"Prishtinë","rajon":"Kosovë","lat":42.709331,"lon":21.237106,"easting_kosovaref01":7519422.8,"northing_kosovaref01":4729983.708,"sistemi_projeksion":"EPSG:9141 (KOSOVAREF01 / Balkans zone 7)","koordinata_burimi":"DTK","saktesia_koordinates":"e mirë","gjendja":"e mirë","status_mbrojtjes":"e pa përcaktuar","pershkrim_i_shkurter":"Fortesa e Veletinit, ndodhet rreth pesë kilometër në juglindje të lokalitetit arkeologjik të Ulpianës, dhe rreth 1.5 kilometër në veriperëndim të Janjevës, e pozicionuar në pjesën kodrinore të fshatit Shashkoc që është n...","burimi":"DTK","url_dtk":"https://dtk.rks-gov.net/Objekti?heritageId=8786","verifikuar":"po","shenime":"klasa=Lokalitet Arkeologjik; heritageId=8786"}},{"type":"Feature","id":"sites_arkeologjike.35","geometry":{"type":"Point","coordinates":[21.142222,42.70558604]},"geometry_name":"geom","properties":{"id":"ARK-035","emri":"Lokalitetet arkeologjike Plandishtë dhe Shevarikë në  Bërnicë të Poshtme","lloji_trashegimise":"arkeologjike","kategoria":"vendbanim","periudha":"bronz","periudha_detaj":"Epoka e Bronzit","komuna":"Prishtinë","rajon":"Kosovë","lat":42.705586,"lon":21.142222,"easting_kosovaref01":7511650.971,"northing_kosovaref01":4729550.277,"sistemi_projeksion":"EPSG:9141 (KOSOVAREF01 / Balkans zone 7)","koordinata_burimi":"DTK","saktesia_koordinates":"e mirë","gjendja":"e mirë","status_mbrojtjes":"e pa përcaktuar","pershkrim_i_shkurter":"Lokaliteti i periudhës së bronzit të vonë- hekurit të hershëm të Bërnicës së Poshtme ndodhet rreth pesë kilometra në veri të Prishtinës, e pozicionuar përkrah rrugës Prishtinë-Podujevë (Besianë). Ky lokalitet është kateg...","burimi":"DTK","url_dtk":"https://dtk.rks-gov.net/Objekti?heritageId=8783","verifikuar":"po","shenime":"klasa=Lokalitet Arkeologjik; heritageId=8783"}},{"type":"Feature","id":"sites_arkeologjike.36","geometry":{"type":"Point","coordinates":[21.119403,42.74935004]},"geometry_name":"geom","properties":{"id":"ARK-036","emri":"Lokaliteti Arkeologjik Neolitik 'Te arat Kovaçe' në Barilevë","lloji_trashegimise":"arkeologjike","kategoria":"vendbanim","periudha":"neolit","periudha_detaj":"Neolit","komuna":"Prishtinë","rajon":"Kosovë","lat":42.74935,"lon":21.119403,"easting_kosovaref01":7509774.741,"northing_kosovaref01":4734408.528,"sistemi_projeksion":"EPSG:9141 (KOSOVAREF01 / Balkans zone 7)","koordinata_burimi":"DTK","saktesia_koordinates":"e mirë","gjendja":"e mirë","status_mbrojtjes":"e pa përcaktuar","pershkrim_i_shkurter":"Lokaliteti neolitik i Barilevës gjendet në fshatin me po të njëjtin emër, e pozicionuar në arealin e njohur si Arat Kovaçe, tokë punuese e cilësisë së lartë. Njoftimet e para për vlerën e këtij lokaliteti i kemi që në vi...","burimi":"DTK","url_dtk":"https://dtk.rks-gov.net/Objekti?heritageId=9449","verifikuar":"po","shenime":"klasa=Lokalitet Arkeologjik; heritageId=9449"}},{"type":"Feature","id":"sites_arkeologjike.37","geometry":{"type":"Point","coordinates":[21.152403,42.70933314]},"geometry_name":"geom","properties":{"id":"ARK-037","emri":"Lokaliteti Arkeologjik Neolitik në Bardhosh","lloji_trashegimise":"arkeologjike","kategoria":"vendbanim","periudha":"neolit","periudha_detaj":"Neolit","komuna":"Prishtinë","rajon":"Kosovë","lat":42.7093331,"lon":21.152403,"easting_kosovaref01":7512484.258,"northing_kosovaref01":4729967.944,"sistemi_projeksion":"EPSG:9141 (KOSOVAREF01 / Balkans zone 7)","koordinata_burimi":"DTK","saktesia_koordinates":"e mirë","gjendja":"e mirë","status_mbrojtjes":"e pa përcaktuar","pershkrim_i_shkurter":"Bardhoshi gjendet në veri, në dalje të Prishtinës, në krahun e majtë të rrugës për Podujevë. Lokaliteti neolitik (Koha e Vinçës) i Bardhoshit është identifikuar rastësisht në vitin 2002, me rastin e hapjes së themeleve p...","burimi":"DTK","url_dtk":"https://dtk.rks-gov.net/Objekti?heritageId=9450","verifikuar":"po","shenime":"klasa=Lokalitet Arkeologjik; heritageId=9450"}},{"type":"Feature","id":"sites_arkeologjike.38","geometry":{"type":"Point","coordinates":[21.197439,42.64394704]},"geometry_name":"geom","properties":{"id":"ARK-038","emri":"Nekropolë mesjetare në Matiqan-Bregu i Ajetit","lloji_trashegimise":"arkeologjike","kategoria":"vendbanim","periudha":"mesjetar","periudha_detaj":"Mesjetë e Hershme","komuna":"Prishtinë","rajon":"Kosovë","lat":42.643947,"lon":21.197439,"easting_kosovaref01":7516190.397,"northing_kosovaref01":4722712.798,"sistemi_projeksion":"EPSG:9141 (KOSOVAREF01 / Balkans zone 7)","koordinata_burimi":"DTK","saktesia_koordinates":"e mirë","gjendja":"e mirë","status_mbrojtjes":"e pa përcaktuar","pershkrim_i_shkurter":"Dikur fshati Matiqan, sot paralagje e Prishtinës, është i njohur në literaturën arkeologjike me rastin e evidentimit dhe dokumentimit të një nekropoli në pjesën e njohur si Matiqan i Poshtëm, i cili në bazë të kulturës m...","burimi":"DTK","url_dtk":"https://dtk.rks-gov.net/Objekti?heritageId=8954","verifikuar":"po","shenime":"klasa=Lokalitet Arkeologjik; heritageId=8954"}},{"type":"Feature","id":"sites_arkeologjike.39","geometry":{"type":"Point","coordinates":[21.140733,42.64402504]},"geometry_name":"geom","properties":{"id":"ARK-039","emri":"Tjerrtorja-lokaliteti neolitik (Vendzbulimi i Hyjneshës në Fron)","lloji_trashegimise":"arkeologjike","kategoria":"vendbanim","periudha":"neolit","periudha_detaj":"Neolit","komuna":"Prishtinë","rajon":"Kosovë","lat":42.644025,"lon":21.140733,"easting_kosovaref01":7511540.375,"northing_kosovaref01":4722712.165,"sistemi_projeksion":"EPSG:9141 (KOSOVAREF01 / Balkans zone 7)","koordinata_burimi":"DTK","saktesia_koordinates":"e mirë","gjendja":"e mirë","status_mbrojtjes":"e pa përcaktuar","pershkrim_i_shkurter":"Lokaliteti neolitik i njohur me emrin Tjerrtorja është zbuluar rastësisht, me rastin e ndërtimit të fabrikës së përpunimit dhe të produkteve tekstile TJERRTORJA, gjatë viteve 50, andaj dhe është emërtuar me këtë emërtim...","burimi":"DTK","url_dtk":"https://dtk.rks-gov.net/Objekti?heritageId=8782","verifikuar":"po","shenime":"klasa=Lokalitet Arkeologjik; heritageId=8782"}},{"type":"Feature","id":"sites_arkeologjike.40","geometry":{"type":"Point","coordinates":[20.65326901,42.19608604]},"geometry_name":"geom","properties":{"id":"ARK-040","emri":"Lokalitet Arkeologjik shumështresor në Vlashnje","lloji_trashegimise":"arkeologjike","kategoria":"vendbanim","periudha":"neolit","periudha_detaj":"Neolit","komuna":"Prizren","rajon":"Kosovë","lat":42.196086,"lon":20.653269,"easting_kosovaref01":7471364.282,"northing_kosovaref01":4673008.025,"sistemi_projeksion":"EPSG:9141 (KOSOVAREF01 / Balkans zone 7)","koordinata_burimi":"DTK","saktesia_koordinates":"e mirë","gjendja":"e mirë","status_mbrojtjes":"e pa përcaktuar","pershkrim_i_shkurter":"Lokaliteti arkeologjik, përkatësisht vendbanimi shumështresor i Vlashnjes gjendet në sipërfaqen e sheshtë të një tarrace shkëmbore (335metra lartësi mbidetare) në krahun e djathtë të rrugës Prizren-Zhur, rreth 6 km në pe...","burimi":"DTK","url_dtk":"https://dtk.rks-gov.net/Objekti?heritageId=9296","verifikuar":"po","shenime":"klasa=Lokalitet Arkeologjik; heritageId=9296"}},{"type":"Feature","id":"sites_arkeologjike.41","geometry":{"type":"Point","coordinates":[20.800108,42.25053304]},"geometry_name":"geom","properties":{"id":"ARK-041","emri":"Lokaliteti i periudhës së bronzit të Korishës","lloji_trashegimise":"arkeologjike","kategoria":"vendbanim","periudha":"bronz","periudha_detaj":"Epoka e Bronzit","komuna":"Prizren","rajon":"Kosovë","lat":42.250533,"lon":20.800108,"easting_kosovaref01":7483505.563,"northing_kosovaref01":4679016.412,"sistemi_projeksion":"EPSG:9141 (KOSOVAREF01 / Balkans zone 7)","koordinata_burimi":"DTK","saktesia_koordinates":"e mirë","gjendja":"e mirë","status_mbrojtjes":"e pa përcaktuar","pershkrim_i_shkurter":"Lokaliteti i periudhës së bronzit të Korishës, ishte hulumtuar gjatë vitit 2006 dhe kishte karakter të gërmim-shpëtimit. Lokaliteti pozicionohet në faqen lindore të qafës në trajtë të shalës, fare pranë kalasë së Korishë...","burimi":"DTK","url_dtk":"https://dtk.rks-gov.net/Objekti?heritageId=9294","verifikuar":"po","shenime":"klasa=Lokalitet Arkeologjik; heritageId=9294"}},{"type":"Feature","id":"sites_arkeologjike.42","geometry":{"type":"Point","coordinates":[20.666664,42.19451104]},"geometry_name":"geom","properties":{"id":"ARK-042","emri":"Lokaliteti Romak në Poslishtë: Villa Rustica; Statio; Mansio","lloji_trashegimise":"arkeologjike","kategoria":"vendbanim","periudha":"romak","periudha_detaj":"Romake","komuna":"Prizren","rajon":"Kosovë","lat":42.194511,"lon":20.666664,"easting_kosovaref01":7472469.862,"northing_kosovaref01":4672828.686,"sistemi_projeksion":"EPSG:9141 (KOSOVAREF01 / Balkans zone 7)","koordinata_burimi":"DTK","saktesia_koordinates":"e mirë","gjendja":"e mirë","status_mbrojtjes":"e pa përcaktuar","pershkrim_i_shkurter":"Me rastin e ndërtimit të segmentit rrugor të autostradës Prizren-Vërmicë, gjatë vitit 2010, rreth një kilometër në jug të lokalitetit shumë shtresor të Vlashnjes, në anën e majtë të rrugës PrizrenVermicë, gjegjësisht 15...","burimi":"DTK","url_dtk":"https://dtk.rks-gov.net/Objekti?heritageId=9459","verifikuar":"po","shenime":"klasa=Lokalitet Arkeologjik; heritageId=9459"}},{"type":"Feature","id":"sites_arkeologjike.43","geometry":{"type":"Point","coordinates":[20.76341315,42.20075519]},"geometry_name":"geom","properties":{"id":"ARK-043","emri":"Manastiri i Kryeëngjujve","lloji_trashegimise":"arkeologjike","kategoria":"vendbanim","periudha":"i panjohur","periudha_detaj":null,"komuna":"Prizren","rajon":"Kosovë","lat":42.20075515,"lon":20.76341315,"easting_kosovaref01":7480462.279,"northing_kosovaref01":4673495.507,"sistemi_projeksion":"EPSG:9141 (KOSOVAREF01 / Balkans zone 7)","koordinata_burimi":"DTK","saktesia_koordinates":"e mirë","gjendja":"e mirë","status_mbrojtjes":"e pa përcaktuar","pershkrim_i_shkurter":"Në grykën e Lumbardhit, 2.5 km në jug-lindje të Prizrenit, gjenden gërmadhat e Manastirit të Shën Arhangjelit (Kryeengjujve) të cilin e ndërtoi Stefan Dushan Nemanja më 1343, dhe gërmadhat e një fortese në majën e kodrës...","burimi":"DTK","url_dtk":"https://dtk.rks-gov.net/Objekti?heritageId=8858","verifikuar":"po","shenime":"klasa=Lokalitet Arkeologjik; heritageId=8858"}},{"type":"Feature","id":"sites_arkeologjike.44","geometry":{"type":"Point","coordinates":[20.635222,42.44579204]},"geometry_name":"geom","properties":{"id":"ARK-044","emri":"Rrënojat e vendbanimit të fortifikuar të Zatriqit","lloji_trashegimise":"arkeologjike","kategoria":"fortifikate_kalaje","periudha":"hekur","periudha_detaj":"Epoka e Hekurit","komuna":"Rahovec","rajon":"Kosovë","lat":42.445792,"lon":20.635222,"easting_kosovaref01":7469992.705,"northing_kosovaref01":4700748.743,"sistemi_projeksion":"EPSG:9141 (KOSOVAREF01 / Balkans zone 7)","koordinata_burimi":"DTK","saktesia_koordinates":"e mirë","gjendja":"e mirë","status_mbrojtjes":"e pa përcaktuar","pershkrim_i_shkurter":"Rrënojat e vendbanimit të ngritur e të fortifikuar që nga Periudha e Hekurit e me intensitet të madh banimi posaçërisht gjatë Antikitetit të vonë e Mesjetës së hershme të Gradishtës së Zatriqit, ndodhen në majën e kodr...","burimi":"DTK","url_dtk":"https://dtk.rks-gov.net/Objekti?heritageId=8873","verifikuar":"po","shenime":"klasa=Lokalitet Arkeologjik; heritageId=8873"}},{"type":"Feature","id":"sites_arkeologjike.45","geometry":{"type":"Point","coordinates":[20.519286,42.46252204]},"geometry_name":"geom","properties":{"id":"ARK-045","emri":"Terma - Banjo romake në Çifllak","lloji_trashegimise":"arkeologjike","kategoria":"gjurme_rrnoje","periudha":"romak","periudha_detaj":"Romake","komuna":"Rahovec","rajon":"Kosovë","lat":42.462522,"lon":20.519286,"easting_kosovaref01":7460466.107,"northing_kosovaref01":4702654.459,"sistemi_projeksion":"EPSG:9141 (KOSOVAREF01 / Balkans zone 7)","koordinata_burimi":"DTK","saktesia_koordinates":"e mirë","gjendja":"e mirë","status_mbrojtjes":"e pa përcaktuar","pershkrim_i_shkurter":"Lokaliteti romak i Çifllakut ndodhet në afërsi të rrjedhjes së Drinit të Bardhë në krahun e majtë të saj. Hulumtimet e zhvilluara në pjesën e parë të mileniumit tonë identifikuan gjurmë të një kompleksi të termës gjegjës...","burimi":"DTK","url_dtk":"https://dtk.rks-gov.net/Objekti?heritageId=9285","verifikuar":"po","shenime":"klasa=Lokalitet Arkeologjik; heritageId=9285"}},{"type":"Feature","id":"sites_arkeologjike.46","geometry":{"type":"Point","coordinates":[20.69144701,42.79513304]},"geometry_name":"geom","properties":{"id":"ARK-046","emri":"Lokaliteti Parahistorik (Neolitik) i Runikut","lloji_trashegimise":"arkeologjike","kategoria":"vendbanim","periudha":"neolit","periudha_detaj":"Neolit","komuna":"Skënderaj","rajon":"Kosovë","lat":42.795133,"lon":20.691447,"easting_kosovaref01":7474759.378,"northing_kosovaref01":4739533.234,"sistemi_projeksion":"EPSG:9141 (KOSOVAREF01 / Balkans zone 7)","koordinata_burimi":"DTK","saktesia_koordinates":"e mirë","gjendja":"e mirë","status_mbrojtjes":"e pa përcaktuar","pershkrim_i_shkurter":"Lokaliteti neolitik i Runikut ndodhet në komunën e Skenderajt, në fshatin Runik, e pozicionuar në pllajën e Drenicës, rreth 25 km në jugperëndim të Mitrovicës dhe rreth 10 km në veriperëndim të Skenderajt dhe gjendet në ...","burimi":"DTK","url_dtk":"https://dtk.rks-gov.net/Objekti?heritageId=8800","verifikuar":"po","shenime":"klasa=Lokalitet Arkeologjik; heritageId=8800"}},{"type":"Feature","id":"sites_arkeologjike.47","geometry":{"type":"Point","coordinates":[20.78380599,42.41311104]},"geometry_name":"geom","properties":{"id":"ARK-047","emri":"Fortifikata/Kalaja Hisari i Kastërcit","lloji_trashegimise":"arkeologjike","kategoria":"fortifikate_kalaje","periudha":"neolit","periudha_detaj":"Eneolit","komuna":"Suharekë","rajon":"Kosovë","lat":42.413111,"lon":20.783806,"easting_kosovaref01":7482206.258,"northing_kosovaref01":4697077.023,"sistemi_projeksion":"EPSG:9141 (KOSOVAREF01 / Balkans zone 7)","koordinata_burimi":"DTK","saktesia_koordinates":"e mirë","gjendja":"e mirë","status_mbrojtjes":"e pa përcaktuar","pershkrim_i_shkurter":"Lokaliteti arkeologjik i tipit fortifikatë në Kasterc, i pozicionuar rreth 12 kilometra në veriperëndim të Suharekës (Therandës) respektivisht i njohur edhe si Hisari i Kastercit, është dëshmuar të jetë një qendër arkeol...","burimi":"DTK","url_dtk":"https://dtk.rks-gov.net/Objekti?heritageId=9291","verifikuar":"po","shenime":"klasa=Lokalitet Arkeologjik; heritageId=9291"}},{"type":"Feature","id":"sites_arkeologjike.48","geometry":{"type":"Point","coordinates":[20.787164,42.35895004]},"geometry_name":"geom","properties":{"id":"ARK-048","emri":"Lokaliteti neolitik i Reshtanit","lloji_trashegimise":"arkeologjike","kategoria":"vendbanim","periudha":"neolit","periudha_detaj":"Neolit","komuna":"Suharekë","rajon":"Kosovë","lat":42.35895,"lon":20.787164,"easting_kosovaref01":7482467.573,"northing_kosovaref01":4691060.676,"sistemi_projeksion":"EPSG:9141 (KOSOVAREF01 / Balkans zone 7)","koordinata_burimi":"DTK","saktesia_koordinates":"e mirë","gjendja":"e mirë","status_mbrojtjes":"e pa përcaktuar","pershkrim_i_shkurter":"Reshtani është një vendbanim neolitik i pozicionuar në prapatokën e Suharekës (në aksin ku sot kalon autostrada Suharekë-Prizren). Ky lokalitet është hulumtuar në vitet 1966/67, gërmime të cilat kishin karakter sondazhi....","burimi":"DTK","url_dtk":"https://dtk.rks-gov.net/Objekti?heritageId=9448","verifikuar":"po","shenime":"klasa=Lokalitet Arkeologjik; heritageId=9448"}},{"type":"Feature","id":"sites_arkeologjike.49","geometry":{"type":"Point","coordinates":[20.816822,42.35109404]},"geometry_name":"geom","properties":{"id":"ARK-049","emri":"Lokaliteti shumë shtresor në Hisarë","lloji_trashegimise":"arkeologjike","kategoria":"fortifikate_kalaje","periudha":"neolit","periudha_detaj":"Neolit","komuna":"Suharekë","rajon":"Kosovë","lat":42.351094,"lon":20.816822,"easting_kosovaref01":7484908.781,"northing_kosovaref01":4690182.428,"sistemi_projeksion":"EPSG:9141 (KOSOVAREF01 / Balkans zone 7)","koordinata_burimi":"DTK","saktesia_koordinates":"e mirë","gjendja":"e mirë","status_mbrojtjes":"e pa përcaktuar","pershkrim_i_shkurter":"Lokaliteti arkeologjik, gjegjësisht, vendbanimi prehistorik i Hisarit ndodhet në anën jugperëndimore të Suharekës, e vendosur në një plato (tarracë) që dominon mbi rrafshin në anën veriore dhe e pozicionuar midis Suharek...","burimi":"DTK","url_dtk":"https://dtk.rks-gov.net/Objekti?heritageId=8852","verifikuar":"po","shenime":"klasa=Lokalitet Arkeologjik; heritageId=8852"}},{"type":"Feature","id":"sites_arkeologjike.50","geometry":{"type":"Point","coordinates":[20.807156,42.32605304]},"geometry_name":"geom","properties":{"id":"ARK-050","emri":"Tuma ilire  e Gjinocit (kodërvarr ilir)","lloji_trashegimise":"arkeologjike","kategoria":"nekropoli","periudha":"hekur","periudha_detaj":"Epoka e Hekurit","komuna":"Suharekë","rajon":"Kosovë","lat":42.326053,"lon":20.807156,"easting_kosovaref01":7484106.137,"northing_kosovaref01":4687402.914,"sistemi_projeksion":"EPSG:9141 (KOSOVAREF01 / Balkans zone 7)","koordinata_burimi":"DTK","saktesia_koordinates":"e mirë","gjendja":"e mirë","status_mbrojtjes":"e pa përcaktuar","pershkrim_i_shkurter":"Tuma e Gjinocit (kodërvarr ilir), është një rast i rrallë në Kosovë i një tume me përmasa gjigante me diametër 84 metra në drejtimin lindje-perëndim dhe 73 metra në orientimin veri-jug. Tuma ka një lartësi prej gati dhje...","burimi":"DTK","url_dtk":"https://dtk.rks-gov.net/Objekti?heritageId=9292","verifikuar":"po","shenime":"klasa=Lokalitet Arkeologjik; heritageId=9292"}},{"type":"Feature","id":"sites_arkeologjike.51","geometry":{"type":"Point","coordinates":[20.816433,42.34767504]},"geometry_name":"geom","properties":{"id":"ARK-051","emri":"Varreza me grup të tumave e Shirokës","lloji_trashegimise":"arkeologjike","kategoria":"nekropoli","periudha":"hekur","periudha_detaj":"Epoka e Hekurit","komuna":"Suharekë","rajon":"Kosovë","lat":42.347675,"lon":20.816433,"easting_kosovaref01":7484875.913,"northing_kosovaref01":4689802.752,"sistemi_projeksion":"EPSG:9141 (KOSOVAREF01 / Balkans zone 7)","koordinata_burimi":"DTK","saktesia_koordinates":"e mirë","gjendja":"e mirë","status_mbrojtjes":"e pa përcaktuar","pershkrim_i_shkurter":"Varreza me grup të tumave e Shirokës, pozicionohet në fshatin me të njëjtin emër, rreth 1,5 km në jug të Suharekës (Therandës), në krahun e djathtë të rrugës magjistrale. Është nekropol i grupit kulturor Dardan të tipit ...","burimi":"DTK","url_dtk":"https://dtk.rks-gov.net/Objekti?heritageId=9456","verifikuar":"po","shenime":"klasa=Lokalitet Arkeologjik; heritageId=9456"}},{"type":"Feature","id":"sites_arkeologjike.52","geometry":{"type":"Point","coordinates":[21.37728901,42.37900604]},"geometry_name":"geom","properties":{"id":"ARK-052","emri":"Lokaliteti Arkeologjik Romak në Vërban (Viti-Kllokot)","lloji_trashegimise":"arkeologjike","kategoria":"vendbanim","periudha":"romak","periudha_detaj":"Romake","komuna":"Viti","rajon":"Kosovë","lat":42.379006,"lon":21.377289,"easting_kosovaref01":7531069.42,"northing_kosovaref01":4693335.293,"sistemi_projeksion":"EPSG:9141 (KOSOVAREF01 / Balkans zone 7)","koordinata_burimi":"DTK","saktesia_koordinates":"e mirë","gjendja":"e mirë","status_mbrojtjes":"e pa përcaktuar","pershkrim_i_shkurter":"Gjurmët e lokalitetit të evidentuara të Vërbanit, pozicionuar fare pranë Banjës së Kllokotit, e të ngritur mbi një tarracë aluviale përgjatë brigjeve të lumit Moravë, në një areal me tokë shumë pjellore dhe në afërsi të ...","burimi":"DTK","url_dtk":"https://dtk.rks-gov.net/Objekti?heritageId=9460","verifikuar":"po","shenime":"klasa=Lokalitet Arkeologjik; heritageId=9460"}},{"type":"Feature","id":"sites_arkeologjike.53","geometry":{"type":"Point","coordinates":[21.000694,42.78228604]},"geometry_name":"geom","properties":{"id":"ARK-053","emri":"Gjurmët e vilës romake në Pestovë","lloji_trashegimise":"arkeologjike","kategoria":"vendbanim","periudha":"romak","periudha_detaj":"Romake","komuna":"Vushtrri","rajon":"Kosovë","lat":42.782286,"lon":21.000694,"easting_kosovaref01":7500056.783,"northing_kosovaref01":4738060.048,"sistemi_projeksion":"EPSG:9141 (KOSOVAREF01 / Balkans zone 7)","koordinata_burimi":"DTK","saktesia_koordinates":"e mirë","gjendja":"e mirë","status_mbrojtjes":"e pa përcaktuar","pershkrim_i_shkurter":"Fshati Pestovë gjendet në komunën e Vushtrrisë dhe shtrihet buzë magjistrales Prishtinë - Mitrovicë, në anën e majtë të kësaj rruge, rreth 4 km pa arritur në qytezën e Vushtrrisë, në një zonë mjaft të begatshme bujqësore...","burimi":"DTK","url_dtk":"https://dtk.rks-gov.net/Objekti?heritageId=9458","verifikuar":"po","shenime":"klasa=Lokalitet Arkeologjik; heritageId=9458"}},{"type":"Feature","id":"sites_arkeologjike.54","geometry":{"type":"Point","coordinates":[20.896197,42.77677804]},"geometry_name":"geom","properties":{"id":"ARK-054","emri":"Kalaja e Dubocit","lloji_trashegimise":"arkeologjike","kategoria":"fortifikate_kalaje","periudha":"hekur","periudha_detaj":"Epoka e Hekurit","komuna":"Vushtrri","rajon":"Kosovë","lat":42.776778,"lon":20.896197,"easting_kosovaref01":7491506.076,"northing_kosovaref01":4737453.46,"sistemi_projeksion":"EPSG:9141 (KOSOVAREF01 / Balkans zone 7)","koordinata_burimi":"DTK","saktesia_koordinates":"e mirë","gjendja":"e mirë","status_mbrojtjes":"e pa përcaktuar","pershkrim_i_shkurter":"Në aspektin arkeologjik, kalaja e Dubocit, e pozicionuar mbi kodrën e Çeçanit, pjesë e vargmalit të Çiçavicës jo larg Vushtrrisë, më së miri e tregon dëshminë më të vjetër të fortifikimit të periudhës së antikitetit të v...","burimi":"DTK","url_dtk":"https://dtk.rks-gov.net/Objekti?heritageId=8956","verifikuar":"po","shenime":"klasa=Lokalitet Arkeologjik; heritageId=8956"}},{"type":"Feature","id":"sites_arkeologjike.55","geometry":{"type":"Point","coordinates":[20.987744,42.70843604]},"geometry_name":"geom","properties":{"id":"ARK-055","emri":"Kalaja e Strocit","lloji_trashegimise":"arkeologjike","kategoria":"fortifikate_kalaje","periudha":"hekur","periudha_detaj":"Epoka e Hekurit","komuna":"Vushtrri","rajon":"Kosovë","lat":42.708436,"lon":20.987744,"easting_kosovaref01":7498996.022,"northing_kosovaref01":4729857.109,"sistemi_projeksion":"EPSG:9141 (KOSOVAREF01 / Balkans zone 7)","koordinata_burimi":"DTK","saktesia_koordinates":"e mirë","gjendja":"e mirë","status_mbrojtjes":"e pa përcaktuar","pershkrim_i_shkurter":"Në fshatin Stroc gjendet kalaja e njohur me emërtimin Gradina, lokalitet ky arkeologjik me indikacione të shfrytëzimit që nga parahistoria, antika e vonë dhe mesjeta e hershme. Në shpatet e kodrës, vërehen mure të vendos...","burimi":"DTK","url_dtk":"https://dtk.rks-gov.net/Objekti?heritageId=9463","verifikuar":"po","shenime":"klasa=Lokalitet Arkeologjik; heritageId=9463"}}],"totalFeatures":55,"numberMatched":55,"numberReturned":55,"timeStamp":"2026-05-28T16:57:17.274Z","crs":{"type":"name","properties":{"name":"urn:ogc:def:crs:EPSG::4326"}}}