{"type":"FeatureCollection","features":[{"type":"Feature","id":"sites_luajtshme.1","geometry":{"type":"Point","coordinates":[21.2579777,42.22806024]},"geometry_name":"geom","properties":{"id":"LUA-001","emri":"Cigarellëk","lloji_trashegimise":"luajtshme","kategoria":"objekt_luajtshme","periudha":"i panjohur","periudha_detaj":null,"komuna":"Kaçanik","rajon":"Kosovë","lat":42.2280602,"lon":21.2579777,"easting_kosovaref01":7521295.038,"northing_kosovaref01":4676533.304,"sistemi_projeksion":"EPSG:9141 (KOSOVAREF01 / Balkans zone 7)","koordinata_burimi":"OSM Nominatim / DTK","saktesia_koordinates":"e përafërt","gjendja":"e mirë","status_mbrojtjes":"e pa përcaktuar","pershkrim_i_shkurter":"Cigarellëk - Ka shërbyer për pirjen e duhanit, Begracë - Kaçanik. Shek. XIX.","burimi":"DTK","url_dtk":"https://dtk.rks-gov.net/Objekti?heritageId=9806","verifikuar":"po","shenime":"klasa=N.A.; heritageId=9806"}},{"type":"Feature","id":"sites_luajtshme.2","geometry":{"type":"Point","coordinates":[21.2579777,42.22806024]},"geometry_name":"geom","properties":{"id":"LUA-002","emri":"Mbajtëse gotash (Ferash)","lloji_trashegimise":"luajtshme","kategoria":"objekt_luajtshme","periudha":"i panjohur","periudha_detaj":null,"komuna":"Kaçanik","rajon":"Kosovë","lat":42.2280602,"lon":21.2579777,"easting_kosovaref01":7521295.038,"northing_kosovaref01":4676533.304,"sistemi_projeksion":"EPSG:9141 (KOSOVAREF01 / Balkans zone 7)","koordinata_burimi":"OSM Nominatim / DTK","saktesia_koordinates":"e përafërt","gjendja":"e mirë","status_mbrojtjes":"e pa përcaktuar","pershkrim_i_shkurter":"Mbajtëse gotash (Ferash) -Është gjetur në Begracë të Kaçanikut, i përket gjysmës së parë të shek XX.","burimi":"DTK","url_dtk":"https://dtk.rks-gov.net/Objekti?heritageId=9799","verifikuar":"po","shenime":"klasa=N.A.; heritageId=9799"}},{"type":"Feature","id":"sites_luajtshme.3","geometry":{"type":"Point","coordinates":[20.57611,42.61799254]},"geometry_name":"geom","properties":{"id":"LUA-003","emri":"Këmishë burri","lloji_trashegimise":"luajtshme","kategoria":"objekt_luajtshme","periudha":"i panjohur","periudha_detaj":null,"komuna":"Klinë","rajon":"Kosovë","lat":42.6179925,"lon":20.57611,"easting_kosovaref01":7465225.697,"northing_kosovaref01":4719898.119,"sistemi_projeksion":"EPSG:9141 (KOSOVAREF01 / Balkans zone 7)","koordinata_burimi":"OSM Nominatim / DTK","saktesia_koordinates":"e përafërt","gjendja":"e mirë","status_mbrojtjes":"e pa përcaktuar","pershkrim_i_shkurter":"Këmishë burri- Pjesë e veshjes popullore shqiptare, nga pëlhura e punuar në vek. I përket shek.XX","burimi":"DTK","url_dtk":"https://dtk.rks-gov.net/Objekti?heritageId=9822","verifikuar":"po","shenime":"klasa=N.A.; heritageId=9822"}},{"type":"Feature","id":"sites_luajtshme.4","geometry":{"type":"Point","coordinates":[21.1640849,42.66387714]},"geometry_name":"geom","properties":{"id":"LUA-004","emri":"Arkë","lloji_trashegimise":"luajtshme","kategoria":"objekt_luajtshme","periudha":"i panjohur","periudha_detaj":null,"komuna":"N.A.","rajon":"Kosovë","lat":42.6638771,"lon":21.1640849,"easting_kosovaref01":7513450.997,"northing_kosovaref01":4724920.686,"sistemi_projeksion":"EPSG:9141 (KOSOVAREF01 / Balkans zone 7)","koordinata_burimi":"OSM Nominatim (Prishtinë, Kosovo)","saktesia_koordinates":"e përafërt","gjendja":"e mirë","status_mbrojtjes":"e pa përcaktuar","pershkrim_i_shkurter":"Arkë- është orendi e cila ka shërbyer për vendosjen e rrobave dhe stolive të ndryshme. Është një objekt personal i çdo gruaje, në të cilen janë ruajtur gjërat personale dhe intime, është blerë me rastin e marteses, pra k...","burimi":"DTK","url_dtk":"https://dtk.rks-gov.net/Objekti?heritageId=9808","verifikuar":"po","shenime":"klasa=N.A.; heritageId=9808"}},{"type":"Feature","id":"sites_luajtshme.5","geometry":{"type":"Point","coordinates":[21.1640849,42.66387714]},"geometry_name":"geom","properties":{"id":"LUA-005","emri":"Çerep","lloji_trashegimise":"luajtshme","kategoria":"objekt_luajtshme","periudha":"i panjohur","periudha_detaj":null,"komuna":"N.A.","rajon":"Kosovë","lat":42.6638771,"lon":21.1640849,"easting_kosovaref01":7513450.997,"northing_kosovaref01":4724920.686,"sistemi_projeksion":"EPSG:9141 (KOSOVAREF01 / Balkans zone 7)","koordinata_burimi":"OSM Nominatim (Prishtinë, Kosovo)","saktesia_koordinates":"e përafërt","gjendja":"e mirë","status_mbrojtjes":"e pa përcaktuar","pershkrim_i_shkurter":"Enë balte e punuar nga shtëpiaket për pjekjen e bukës, në përdorim deri në shek. XX.","burimi":"DTK","url_dtk":"https://dtk.rks-gov.net/Objekti?heritageId=9790","verifikuar":"po","shenime":"klasa=N.A.; heritageId=9790"}},{"type":"Feature","id":"sites_luajtshme.6","geometry":{"type":"Point","coordinates":[21.1640849,42.66387714]},"geometry_name":"geom","properties":{"id":"LUA-006","emri":"Djep foshnjash","lloji_trashegimise":"luajtshme","kategoria":"objekt_luajtshme","periudha":"i panjohur","periudha_detaj":null,"komuna":"N.A.","rajon":"Kosovë","lat":42.6638771,"lon":21.1640849,"easting_kosovaref01":7513450.997,"northing_kosovaref01":4724920.686,"sistemi_projeksion":"EPSG:9141 (KOSOVAREF01 / Balkans zone 7)","koordinata_burimi":"OSM Nominatim (Prishtinë, Kosovo)","saktesia_koordinates":"e përafërt","gjendja":"e mirë","status_mbrojtjes":"e pa përcaktuar","pershkrim_i_shkurter":"Djep foshnjash -I punuar nga druri, ka shërbyer si shtrat fëmije dhe për përkundjen e tyre. I përdorur deri në shek. XX.","burimi":"DTK","url_dtk":"https://dtk.rks-gov.net/Objekti?heritageId=9804","verifikuar":"po","shenime":"klasa=N.A.; heritageId=9804"}},{"type":"Feature","id":"sites_luajtshme.7","geometry":{"type":"Point","coordinates":[21.1640849,42.66387714]},"geometry_name":"geom","properties":{"id":"LUA-007","emri":"Furkë","lloji_trashegimise":"luajtshme","kategoria":"objekt_luajtshme","periudha":"i panjohur","periudha_detaj":null,"komuna":"N.A.","rajon":"Kosovë","lat":42.6638771,"lon":21.1640849,"easting_kosovaref01":7513450.997,"northing_kosovaref01":4724920.686,"sistemi_projeksion":"EPSG:9141 (KOSOVAREF01 / Balkans zone 7)","koordinata_burimi":"OSM Nominatim (Prishtinë, Kosovo)","saktesia_koordinates":"e përafërt","gjendja":"e mirë","status_mbrojtjes":"e pa përcaktuar","pershkrim_i_shkurter":"Mjet i prodhuar nga druri që ka shërbyer për tjerrjen e leshit, linit etj. I përket shek. XX","burimi":"DTK","url_dtk":"https://dtk.rks-gov.net/Objekti?heritageId=9812","verifikuar":"po","shenime":"klasa=N.A.; heritageId=9812"}},{"type":"Feature","id":"sites_luajtshme.8","geometry":{"type":"Point","coordinates":[21.1640849,42.66387714]},"geometry_name":"geom","properties":{"id":"LUA-008","emri":"Ibrik druri","lloji_trashegimise":"luajtshme","kategoria":"objekt_luajtshme","periudha":"i panjohur","periudha_detaj":null,"komuna":"N.A.","rajon":"Kosovë","lat":42.6638771,"lon":21.1640849,"easting_kosovaref01":7513450.997,"northing_kosovaref01":4724920.686,"sistemi_projeksion":"EPSG:9141 (KOSOVAREF01 / Balkans zone 7)","koordinata_burimi":"OSM Nominatim (Prishtinë, Kosovo)","saktesia_koordinates":"e përafërt","gjendja":"e mirë","status_mbrojtjes":"e pa përcaktuar","pershkrim_i_shkurter":"Enë për mbajtjen e ujit. I përket shek. XIX.","burimi":"DTK","url_dtk":"https://dtk.rks-gov.net/Objekti?heritageId=9798","verifikuar":"po","shenime":"klasa=N.A.; heritageId=9798"}},{"type":"Feature","id":"sites_luajtshme.9","geometry":{"type":"Point","coordinates":[21.1640849,42.66387714]},"geometry_name":"geom","properties":{"id":"LUA-009","emri":"Këmishë femrash","lloji_trashegimise":"luajtshme","kategoria":"objekt_luajtshme","periudha":"i panjohur","periudha_detaj":null,"komuna":"N.A.","rajon":"Kosovë","lat":42.6638771,"lon":21.1640849,"easting_kosovaref01":7513450.997,"northing_kosovaref01":4724920.686,"sistemi_projeksion":"EPSG:9141 (KOSOVAREF01 / Balkans zone 7)","koordinata_burimi":"OSM Nominatim (Prishtinë, Kosovo)","saktesia_koordinates":"e përafërt","gjendja":"e mirë","status_mbrojtjes":"e pa përcaktuar","pershkrim_i_shkurter":"Këmishë femrash- Është pjesë e veshjes popullore të Rrafshit të Dukagjinit, nga pëlhura e punuar në vek . Pjesa e përpareme e jakës është e prerë në formë të germës \" T \" , ndërsa jaka dhe mëngët janë të zbukuruara me mo...","burimi":"DTK","url_dtk":"https://dtk.rks-gov.net/Objekti?heritageId=9824","verifikuar":"po","shenime":"klasa=N.A.; heritageId=9824"}},{"type":"Feature","id":"sites_luajtshme.10","geometry":{"type":"Point","coordinates":[21.1640849,42.66387714]},"geometry_name":"geom","properties":{"id":"LUA-010","emri":"Këmishë femrash","lloji_trashegimise":"luajtshme","kategoria":"objekt_luajtshme","periudha":"i panjohur","periudha_detaj":null,"komuna":"N.A.","rajon":"Kosovë","lat":42.6638771,"lon":21.1640849,"easting_kosovaref01":7513450.997,"northing_kosovaref01":4724920.686,"sistemi_projeksion":"EPSG:9141 (KOSOVAREF01 / Balkans zone 7)","koordinata_burimi":"OSM Nominatim (Prishtinë, Kosovo)","saktesia_koordinates":"e përafërt","gjendja":"e mirë","status_mbrojtjes":"e pa përcaktuar","pershkrim_i_shkurter":"Këmishë femrash- Pjesë e veshjës popullore të Drenicës. Është e punuar prej pelhurës e endur në vek. Si te mëngët ashtu edhe tek jaka është e zbukuruar me motive të ndryshme dhe ngjyra të shumëllojshme. Shek.XX","burimi":"DTK","url_dtk":"https://dtk.rks-gov.net/Objekti?heritageId=9825","verifikuar":"po","shenime":"klasa=N.A.; heritageId=9825"}},{"type":"Feature","id":"sites_luajtshme.11","geometry":{"type":"Point","coordinates":[21.2947,42.26630004]},"geometry_name":"geom","properties":{"id":"LUA-011","emri":"Këmishë femrash","lloji_trashegimise":"luajtshme","kategoria":"objekt_luajtshme","periudha":"i panjohur","periudha_detaj":null,"komuna":"N.A.","rajon":"Kosovë","lat":42.2663,"lon":21.2947,"easting_kosovaref01":7524311.633,"northing_kosovaref01":4680790.314,"sistemi_projeksion":"EPSG:9141 (KOSOVAREF01 / Balkans zone 7)","koordinata_burimi":"OSM Nominatim / DTK","saktesia_koordinates":"e përafërt","gjendja":"e mirë","status_mbrojtjes":"e pa përcaktuar","pershkrim_i_shkurter":"Këmishë femrash-është pjesë e veshjes popullore të Medvegjes, nga pëlhura e endur ne vek. Mëngët dhe jaka janë të qendisura me gjilpër me motive të ndryshme.","burimi":"DTK","url_dtk":"https://dtk.rks-gov.net/Objekti?heritageId=9826","verifikuar":"po","shenime":"klasa=N.A.; heritageId=9826"}},{"type":"Feature","id":"sites_luajtshme.12","geometry":{"type":"Point","coordinates":[21.1640849,42.66387714]},"geometry_name":"geom","properties":{"id":"LUA-012","emri":"Knatë (Testi)","lloji_trashegimise":"luajtshme","kategoria":"objekt_luajtshme","periudha":"i panjohur","periudha_detaj":null,"komuna":"N.A.","rajon":"Kosovë","lat":42.6638771,"lon":21.1640849,"easting_kosovaref01":7513450.997,"northing_kosovaref01":4724920.686,"sistemi_projeksion":"EPSG:9141 (KOSOVAREF01 / Balkans zone 7)","koordinata_burimi":"OSM Nominatim (Prishtinë, Kosovo)","saktesia_koordinates":"e përafërt","gjendja":"e mirë","status_mbrojtjes":"e pa përcaktuar","pershkrim_i_shkurter":"Enë nga argjili për mbajtjen e ujit të pijshëm dhe pijeve të tjera. I përket shek. XX.","burimi":"DTK","url_dtk":"https://dtk.rks-gov.net/Objekti?heritageId=9791","verifikuar":"po","shenime":"klasa=N.A.; heritageId=9791"}},{"type":"Feature","id":"sites_luajtshme.13","geometry":{"type":"Point","coordinates":[21.1640849,42.66387714]},"geometry_name":"geom","properties":{"id":"LUA-013","emri":"Legen","lloji_trashegimise":"luajtshme","kategoria":"objekt_luajtshme","periudha":"i panjohur","periudha_detaj":null,"komuna":"N.A.","rajon":"Kosovë","lat":42.6638771,"lon":21.1640849,"easting_kosovaref01":7513450.997,"northing_kosovaref01":4724920.686,"sistemi_projeksion":"EPSG:9141 (KOSOVAREF01 / Balkans zone 7)","koordinata_burimi":"OSM Nominatim (Prishtinë, Kosovo)","saktesia_koordinates":"e përafërt","gjendja":"e mirë","status_mbrojtjes":"e pa përcaktuar","pershkrim_i_shkurter":"Objekt druri, që ka shërbyer për të pastruar këmbët, duart dhe shërbime të tjera në përditshmëri, shek. XX","burimi":"DTK","url_dtk":"https://dtk.rks-gov.net/Objekti?heritageId=9797","verifikuar":"po","shenime":"klasa=N.A.; heritageId=9797"}},{"type":"Feature","id":"sites_luajtshme.14","geometry":{"type":"Point","coordinates":[21.1640849,42.66387714]},"geometry_name":"geom","properties":{"id":"LUA-014","emri":"Marhamë","lloji_trashegimise":"luajtshme","kategoria":"objekt_luajtshme","periudha":"i panjohur","periudha_detaj":null,"komuna":"N.A.","rajon":"Kosovë","lat":42.6638771,"lon":21.1640849,"easting_kosovaref01":7513450.997,"northing_kosovaref01":4724920.686,"sistemi_projeksion":"EPSG:9141 (KOSOVAREF01 / Balkans zone 7)","koordinata_burimi":"OSM Nominatim (Prishtinë, Kosovo)","saktesia_koordinates":"e përafërt","gjendja":"e mirë","status_mbrojtjes":"e pa përcaktuar","pershkrim_i_shkurter":"Marhamë- Është e endur në vek, e punuar nga pambuku dhe mëndafshi. Në dy skajet e gjërsisë së marhamës janë punuar zbukurime me qëndisje. Qëndisja është bërë me fije mëndafshi dhe fije ari, duke fituar motive të ndryshme...","burimi":"DTK","url_dtk":"https://dtk.rks-gov.net/Objekti?heritageId=9842","verifikuar":"po","shenime":"klasa=N.A.; heritageId=9842"}},{"type":"Feature","id":"sites_luajtshme.15","geometry":{"type":"Point","coordinates":[21.1640849,42.66387714]},"geometry_name":"geom","properties":{"id":"LUA-015","emri":"Opingat","lloji_trashegimise":"luajtshme","kategoria":"objekt_luajtshme","periudha":"i panjohur","periudha_detaj":null,"komuna":"N.A.","rajon":"Kosovë","lat":42.6638771,"lon":21.1640849,"easting_kosovaref01":7513450.997,"northing_kosovaref01":4724920.686,"sistemi_projeksion":"EPSG:9141 (KOSOVAREF01 / Balkans zone 7)","koordinata_burimi":"OSM Nominatim (Prishtinë, Kosovo)","saktesia_koordinates":"e përafërt","gjendja":"e mirë","status_mbrojtjes":"e pa përcaktuar","pershkrim_i_shkurter":"Opinga- punoheshin krejtësisht prej lëkurës së gjedheve. Më vonë dredhat e lëkurës , aty-këtu, filluan të zëvendësohen më ,, sixhima dhe kështu filluan të përdoren opingat,, me ,,përkryesatë cilat tipologjikisht nuk ...","burimi":"DTK","url_dtk":"https://dtk.rks-gov.net/Objekti?heritageId=9833","verifikuar":"po","shenime":"klasa=N.A.; heritageId=9833"}},{"type":"Feature","id":"sites_luajtshme.16","geometry":{"type":"Point","coordinates":[21.1640849,42.66387714]},"geometry_name":"geom","properties":{"id":"LUA-016","emri":"Plisi","lloji_trashegimise":"luajtshme","kategoria":"objekt_luajtshme","periudha":"i panjohur","periudha_detaj":null,"komuna":"N.A.","rajon":"Kosovë","lat":42.6638771,"lon":21.1640849,"easting_kosovaref01":7513450.997,"northing_kosovaref01":4724920.686,"sistemi_projeksion":"EPSG:9141 (KOSOVAREF01 / Balkans zone 7)","koordinata_burimi":"OSM Nominatim (Prishtinë, Kosovo)","saktesia_koordinates":"e përafërt","gjendja":"e mirë","status_mbrojtjes":"e pa përcaktuar","pershkrim_i_shkurter":"Plisi - është pjesë e veshjes tradicionale shqiptare për meshkuj. Vendoset në kokë dhe shpesh herë cilësohet si më i veçanti, pasi që ai përdoret vetëm ndër shqiptarë. Është i punuar nga leshi i delës nga zejtarë shqipta...","burimi":"DTK","url_dtk":"https://dtk.rks-gov.net/Objekti?heritageId=9832","verifikuar":"po","shenime":"klasa=N.A.; heritageId=9832"}},{"type":"Feature","id":"sites_luajtshme.17","geometry":{"type":"Point","coordinates":[21.3571197,42.31879974]},"geometry_name":"geom","properties":{"id":"LUA-017","emri":"Qilim","lloji_trashegimise":"luajtshme","kategoria":"objekt_luajtshme","periudha":"i panjohur","periudha_detaj":null,"komuna":"N.A.","rajon":"Kosovë","lat":42.3187997,"lon":21.3571197,"easting_kosovaref01":7529436.571,"northing_kosovaref01":4686641.055,"sistemi_projeksion":"EPSG:9141 (KOSOVAREF01 / Balkans zone 7)","koordinata_burimi":"OSM Nominatim / DTK","saktesia_koordinates":"e përafërt","gjendja":"e mirë","status_mbrojtjes":"e pa përcaktuar","pershkrim_i_shkurter":"Qilim  i endur në vek prej fijeve të leshit. Është i përbëre nga tri polla të barabarta. Ka një kolorit ngjyrash të ndryshme. Në tërë siperfaqen e tij ka një ornamentik të pasur, në të cilin janë realizuar kryesisht mot...","burimi":"DTK","url_dtk":"https://dtk.rks-gov.net/Objekti?heritageId=9855","verifikuar":"po","shenime":"klasa=N.A.; heritageId=9855"}},{"type":"Feature","id":"sites_luajtshme.18","geometry":{"type":"Point","coordinates":[21.1640849,42.66387714]},"geometry_name":"geom","properties":{"id":"LUA-018","emri":"Rozetë tavani (Tavanishte)","lloji_trashegimise":"luajtshme","kategoria":"objekt_luajtshme","periudha":"i panjohur","periudha_detaj":null,"komuna":"N.A.","rajon":"Kosovë","lat":42.6638771,"lon":21.1640849,"easting_kosovaref01":7513450.997,"northing_kosovaref01":4724920.686,"sistemi_projeksion":"EPSG:9141 (KOSOVAREF01 / Balkans zone 7)","koordinata_burimi":"OSM Nominatim (Prishtinë, Kosovo)","saktesia_koordinates":"e përafërt","gjendja":"e mirë","status_mbrojtjes":"e pa përcaktuar","pershkrim_i_shkurter":"Është pjesë dekori për tavanishte (dhomë), është punuar nga mjeshtër popullor. Teknika e punimit është me mjete klasike , si daltë, brisk etj. I takon fillimit të shek. XX","burimi":"DTK","url_dtk":"https://dtk.rks-gov.net/Objekti?heritageId=9794","verifikuar":"po","shenime":"klasa=N.A.; heritageId=9794"}},{"type":"Feature","id":"sites_luajtshme.19","geometry":{"type":"Point","coordinates":[21.1640849,42.66387714]},"geometry_name":"geom","properties":{"id":"LUA-019","emri":"Rreth i fëmijëve","lloji_trashegimise":"luajtshme","kategoria":"objekt_luajtshme","periudha":"i panjohur","periudha_detaj":null,"komuna":"N.A.","rajon":"Kosovë","lat":42.6638771,"lon":21.1640849,"easting_kosovaref01":7513450.997,"northing_kosovaref01":4724920.686,"sistemi_projeksion":"EPSG:9141 (KOSOVAREF01 / Balkans zone 7)","koordinata_burimi":"OSM Nominatim (Prishtinë, Kosovo)","saktesia_koordinates":"e përafërt","gjendja":"e mirë","status_mbrojtjes":"e pa përcaktuar","pershkrim_i_shkurter":"Rreth i fëmijëve -Punim druri, ka shërbyer për të vendosur fëmijën. I përdorur deri në shek. XX.","burimi":"DTK","url_dtk":"https://dtk.rks-gov.net/Objekti?heritageId=9805","verifikuar":"po","shenime":"klasa=N.A.; heritageId=9805"}},{"type":"Feature","id":"sites_luajtshme.20","geometry":{"type":"Point","coordinates":[21.1640849,42.66387714]},"geometry_name":"geom","properties":{"id":"LUA-020","emri":"Shkam","lloji_trashegimise":"luajtshme","kategoria":"objekt_luajtshme","periudha":"i panjohur","periudha_detaj":null,"komuna":"N.A.","rajon":"Kosovë","lat":42.6638771,"lon":21.1640849,"easting_kosovaref01":7513450.997,"northing_kosovaref01":4724920.686,"sistemi_projeksion":"EPSG:9141 (KOSOVAREF01 / Balkans zone 7)","koordinata_burimi":"OSM Nominatim (Prishtinë, Kosovo)","saktesia_koordinates":"e përafërt","gjendja":"e mirë","status_mbrojtjes":"e pa përcaktuar","pershkrim_i_shkurter":"Objekt druri, i cili ka shërbyer për t'u ulur. Fundi shek. XIX","burimi":"DTK","url_dtk":"https://dtk.rks-gov.net/Objekti?heritageId=9796","verifikuar":"po","shenime":"klasa=N.A.; heritageId=9796"}},{"type":"Feature","id":"sites_luajtshme.21","geometry":{"type":"Point","coordinates":[21.1640849,42.66387714]},"geometry_name":"geom","properties":{"id":"LUA-021","emri":"Shportë për mbajtjen e lugëve","lloji_trashegimise":"luajtshme","kategoria":"objekt_luajtshme","periudha":"i panjohur","periudha_detaj":null,"komuna":"N.A.","rajon":"Kosovë","lat":42.6638771,"lon":21.1640849,"easting_kosovaref01":7513450.997,"northing_kosovaref01":4724920.686,"sistemi_projeksion":"EPSG:9141 (KOSOVAREF01 / Balkans zone 7)","koordinata_burimi":"OSM Nominatim (Prishtinë, Kosovo)","saktesia_koordinates":"e përafërt","gjendja":"e mirë","status_mbrojtjes":"e pa përcaktuar","pershkrim_i_shkurter":"Shportë për mbajtjen e lugëve. Prodhim nga druri, shek. XX.","burimi":"DTK","url_dtk":"https://dtk.rks-gov.net/Objekti?heritageId=9800","verifikuar":"po","shenime":"klasa=N.A.; heritageId=9800"}},{"type":"Feature","id":"sites_luajtshme.22","geometry":{"type":"Point","coordinates":[21.1640849,42.66387714]},"geometry_name":"geom","properties":{"id":"LUA-022","emri":"Tabak i kafesë","lloji_trashegimise":"luajtshme","kategoria":"objekt_luajtshme","periudha":"i panjohur","periudha_detaj":null,"komuna":"N.A.","rajon":"Kosovë","lat":42.6638771,"lon":21.1640849,"easting_kosovaref01":7513450.997,"northing_kosovaref01":4724920.686,"sistemi_projeksion":"EPSG:9141 (KOSOVAREF01 / Balkans zone 7)","koordinata_burimi":"OSM Nominatim (Prishtinë, Kosovo)","saktesia_koordinates":"e përafërt","gjendja":"e mirë","status_mbrojtjes":"e pa përcaktuar","pershkrim_i_shkurter":"Dy pamje të tabakut të kafesë (Drugdhendje) -E përdorur për të vendosur kafenë e pjekur deri sa ftohej, e cila pastaj bluhej në mullirin e kafesë, shek. XIX.","burimi":"DTK","url_dtk":"https://dtk.rks-gov.net/Objekti?heritageId=9801","verifikuar":"po","shenime":"klasa=N.A.; heritageId=9801"}},{"type":"Feature","id":"sites_luajtshme.23","geometry":{"type":"Point","coordinates":[21.1640849,42.66387714]},"geometry_name":"geom","properties":{"id":"LUA-023","emri":"Tavolinë","lloji_trashegimise":"luajtshme","kategoria":"objekt_luajtshme","periudha":"i panjohur","periudha_detaj":null,"komuna":"N.A.","rajon":"Kosovë","lat":42.6638771,"lon":21.1640849,"easting_kosovaref01":7513450.997,"northing_kosovaref01":4724920.686,"sistemi_projeksion":"EPSG:9141 (KOSOVAREF01 / Balkans zone 7)","koordinata_burimi":"OSM Nominatim (Prishtinë, Kosovo)","saktesia_koordinates":"e përafërt","gjendja":"e mirë","status_mbrojtjes":"e pa përcaktuar","pershkrim_i_shkurter":"Tavolinë e prodhuar nga druri, nga mjeshtër popullor të kualifikuar për këtë zeje.Tavolina përbëhet nga pjesa e sipërme prej gjashtë këndeve, dhe gjashtë këmbëve. Përshkohet me motive gjeometrike, floreale etj. I përket ...","burimi":"DTK","url_dtk":"https://dtk.rks-gov.net/Objekti?heritageId=9807","verifikuar":"po","shenime":"klasa=N.A.; heritageId=9807"}},{"type":"Feature","id":"sites_luajtshme.24","geometry":{"type":"Point","coordinates":[21.1640849,42.66387714]},"geometry_name":"geom","properties":{"id":"LUA-024","emri":"Vegsh","lloji_trashegimise":"luajtshme","kategoria":"objekt_luajtshme","periudha":"i panjohur","periudha_detaj":null,"komuna":"N.A.","rajon":"Kosovë","lat":42.6638771,"lon":21.1640849,"easting_kosovaref01":7513450.997,"northing_kosovaref01":4724920.686,"sistemi_projeksion":"EPSG:9141 (KOSOVAREF01 / Balkans zone 7)","koordinata_burimi":"OSM Nominatim (Prishtinë, Kosovo)","saktesia_koordinates":"e përafërt","gjendja":"e mirë","status_mbrojtjes":"e pa përcaktuar","pershkrim_i_shkurter":"Enë për zierje gjellërash. Përdorur deri në shek. XX.","burimi":"DTK","url_dtk":"https://dtk.rks-gov.net/Objekti?heritageId=9792","verifikuar":"po","shenime":"klasa=N.A.; heritageId=9792"}},{"type":"Feature","id":"sites_luajtshme.25","geometry":{"type":"Point","coordinates":[21.1640849,42.66387714]},"geometry_name":"geom","properties":{"id":"LUA-025","emri":"Xhubleta","lloji_trashegimise":"luajtshme","kategoria":"objekt_luajtshme","periudha":"i panjohur","periudha_detaj":null,"komuna":"N.A.","rajon":"Kosovë","lat":42.6638771,"lon":21.1640849,"easting_kosovaref01":7513450.997,"northing_kosovaref01":4724920.686,"sistemi_projeksion":"EPSG:9141 (KOSOVAREF01 / Balkans zone 7)","koordinata_burimi":"OSM Nominatim (Prishtinë, Kosovo)","saktesia_koordinates":"e përafërt","gjendja":"e mirë","status_mbrojtjes":"e pa përcaktuar","pershkrim_i_shkurter":"Xhubleta  është veshur në krahinën e Malësis së Madhe. Xhubleta është një fund në trajtë këmbane, që vjen i valëzuar përfundi, sidomos në pjesën e prapme. Bëhej nga një numër i madh copash e rripash të ngushtë shajaku, ...","burimi":"DTK","url_dtk":"https://dtk.rks-gov.net/Objekti?heritageId=9827","verifikuar":"po","shenime":"klasa=N.A.; heritageId=9827"}},{"type":"Feature","id":"sites_luajtshme.26","geometry":{"type":"Point","coordinates":[20.2885757,42.65939864]},"geometry_name":"geom","properties":{"id":"LUA-026","emri":"Veshje popullore burri","lloji_trashegimise":"luajtshme","kategoria":"objekt_luajtshme","periudha":"i panjohur","periudha_detaj":null,"komuna":"Pejë","rajon":"Kosovë","lat":42.6593986,"lon":20.2885757,"easting_kosovaref01":7441676.093,"northing_kosovaref01":4724655.56,"sistemi_projeksion":"EPSG:9141 (KOSOVAREF01 / Balkans zone 7)","koordinata_burimi":"OSM Nominatim / DTK","saktesia_koordinates":"e përafërt","gjendja":"e mirë","status_mbrojtjes":"e pa përcaktuar","pershkrim_i_shkurter":"Veshje popullore e burrit- Krahina e Rugovës. Këtë veshje e karakterizon pos motiveve të pasura ornamentike edhe struktura e pasur morfologjike por jo me shmangie të veçorive tipologjike të veshjes. Kjo veshje në vështri...","burimi":"DTK","url_dtk":"https://dtk.rks-gov.net/Objekti?heritageId=9829","verifikuar":"po","shenime":"klasa=N.A.; heritageId=9829"}},{"type":"Feature","id":"sites_luajtshme.27","geometry":{"type":"Point","coordinates":[20.7891645,42.74756904]},"geometry_name":"geom","properties":{"id":"LUA-027","emri":"Veshje popullore burri","lloji_trashegimise":"luajtshme","kategoria":"objekt_luajtshme","periudha":"i panjohur","periudha_detaj":null,"komuna":"Skënderaj","rajon":"Kosovë","lat":42.747569,"lon":20.7891645,"easting_kosovaref01":7482739.783,"northing_kosovaref01":4734225.342,"sistemi_projeksion":"EPSG:9141 (KOSOVAREF01 / Balkans zone 7)","koordinata_burimi":"OSM Nominatim / DTK","saktesia_koordinates":"e përafërt","gjendja":"e mirë","status_mbrojtjes":"e pa përcaktuar","pershkrim_i_shkurter":"Veshje popullore e burrit- Krahina e Drenicës. Elementi më tipik i kësaj veshje janë tirqit të cilët kanë formën e pantollonave të ngushta prej zhgunit me ngjyrë të kaftë. Është barte deri në shek. XX, e në raste të veça...","burimi":"DTK","url_dtk":"https://dtk.rks-gov.net/Objekti?heritageId=9831","verifikuar":"po","shenime":"klasa=N.A.; heritageId=9831"}},{"type":"Feature","id":"sites_luajtshme.28","geometry":{"type":"Point","coordinates":[20.7891645,42.74756904]},"geometry_name":"geom","properties":{"id":"LUA-028","emri":"Veshje popullore gruaje","lloji_trashegimise":"luajtshme","kategoria":"objekt_luajtshme","periudha":"i panjohur","periudha_detaj":null,"komuna":"Skënderaj","rajon":"Kosovë","lat":42.747569,"lon":20.7891645,"easting_kosovaref01":7482739.783,"northing_kosovaref01":4734225.342,"sistemi_projeksion":"EPSG:9141 (KOSOVAREF01 / Balkans zone 7)","koordinata_burimi":"OSM Nominatim / DTK","saktesia_koordinates":"e përafërt","gjendja":"e mirë","status_mbrojtjes":"e pa përcaktuar","pershkrim_i_shkurter":"Veshje popullore gruaje- Krahina e Drenicës. Kjo veshje dallon për origjinalitetin e vet si, për nga lënda, qepja, bukuria, gjithashtu edhe për nga funksionaliteti, ornamentika e larmishme etj. Karakteristikë e veshjës s...","burimi":"DTK","url_dtk":"https://dtk.rks-gov.net/Objekti?heritageId=9830","verifikuar":"po","shenime":"klasa=N.A.; heritageId=9830"}},{"type":"Feature","id":"sites_luajtshme.29","geometry":{"type":"Point","coordinates":[21.3571197,42.31879974]},"geometry_name":"geom","properties":{"id":"LUA-029","emri":"Shokë burri","lloji_trashegimise":"luajtshme","kategoria":"objekt_luajtshme","periudha":"i panjohur","periudha_detaj":null,"komuna":"Viti","rajon":"Kosovë","lat":42.3187997,"lon":21.3571197,"easting_kosovaref01":7529436.571,"northing_kosovaref01":4686641.055,"sistemi_projeksion":"EPSG:9141 (KOSOVAREF01 / Balkans zone 7)","koordinata_burimi":"OSM Nominatim (Viti, Kosovo)","saktesia_koordinates":"e përafërt","gjendja":"e mirë","status_mbrojtjes":"e pa përcaktuar","pershkrim_i_shkurter":"Shokë burri- Pjesë e veshjës popullore, e punuar në vek. I përket shek.XX","burimi":"DTK","url_dtk":"https://dtk.rks-gov.net/Objekti?heritageId=9823","verifikuar":"po","shenime":"klasa=N.A.; heritageId=9823"}}],"totalFeatures":29,"numberMatched":29,"numberReturned":29,"timeStamp":"2026-06-11T19:07:18.096Z","crs":{"type":"name","properties":{"name":"urn:ogc:def:crs:EPSG::4326"}}}